name,uid,code,parent,shortname,description,openingdate,closedate,comment,featuretype,coordinates,url,contactperson,address,email,phonenumber
Kenya,HfVjCurKxh2,,,Kenya,,NA,NA,,NONE,,,NA,NA,NA,NA
Kwale County,N7YETT3A9r1,29,HfVjCurKxh2,Kwale County,,NA,NA,,MULTI_POLYGON,"[[[[39.2696,-4.6529],[39.2945,-4.662],[39.2768,-4.6707],[39.2696,-4.6529]]],[[[39.3605,-4.6529],[39.4005,-4.6576],[39.4069,-4.6746],[39.3482,-4.6667],[39.3605,-4.6529]]],[[[39.3251,-3.5642],[39.3545,-3.5945],[39.3652,-3.7244],[39.3976,-3.7321],[39.3873,-3.8023],[39.5028,-3.8795],[39.5552,-3.9571],[39.5462,-3.9813],[39.5794,-3.9873],[39.5869,-4.0507],[39.5663,-4.0257],[39.559,-4.0418],[39.5782,-4.0316],[39.5666,-4.0484],[39.5882,-4.0677],[39.5754,-4.0868],[39.609,-4.0627],[39.6615,-4.1193],[39.6143,-4.2031],[39.5396,-4.4379],[39.5246,-4.4191],[39.5004,-4.4446],[39.4507,-4.5868],[39.436,-4.5898],[39.4271,-4.5598],[39.449,-4.5259],[39.4284,-4.5329],[39.4418,-4.5384],[39.4223,-4.5584],[39.4129,-4.5504],[39.4173,-4.5807],[39.4023,-4.5901],[39.3943,-4.5774],[39.3982,-4.6191],[39.4132,-4.6224],[39.4049,-4.6462],[39.3054,-4.6388],[39.3141,-4.5801],[39.2983,-4.5995],[39.293,-4.5795],[39.2871,-4.6185],[39.2813,-4.5938],[39.2571,-4.5901],[39.2737,-4.593],[39.2757,-4.6254],[39.2366,-4.6349],[39.2466,-4.6423],[39.2256,-4.671],[38.4524,-4.1422],[38.9513,-3.9565],[39.0346,-3.7584],[38.9381,-3.7],[38.9715,-3.64],[39.0613,-3.688],[39.0966,-3.5661],[39.3251,-3.5642]]]]",,NA,NA,NA,NA
Vihiga County,sANMZ3lpqGs,55,HfVjCurKxh2,Vihiga County,,NA,NA,,POLYGON,"[[[[34.9276,0.2046],[34.9136,0.1575],[34.8578,0.1214],[34.8344,0.0326],[34.7395,0.0065],[34.7469,-0.0182],[34.7239,-0.0028],[34.6874,-0.0232],[34.6899,-0.0116],[34.6009,0.0129],[34.5775,-0.0373],[34.5333,-0.0138],[34.5583,0.0496],[34.5545,0.095],[34.6019,0.1254],[34.6807,0.1234],[34.7362,0.1507],[34.7543,0.1411],[34.8144,0.165],[34.817,0.1875],[34.898,0.2093],[34.9122,0.1991],[34.9453,0.2192],[34.9276,0.2046]]]]",,NA,NA,NA,NA
Siaya County,u4t9H8XyU9P,48,HfVjCurKxh2,Siaya County,,NA,NA,,POLYGON,"[[[[34.3733,0.3088],[34.4,0.2576],[34.3819,0.2282],[34.3835,0.1809],[34.4411,0.2178],[34.4264,0.1493],[34.4773,0.155],[34.4794,0.1363],[34.4551,0.1277],[34.4717,0.1033],[34.5418,0.1377],[34.5545,0.095],[34.5583,0.0496],[34.5333,-0.0138],[34.4099,-0.0804],[34.4391,-0.175],[34.4123,-0.1763],[34.4096,-0.1955],[34.4005,-0.1843],[34.3434,-0.1963],[34.3432,-0.223],[34.386,-0.2384],[34.3989,-0.2904],[34.3112,-0.3743],[34.3055,-0.4026],[34.2873,-0.402],[34.2806,-0.3833],[34.3021,-0.368],[34.2552,-0.3282],[34.2656,-0.3059],[34.2443,-0.2994],[34.2667,-0.2597],[34.2432,-0.2363],[34.2039,-0.24],[34.1979,-0.2127],[34.1824,-0.2114],[34.1911,-0.1879],[34.1425,-0.2082],[34.0873,-0.1448],[34.1157,-0.1191],[34.1512,-0.117],[34.1123,-0.1115],[34.1432,-0.0875],[34.1288,-0.0701],[34.1385,-0.0534],[34.108,-0.0756],[34.0746,-0.0698],[34.0939,-0.0884],[34.0836,-0.0821],[34.0655,-0.1154],[34.0613,-0.0713],[34.0309,-0.0821],[34.0273,-0.0688],[34.0635,-0.0309],[34.0435,-0.0339],[34.0368,-0.0591],[34.0225,-0.04],[34.0046,-0.0452],[34.0105,-0.0275],[34.0449,0.0072],[34.0712,0.1201],[34.1081,0.1326],[34.1146,0.2408],[34.1608,0.3011],[34.2021,0.264],[34.2022,0.2886],[34.2323,0.2934],[34.2467,0.315],[34.3733,0.3088]]]]",,NA,NA,NA,NA
Kisumu County,tAbBVBbueqD,27,HfVjCurKxh2,Kisumu County,,NA,NA,,POLYGON,"[[[[35.2265,-0.1052],[35.2961,-0.1739],[35.33,-0.1769],[35.3425,-0.2381],[35.317,-0.2494],[35.2683,-0.2363],[35.2031,-0.1661],[35.1263,-0.1563],[35.1022,-0.2007],[35.0611,-0.2184],[35.0482,-0.2997],[35.0082,-0.3335],[35.0098,-0.3936],[34.9864,-0.416],[34.9339,-0.416],[34.9142,-0.3899],[34.8893,-0.4043],[34.8233,-0.3889],[34.8103,-0.3549],[34.7857,-0.3466],[34.7557,-0.2925],[34.7897,-0.2848],[34.8264,-0.3275],[34.8532,-0.2891],[34.8444,-0.2691],[34.8221,-0.2681],[34.7801,-0.1758],[34.7313,-0.1421],[34.7452,-0.0846],[34.7262,-0.1045],[34.6919,-0.0915],[34.6474,-0.1141],[34.6243,-0.1512],[34.5555,-0.1408],[34.5559,-0.1569],[34.5058,-0.196],[34.4573,-0.1652],[34.4391,-0.175],[34.4099,-0.0804],[34.5333,-0.0138],[34.5775,-0.0373],[34.6009,0.0129],[34.6899,-0.0116],[34.6874,-0.0232],[34.7239,-0.0028],[34.7469,-0.0182],[34.7522,-0.0315],[34.8274,0.0262],[34.8074,-0.0215],[34.9296,-0.0344],[34.9914,-0.0196],[35.0087,-0.0267],[35.0077,-0.0523],[35.0585,-0.0524],[35.0642,-0.0651],[35.1012,-0.0016],[35.15,-0.0357],[35.2118,-0.0296],[35.2265,-0.1052]]]]",,NA,NA,NA,NA
Kinango Sub County,LOgbecTRkbp,304,N7YETT3A9r1,Kinango,,NA,NA,,POLYGON,"[[[[39.5852,-4.0722],[39.5202,-4.0682],[39.5165,-4.0982],[39.4603,-4.1119],[39.4221,-4.1503],[39.3828,-4.1617],[39.3836,-4.1396],[39.3114,-4.1458],[39.2973,-4.2223],[39.2708,-4.2345],[39.2386,-4.225],[39.1711,-4.3209],[39.1434,-4.3089],[39.1384,-4.2548],[39.119,-4.2267],[39.0896,-4.222],[39.093,-4.1913],[39.0713,-4.2064],[39.0566,-4.1917],[39.035,-4.2218],[39.0048,-4.2083],[38.9521,-4.2208],[38.7694,-4.025],[38.9513,-3.9565],[39.0346,-3.7584],[38.9381,-3.7],[38.9545,-3.6716],[38.9715,-3.64],[39.0613,-3.688],[39.0966,-3.5661],[39.3238,-3.5582],[39.3545,-3.5945],[39.3531,-3.6934],[39.3652,-3.7244],[39.3976,-3.7321],[39.3942,-3.7721],[39.3873,-3.8023],[39.4241,-3.8147],[39.5271,-3.9084],[39.5558,-3.9582],[39.5462,-3.9813],[39.5794,-3.9873],[39.5869,-4.0507],[39.5663,-4.0257],[39.559,-4.0418],[39.5685,-4.0263],[39.579,-4.0324],[39.5666,-4.0484],[39.5852,-4.0722]]]]",,NA,NA,NA,NA
Rarieda Sub County,XcRpb1xsM64,603,u4t9H8XyU9P,Rarieda,,NA,NA,,POLYGON,"[[[[34.2432,-0.2363],[34.2699,-0.2099],[34.2967,-0.1284],[34.3828,-0.0629],[34.4154,-0.0756],[34.4391,-0.175],[34.4123,-0.1763],[34.4096,-0.1955],[34.4005,-0.1843],[34.3434,-0.1963],[34.3392,-0.2187],[34.3816,-0.232],[34.3995,-0.2875],[34.3112,-0.3743],[34.3055,-0.4026],[34.2824,-0.396],[34.3021,-0.368],[34.2552,-0.3282],[34.2656,-0.3059],[34.2452,-0.3021],[34.2684,-0.2644],[34.2432,-0.2363]]]]",,NA,NA,NA,NA
Nyakach Sub County,kBQIjtWUBqj,623,tAbBVBbueqD,Nyakach,,NA,NA,,NONE,,,NA,NA,NA,NA
Hamisi Sub County,BXaq5PxSfz2,808,sANMZ3lpqGs,Hamisi S.C.,,NA,NA,,POLYGON,"[[[[34.6611,0.057],[34.7179,0.0212],[34.7425,0.0655],[34.8083,0.0953],[34.8254,0.144],[34.8144,0.165],[34.8114,0.1845],[34.898,0.2093],[34.9122,0.1991],[34.9453,0.2192],[34.9068,0.1543],[34.8578,0.1214],[34.8589,0.0863],[34.8344,0.0326],[34.815,0.0356],[34.7642,0.0019],[34.7395,0.0065],[34.7469,-0.0182],[34.7239,-0.0028],[34.6874,-0.0232],[34.6811,-0.0126],[34.612,0.0027],[34.6427,0.0208],[34.6611,0.057]]]]",,NA,NA,NA,NA
Kisumu West Sub County,YzEDO9Mq4TR,,tAbBVBbueqD,Kisumu West,,NA,NA,The district was created 2 years ago out of Kisumu East  District and part of old Kisumu West and now has a functional DHMT. The facilities for this district have equally been identified  through the defined boundaries,NONE,,,NA,NA,NA,NA
Gem Sub County,PKeFksHlJkB,1240,u4t9H8XyU9P,Gem,,NA,NA,23/Feb./2011 Separated from Siaya,NONE,,,NA,NA,NA,NA
Luanda Sub County,lkYdgjRSOoE,,sANMZ3lpqGs,Luanda S.C,,NA,NA,,NONE,,,NA,NA,NA,NA
Sabatia Sub County,urtJSF5jcBC,1219,sANMZ3lpqGs,Sabatia S.C.,,NA,NA,,NONE,,,NA,NA,NA,NA
Emuhaya Sub County,Lpy789vqRC6,807,sANMZ3lpqGs,Emuhaya S.C.,,NA,NA,,POLYGON,"[[[[34.6717,0.08],[34.6611,0.057],[34.6427,0.0208],[34.612,0.0027],[34.5912,0.0064],[34.5826,-0.0319],[34.5639,-0.0419],[34.5622,-0.0183],[34.5333,-0.0138],[34.5583,0.0496],[34.5545,0.095],[34.5986,0.1244],[34.6777,0.1341],[34.6782,0.1277],[34.6717,0.08]]]]",,NA,NA,NA,NA
Alego Usonga Sub County,Cu46otDi1RO,601,u4t9H8XyU9P,Alego Usonga,,NA,NA,,POLYGON,"[[[[34.4447,0.2078],[34.4243,0.1832],[34.4371,0.1672],[34.4264,0.1493],[34.4773,0.155],[34.4794,0.1363],[34.4551,0.1277],[34.4717,0.1033],[34.493,0.1014],[34.4969,0.1261],[34.5071,0.1186],[34.5418,0.1377],[34.5545,0.095],[34.5583,0.0496],[34.5333,-0.0138],[34.4154,-0.0756],[34.3828,-0.0629],[34.3541,-0.0289],[34.2544,-0.0493],[34.2142,-0.0133],[34.1577,-0.0093],[34.1529,0.0104],[34.1245,0.0165],[34.1093,0.0413],[34.0449,0.0072],[34.0712,0.1201],[34.0946,0.133],[34.1013,0.1253],[34.1123,0.1441],[34.1031,0.1867],[34.1146,0.2408],[34.1611,0.3013],[34.2021,0.264],[34.2022,0.2886],[34.2323,0.2934],[34.2467,0.315],[34.3683,0.31],[34.3925,0.2851],[34.3835,0.1809],[34.4309,0.2159],[34.4447,0.2078]]]]",,NA,NA,NA,NA
Bondo Sub County,JNvqpOnKfGR,602,u4t9H8XyU9P,Bondo,,NA,NA,,MULTI_POLYGON,"[[[[34.3828,-0.0629],[34.2967,-0.1284],[34.2699,-0.2099],[34.2432,-0.2363],[34.2039,-0.24],[34.1979,-0.2127],[34.1824,-0.2114],[34.1911,-0.1879],[34.1425,-0.2082],[34.0873,-0.1448],[34.1157,-0.1191],[34.1303,-0.1289],[34.1512,-0.117],[34.1123,-0.1115],[34.1432,-0.0875],[34.1288,-0.0701],[34.1385,-0.0534],[34.108,-0.0756],[34.0746,-0.0698],[34.0939,-0.0884],[34.0836,-0.0821],[34.0655,-0.1154],[34.0613,-0.0713],[34.0309,-0.0821],[34.0273,-0.0688],[34.0328,-0.0784],[34.0635,-0.0309],[34.0435,-0.0339],[34.0368,-0.0591],[34.0225,-0.04],[34.0046,-0.0452],[34.0105,-0.0275],[34.0449,0.0072],[34.1093,0.0413],[34.1245,0.0165],[34.1529,0.0104],[34.1577,-0.0093],[34.2142,-0.0133],[34.2544,-0.0493],[34.3541,-0.0289],[34.3828,-0.0629]]],[[[33.9868,-0.1278],[34.0388,-0.1277],[34.0241,-0.1419],[33.9867,-0.1361],[33.9868,-0.1278]]]]",,NA,NA,NA,NA
Msambweni Sub County,ADMywdLwoRX,305,N7YETT3A9r1,Msambweni,,NA,NA,,MULTI_POLYGON,"[[[[39.5766,-4.2505],[39.6021,-4.2492],[39.5409,-4.4351],[39.5246,-4.4191],[39.5004,-4.4446],[39.4533,-4.5838],[39.4363,-4.5901],[39.4271,-4.5598],[39.449,-4.5259],[39.4284,-4.5329],[39.4418,-4.5384],[39.4223,-4.5584],[39.4129,-4.5504],[39.4173,-4.5807],[39.4023,-4.5901],[39.3943,-4.5774],[39.3982,-4.6191],[39.4132,-4.6224],[39.4049,-4.6462],[39.3054,-4.6388],[39.3141,-4.5801],[39.2983,-4.5995],[39.293,-4.5795],[39.2871,-4.6185],[39.2813,-4.5938],[39.2571,-4.5901],[39.2737,-4.593],[39.2757,-4.6254],[39.2671,-4.6168],[39.2366,-4.6349],[39.2466,-4.6423],[39.2193,-4.6707],[38.4524,-4.1422],[38.7694,-4.025],[38.9521,-4.2208],[39.0048,-4.2083],[39.035,-4.2218],[39.0566,-4.1917],[39.0713,-4.2064],[39.093,-4.1913],[39.0896,-4.222],[39.119,-4.2267],[39.1384,-4.2548],[39.1434,-4.3089],[39.1711,-4.3209],[39.1999,-4.3831],[39.226,-4.374],[39.3159,-4.3983],[39.3382,-4.3786],[39.3952,-4.3888],[39.421,-4.3834],[39.4778,-4.324],[39.4984,-4.2729],[39.4805,-4.2631],[39.5439,-4.2591],[39.5692,-4.2391],[39.5766,-4.2505]]],[[[39.3605,-4.6529],[39.4005,-4.6576],[39.4069,-4.6746],[39.3482,-4.6667],[39.3605,-4.6529]]],[[[39.2696,-4.6529],[39.2945,-4.662],[39.2768,-4.6707],[39.2696,-4.6529]]]]",,NA,NA,NA,NA
Kisumu East Sub County,PRpKwAloU5b,604,tAbBVBbueqD,Kisumu East,,NA,NA,community based facility,POLYGON,"[[[[34.5812,-0.1445],[34.5889,-0.1128],[34.6494,-0.0965],[34.6291,-0.0741],[34.6748,-0.0543],[34.6811,-0.0126],[34.6874,-0.0232],[34.7239,-0.0028],[34.7469,-0.0182],[34.7522,-0.0315],[34.8274,0.0262],[34.8074,-0.0215],[34.9296,-0.0344],[34.9914,-0.0196],[35.0087,-0.0267],[35.0077,-0.0523],[35.0062,-0.072],[34.9423,-0.0713],[34.9417,-0.0915],[34.9837,-0.0843],[34.9646,-0.1074],[34.9718,-0.1424],[34.9423,-0.1436],[34.9102,-0.1692],[34.8724,-0.2507],[34.8771,-0.2847],[34.8512,-0.2989],[34.8458,-0.2705],[34.8221,-0.2681],[34.7801,-0.1758],[34.7436,-0.1635],[34.7313,-0.1421],[34.7492,-0.0863],[34.7262,-0.1045],[34.6919,-0.0915],[34.6474,-0.1141],[34.6243,-0.1512],[34.5812,-0.1445]]]]",,NA,NA,NA,NA
Matuga Sub County,wUNEDOnx9uB,303,N7YETT3A9r1,Matuga,,NA,NA,,POLYGON,"[[[[39.1711,-4.3209],[39.2386,-4.225],[39.2708,-4.2345],[39.2973,-4.2223],[39.3114,-4.1458],[39.3836,-4.1396],[39.3828,-4.1617],[39.4221,-4.1503],[39.4603,-4.1119],[39.5165,-4.0982],[39.5202,-4.0682],[39.5852,-4.0722],[39.5754,-4.0868],[39.609,-4.0627],[39.6615,-4.1193],[39.6021,-4.2492],[39.5766,-4.2505],[39.5692,-4.2391],[39.5439,-4.2591],[39.4805,-4.2631],[39.4984,-4.2729],[39.4778,-4.324],[39.421,-4.3834],[39.3952,-4.3888],[39.3382,-4.3786],[39.3159,-4.3983],[39.226,-4.374],[39.1999,-4.3831],[39.1711,-4.3209]]]]",,NA,NA,NA,NA
Seme Sub County,LRNmnMw1fBs,605,tAbBVBbueqD,Seme,,NA,NA,Seme was originally called Kisumu West and combined  the current Kisumu West(Formerly Kisumu North) and what has remained as Seme,POLYGON,"[[[[34.4391,-0.175],[34.4154,-0.0756],[34.5333,-0.0138],[34.5622,-0.0183],[34.5639,-0.0419],[34.5826,-0.0319],[34.5912,0.0064],[34.612,0.0027],[34.6811,-0.0126],[34.6748,-0.0543],[34.6291,-0.0741],[34.6494,-0.0965],[34.5889,-0.1128],[34.5812,-0.1445],[34.5555,-0.1408],[34.5559,-0.1569],[34.5058,-0.196],[34.4573,-0.1652],[34.4391,-0.175]]]]",,NA,NA,NA,NA
Nyando Sub County,iRK9uABUTVZ,606,tAbBVBbueqD,Nyando,,NA,NA,,POLYGON,"[[[[35.2185,-0.1833],[35.1961,-0.1625],[35.1263,-0.1563],[35.1022,-0.2007],[35.0638,-0.2149],[35.0482,-0.2997],[35.0082,-0.3335],[35.0098,-0.3936],[34.9864,-0.416],[34.9135,-0.4061],[34.9142,-0.3899],[34.8893,-0.4043],[34.8233,-0.3889],[34.8103,-0.3549],[34.763,-0.3154],[34.7557,-0.2925],[34.788,-0.2844],[34.8225,-0.3269],[34.8512,-0.2989],[34.8771,-0.2847],[34.8724,-0.2507],[34.9102,-0.1692],[34.9423,-0.1436],[34.9718,-0.1424],[34.9646,-0.1074],[34.9837,-0.0843],[34.9417,-0.0915],[34.9423,-0.0713],[35.0062,-0.072],[35.0077,-0.0523],[35.0585,-0.0524],[35.0642,-0.0651],[35.0917,-0.0384],[35.1012,-0.0016],[35.15,-0.0357],[35.1782,-0.026],[35.2191,-0.037],[35.2265,-0.1052],[35.2961,-0.1739],[35.3247,-0.1752],[35.3425,-0.2381],[35.3194,-0.2478],[35.2667,-0.2356],[35.2185,-0.1833]]]]",,NA,NA,NA,NA
Ugunja Sub County,m9nsQ1MXlVU,1241,u4t9H8XyU9P,Ugunja,,NA,NA,,NONE,,,NA,NA,NA,NA
Muhoroni Sub County,NmbwkQ5r5cB,1248,tAbBVBbueqD,Muhoroni,,NA,NA,New district curved out of Nyando District,NONE,,,NA,NA,NA,NA
Ugenya Sub County,InECuIlzJGx,622,u4t9H8XyU9P,Ugenya,,NA,NA,,NONE,,,NA,NA,NA,NA
Lunga Lunga Sub County,TdcYaufNV4p,,N7YETT3A9r1,Lunga Lunga Sub County,,NA,NA,,NONE,,,NA,NA,NA,NA
Vihiga Sub County,OOF3UX4yOt7,601647,sANMZ3lpqGs,V.S.C.,,NA,NA,,POINT,"[36.86299,-1.28891]",,NA,NA,NA,NA
Mwavumbo Ward,vjeHNVWOsRk,,LOgbecTRkbp,Mwavumbo Ward,,NA,NA,,NONE,,,NA,NA,NA,NA
Shauri Moyo Kaloleni Ward,UqLylL8NY0G,,PRpKwAloU5b,Shauri Moyo Kaloleni Ward,,NA,NA,,NONE,,,NA,NA,NA,NA
Manyatta B Ward,It7fWcKbcZX,,PRpKwAloU5b,Manyatta B Ward,,NA,NA,,NONE,,,NA,NA,NA,NA
Puma Ward,QEGPqON6Zcj,,LOgbecTRkbp,Puma Ward,,NA,NA,,NONE,,,NA,NA,NA,NA
East Seme Ward,BRDtIETwfeW,,LRNmnMw1fBs,East Seme Ward,,NA,NA,,NONE,,,NA,NA,NA,NA
Kolwa East Ward,kQXcKGM8chb,,PRpKwAloU5b,Kolwa East Ward,,NA,NA,,NONE,,,NA,NA,NA,NA
Chavakali Ward,NHcPsj2IMSr,,urtJSF5jcBC,Chavakali Ward,,NA,NA,,NONE,,,NA,NA,NA,NA
Kubo South Ward,dQkHuP0kVjq,,wUNEDOnx9uB,Kubo South Ward,,NA,NA,,NONE,,,NA,NA,NA,NA
Railways Ward,ZplKg3SMkIC,,PRpKwAloU5b,Railways Ward,,NA,NA,,NONE,,,NA,NA,NA,NA
Banja Ward,r6KB3hMzaXh,,BXaq5PxSfz2,Banja Ward,,NA,NA,,NONE,,,NA,NA,NA,NA
Gisambai Ward,SV0B2BvVy8Q,,BXaq5PxSfz2,Gisambai Ward,,NA,NA,,NONE,,,NA,NA,NA,NA
Jepkoyai Ward,kTJX3DMkQLk,,BXaq5PxSfz2,Jepkoyai Ward,,NA,NA,,NONE,,,NA,NA,NA,NA
Gisambai Ward,d7jBlFuDPt7,,BXaq5PxSfz2,Gisambai Ward,,NA,NA,,NONE,,,NA,NA,NA,NA
North West Kisumu Ward,r6rYPoyjxvR,,YzEDO9Mq4TR,North West Kisumu Ward,,NA,NA,,NONE,,,NA,NA,NA,NA
Kinango Ward,PrGoCfZ06gm,,LOgbecTRkbp,Kinango Ward,,NA,NA,,NONE,,,NA,NA,NA,NA
Gambato Bongwe Ward,ByAmsolBen5,,ADMywdLwoRX,Gambato Bongwe Ward,,NA,NA,,NONE,,,NA,NA,NA,NA
Kobura Ward,s2NvoXiAGWj,,iRK9uABUTVZ,Kobura Ward,,NA,NA,,NONE,,,NA,NA,NA,NA
Ukunda Ward,iBuXrh8ESS2,,ADMywdLwoRX,Ukunda Ward,,NA,NA,,NONE,,,NA,NA,NA,NA
Chengoni/Samburu Ward,TwX1KTjb8Qp,,LOgbecTRkbp,Chengoni/Samburu Ward,,NA,NA,,NONE,,,NA,NA,NA,NA
North Kisumu Ward,SPH4pigpmjD,,YzEDO9Mq4TR,North Kisumu Ward,,NA,NA,,NONE,,,NA,NA,NA,NA
Ombeyi Ward,cnOFVqKDVEi,,NmbwkQ5r5cB,Ombeyi Ward,,NA,NA,,NONE,,,NA,NA,NA,NA
Nyalenda A Ward,roJc7UkCD2l,,PRpKwAloU5b,Nyalenda A Ward,,NA,NA,,NONE,,,NA,NA,NA,NA
Waa Ward,XZNJ3zaiaZH,,wUNEDOnx9uB,Waa Ward,,NA,NA,,NONE,,,NA,NA,NA,NA
Mackinon Road Ward,wfUbX2QagwS,,LOgbecTRkbp,Mackinon Road Ward,,NA,NA,,NONE,,,NA,NA,NA,NA
Chemelil Ward,WzjCQ2bnOk7,,NmbwkQ5r5cB,Chemelil Ward,,NA,NA,,NONE,,,NA,NA,NA,NA
Masogo/Nyang'Oma Ward,FFfi4zTqdH2,,NmbwkQ5r5cB,Masogo/Nyang'Oma Ward,,NA,NA,,NONE,,,NA,NA,NA,NA
Shamakhokho Ward,hXKwpKcEej9,,BXaq5PxSfz2,Shamakhokho Ward,,NA,NA,,NONE,,,NA,NA,NA,NA
Muhoroni Koru Ward,cyChGO6tdNS,,NmbwkQ5r5cB,Muhoroni Koru Ward,,NA,NA,,NONE,,,NA,NA,NA,NA
Ruma Ubuntu Afya Clinic - Rarieda,lrx1kMHKBxY,,XcRpb1xsM64,Ruma Ubuntu Afya Clinic - Rarieda,"Ndori - Lwanda Kotieno road, 2 kms from Aram mkt, facility situated in Ruma Women Group Development Centre",NA,NA,,NONE,,,NA,NA,NA,NA
Ramisi Ward,VGENlt3MTt7,,ADMywdLwoRX,Ramisi Ward,,NA,NA,,NONE,,,NA,NA,NA,NA
Ndavaya Ward,YZvux1SW3bs,,LOgbecTRkbp,Ndavaya Ward,,NA,NA,,NONE,,,NA,NA,NA,NA
Muhudu Ward,Ir34yLL8Wvp,,BXaq5PxSfz2,Muhudu Ward,,NA,NA,,NONE,,,NA,NA,NA,NA
Kasemeni Ward,aom47Uzq1RZ,,LOgbecTRkbp,Kasemeni Ward,,NA,NA,,NONE,,,NA,NA,NA,NA
Tambua Ward,DwsaTNMNG9y,,BXaq5PxSfz2,Tambua Ward,,NA,NA,,NONE,,,NA,NA,NA,NA
Lyaduywa/Izava Ward,QbCSvi9H3CN,,urtJSF5jcBC,Lyaduywa/Izava Ward,,NA,NA,,NONE,,,NA,NA,NA,NA
East Ugenya Ward,XIgwnIXyBx0,,InECuIlzJGx,East Ugenya Ward,,NA,NA,,NONE,,,NA,NA,NA,NA
North Ugenya Ward,quAHj7k172D,,InECuIlzJGx,North Ugenya Ward,,NA,NA,,NONE,,,NA,NA,NA,NA
West Kisumu Ward,DP7qvMiw5Du,,YzEDO9Mq4TR,West Kisumu Ward,,NA,NA,,NONE,,,NA,NA,NA,NA
Dzombo Ward,lijbuerznbA,,TdcYaufNV4p,Dzombo Ward,Its a ward,NA,NA,,NONE,,,NA,NA,NA,NA
Mkongani Ward,rzPzDuVVuqw,,wUNEDOnx9uB,Mkongani Ward,,NA,NA,,NONE,,,NA,NA,NA,NA
Ukwala Ward,AxesNVgsvhq,,InECuIlzJGx,Ukwala Ward,,NA,NA,,NONE,,,NA,NA,NA,NA
Jepkoyai Ward,USg05TR1JwK,,BXaq5PxSfz2,Jepkoyai Ward,,NA,NA,,NONE,,,NA,NA,NA,NA
Muhudu Ward,tDKdg7EyyCj,,BXaq5PxSfz2,Muhudu Ward,,NA,NA,,NONE,,,NA,NA,NA,NA
Shiru Ward,iphxMgFUJmE,,BXaq5PxSfz2,Shiru Ward,,NA,NA,,NONE,,,NA,NA,NA,NA
Tambua Ward,pyG6e1Uq18m,,BXaq5PxSfz2,Tambua Ward,,NA,NA,,NONE,,,NA,NA,NA,NA
North Uyoma Ward,c8htRsEJD2W,,XcRpb1xsM64,North Uyoma Ward,,NA,NA,,NONE,,,NA,NA,NA,NA
South Uyoma Ward,VlWsveTXbi3,,XcRpb1xsM64,South Uyoma Ward,,NA,NA,,NONE,,,NA,NA,NA,NA
West Asembo Ward,kazFsB6YZ6J,,XcRpb1xsM64,West Asembo Ward,,NA,NA,,NONE,,,NA,NA,NA,NA
West Uyoma Ward,IqPuAjRYM1t,,XcRpb1xsM64,West Uyoma Ward,,NA,NA,,NONE,,,NA,NA,NA,NA
Central Alego Ward,fpnhZCEZEGQ,,Cu46otDi1RO,Central Alego Ward,,NA,NA,,NONE,,,NA,NA,NA,NA
Central Kisumu Ward,Xs7PwQOVMmb,,YzEDO9Mq4TR,Central Kisumu Ward,,NA,NA,,NONE,,,NA,NA,NA,NA
South West Kisumu Ward,hAzpUozlCyI,,YzEDO9Mq4TR,South West Kisumu Ward,,NA,NA,,NONE,,,NA,NA,NA,NA
North Alego Ward,zcpKiQgMNyb,,Cu46otDi1RO,North Alego Ward,,NA,NA,,NONE,,,NA,NA,NA,NA
Siaya Township Ward,bcaDvBIDj6b,,Cu46otDi1RO,Siaya Township Ward,,NA,NA,,NONE,,,NA,NA,NA,NA
Usonga Ward,utYTK2xBC3k,,Cu46otDi1RO,Usonga Ward,,NA,NA,,NONE,,,NA,NA,NA,NA
West Alego Ward,zaHyyp9lXME,,Cu46otDi1RO,West Alego Ward,,NA,NA,,NONE,,,NA,NA,NA,NA
South East Alego Ward,hMo6PZnvQqb,,Cu46otDi1RO,South East Alego Ward,,NA,NA,,NONE,,,NA,NA,NA,NA
Awasi/Onjiko Ward,Vi7hrFiryu0,,iRK9uABUTVZ,Awasi/Onjiko Ward,,NA,NA,,NONE,,,NA,NA,NA,NA
East Kano/Wawidhi Ward,ONutw6s6W4y,,iRK9uABUTVZ,East Kano/Wawidhi Ward,,NA,NA,,NONE,,,NA,NA,NA,NA
Kabonyo kanyagwal,LCXl4ftRJYy,,iRK9uABUTVZ,Kabonyo kanyagwal,,NA,NA,,NONE,,,NA,NA,NA,NA
Central Sakwa Ward,JVz0J1MJJ0V,,JNvqpOnKfGR,Central Sakwa Ward,,NA,NA,,NONE,,,NA,NA,NA,NA
North Sakwa Ward,EmooFdjzKlm,,JNvqpOnKfGR,North Sakwa Ward,,NA,NA,,NONE,,,NA,NA,NA,NA
South Sakwa Ward,CRBP2g6KqWH,,JNvqpOnKfGR,South Sakwa Ward,,NA,NA,,NONE,,,NA,NA,NA,NA
West Sakwa Ward,uid3Vo2PCsW,,JNvqpOnKfGR,West Sakwa Ward,,NA,NA,,NONE,,,NA,NA,NA,NA
Yimbo East Ward,bxQkw99jktF,,JNvqpOnKfGR,Yimbo East Ward,,NA,NA,,NONE,,,NA,NA,NA,NA
West Yimbo Ward,NYqz8G2gfEC,,JNvqpOnKfGR,West Yimbo Ward,,NA,NA,,NONE,,,NA,NA,NA,NA
Busali Ward,cUBWuuQYISs,,urtJSF5jcBC,Busali Ward,,NA,NA,,NONE,,,NA,NA,NA,NA
Central Nyakach Ward,go41UxgIdh5,,kBQIjtWUBqj,Central Nyakach Ward,,NA,NA,,NONE,,,NA,NA,NA,NA
North Nyakach Ward,G2B9ridstXR,,kBQIjtWUBqj,North Nyakach Ward,,NA,NA,,NONE,,,NA,NA,NA,NA
South East Nyakach Ward,TAZBFBDq6KC,,kBQIjtWUBqj,South East Nyakach Ward,,NA,NA,,NONE,,,NA,NA,NA,NA
South West Nyakach Ward,oTl0WEQrKtX,,kBQIjtWUBqj,South West Nyakach Ward,,NA,NA,,NONE,,,NA,NA,NA,NA
West Nyakach Ward,cSmqxMnL3hd,,kBQIjtWUBqj,West Nyakach Ward,,NA,NA,,NONE,,,NA,NA,NA,NA
Luanda South Ward,P35Hsu3jEza,,lkYdgjRSOoE,Luanda South Ward,,NA,NA,,NONE,,,NA,NA,NA,NA
Central Bunyore Ward,rF4SKTlT0XH,,Lpy789vqRC6,Central Bunyore Ward,,NA,NA,,NONE,,,NA,NA,NA,NA
North East Bunyore Ward,AgnY1dRfILu,,Lpy789vqRC6,North East Bunyore Ward,,NA,NA,,NONE,,,NA,NA,NA,NA
West Bunyore Ward,HxODkmO42Nw,,Lpy789vqRC6,West Bunyore Ward,,NA,NA,,NONE,,,NA,NA,NA,NA
West Sabatia Ward,J5T5BAIIILr,,urtJSF5jcBC,West Sabatia Ward,,NA,NA,,NONE,,,NA,NA,NA,NA
Wodanga Ward,RaGcUBct8yg,,urtJSF5jcBC,Wodanga Ward,,NA,NA,,NONE,,,NA,NA,NA,NA
Central Seme Ward,o6cVZ72goEk,,LRNmnMw1fBs,Central Seme Ward,,NA,NA,,NONE,,,NA,NA,NA,NA
North Seme Ward,b2DzrddWnYN,,LRNmnMw1fBs,North Seme Ward,,NA,NA,,NONE,,,NA,NA,NA,NA
West Seme Ward,ulkhuNyw2MH,,LRNmnMw1fBs,West Seme Ward,,NA,NA,,NONE,,,NA,NA,NA,NA
Sidindi Ward,rngZkqTBd03,,m9nsQ1MXlVU,Sidindi Ward,,NA,NA,,NONE,,,NA,NA,NA,NA
Sigomere Ward,WrmJKkvfjDl,,m9nsQ1MXlVU,Sigomere Ward,,NA,NA,,NONE,,,NA,NA,NA,NA
Ugunja Ward,pHKNjOmIqg4,,m9nsQ1MXlVU,Ugunja Ward,,NA,NA,,NONE,,,NA,NA,NA,NA
Miwani Ward,PoYQc8biHf3,,NmbwkQ5r5cB,Miwani Ward,,NA,NA,,NONE,,,NA,NA,NA,NA
Lugaga-Wamuluma Ward,af8ohZ5YbyQ,,OOF3UX4yOt7,Lugaga-Wamuluma Ward,,NA,NA,,NONE,,,NA,NA,NA,NA
Mungoma Ward,VmCvwovgPi4,,OOF3UX4yOt7,Mungoma Ward,,NA,NA,,NONE,,,NA,NA,NA,NA
Central Maragoli Ward,W1gE3uts9Qh,,OOF3UX4yOt7,Central Maragoli Ward,,NA,NA,,NONE,,,NA,NA,NA,NA
South Maragoli Ward,hTylTMl1aid,,OOF3UX4yOt7,South Maragoli Ward,,NA,NA,,NONE,,,NA,NA,NA,NA
Central Gem Ward,LWXYw2EpuLy,,PKeFksHlJkB,Central Gem Ward,,NA,NA,,NONE,,,NA,NA,NA,NA
East Gem Ward,XM6wZZeKqhk,,PKeFksHlJkB,East Gem Ward,,NA,NA,,NONE,,,NA,NA,NA,NA
North Gem Ward,KzqDLd1CVFQ,,PKeFksHlJkB,North Gem Ward,,NA,NA,,NONE,,,NA,NA,NA,NA
South Gem Ward,F3o4X4OBHKw,,PKeFksHlJkB,South Gem Ward,,NA,NA,,NONE,,,NA,NA,NA,NA
West Gem Ward,mEZBjj4fLBT,,PKeFksHlJkB,West Gem Ward,,NA,NA,,NONE,,,NA,NA,NA,NA
Yala Township Ward,PeEcMfBchbr,,PKeFksHlJkB,Yala Township Ward,,NA,NA,,NONE,,,NA,NA,NA,NA
Kajulu Ward,xyzeTkTa8o7,,PRpKwAloU5b,Kajulu Ward,,NA,NA,,NONE,,,NA,NA,NA,NA
Kolwa Central Ward,ml7KNIMIuvz,,PRpKwAloU5b,Kolwa Central Ward,,NA,NA,,NONE,,,NA,NA,NA,NA
Kondele Ward,pOsTvaq49pN,,PRpKwAloU5b,Kondele Ward,,NA,NA,,NONE,,,NA,NA,NA,NA
Market Milimani Ward,wTeTHBlXnQj,,PRpKwAloU5b,Market Milimani Ward,,NA,NA,,NONE,,,NA,NA,NA,NA
Migosi Ward,oz6zXuKWiR9,,PRpKwAloU5b,Migosi Ward,,NA,NA,,NONE,,,NA,NA,NA,NA
Nyalenda B Ward,yz3WGD5x3v2,,PRpKwAloU5b,Nyalenda B Ward,,NA,NA,,NONE,,,NA,NA,NA,NA
Kinondo Ward,pOKIONEzUyF,,ADMywdLwoRX,Kinondo Ward,,NA,NA,,NONE,,,NA,NA,NA,NA
Mwereni Ward,PBhYjIVYdhk,,TdcYaufNV4p,Mwereni Ward,,NA,NA,,NONE,,,NA,NA,NA,NA
Ahero Ward,F1etBBfosCl,,iRK9uABUTVZ,Ahero Ward,,NA,NA,,NONE,,,NA,NA,NA,NA
West Ugenya Ward,XdZKE7HcK5B,,InECuIlzJGx,West Ugenya Ward,,NA,NA,,NONE,,,NA,NA,NA,NA
Tiwi Ward,JBSYO3skSW5,,wUNEDOnx9uB,Tiwi Ward,,NA,NA,,NONE,,,NA,NA,NA,NA
Shiru Ward,eA1LEV1uvvf,,BXaq5PxSfz2,Shiru Ward,,NA,NA,,NONE,,,NA,NA,NA,NA
Emabungo Ward,rVwUPDEkBSy,,lkYdgjRSOoE,Emabungo Ward,,NA,NA,,NONE,,,NA,NA,NA,NA
Pongwe Kikoneni Ward,oJkRlx56eac,,TdcYaufNV4p,Pongwe,,NA,NA,,NONE,,,NA,NA,NA,NA
Vanga Ward,HEKTLM0EwH0,,TdcYaufNV4p,Vanga Ward,,NA,NA,,NONE,,,NA,NA,NA,NA
East Asembo Ward,cfUqqHJA6z4,,XcRpb1xsM64,East Asembo Ward,,NA,NA,,NONE,,,NA,NA,NA,NA
Luanda Township Ward,ZD3ThdrdoTN,,lkYdgjRSOoE,Luanda Township Ward,,NA,NA,,NONE,,,NA,NA,NA,NA
Mwibona Ward,gvz1kfj99I3,,lkYdgjRSOoE,Mwibona Ward,,NA,NA,,NONE,,,NA,NA,NA,NA
Wemilabi Ward,VY0CncsctUg,,lkYdgjRSOoE,Wemilabi Ward,,NA,NA,,NONE,,,NA,NA,NA,NA
Tsimba Golini Ward,HLbG24kuSHF,,wUNEDOnx9uB,Tsimba Golini Ward,,NA,NA,,NONE,,,NA,NA,NA,NA
North Maragoli Ward,m9cV82YWKBf,,urtJSF5jcBC,North Maragoli Ward,,NA,NA,,NONE,,,NA,NA,NA,NA
Gemifa Medical Clinic,Z7Lf1n3Fcpi,22907,mEZBjj4fLBT,Gemifa,Clinic,NA,NA,,NONE,"[34.391914,0.059575]",,NA,NA,NA,NA
Olympus Medical Clinic,NAbQdHuaJFK,22906,PeEcMfBchbr,Olympus,Clinic,NA,NA,,NONE,"[34.3994,0.059575]",,NA,NA,NA,NA
Nyangoma Health Centre(Inactive ),ISneFj4pIh2,,FFfi4zTqdH2,Nyangoma Health Centre(inactive),,NA,NA,,NONE,,,NA,NA,NA,NA
Gulanze Dispesary,DyIqsHhjfaL,21948,YZvux1SW3bs,Gulanze Dispesary,,NA,NA,,NONE,,,NA,NA,NA,NA
Riziki Medical Clinic,ogucXmIs6Ww,,oJkRlx56eac,Riziki  Medical clinic,,NA,NA,,NONE,,,NA,NA,NA,NA
Almacy Medical Clinic,ThkruBQ6pew,16872,NYqz8G2gfEC,Almacy Medical Clinic,NEAR USENGE BEACH,NA,NA,OUT PATIENT SERVICES,POINT,"[34.06152,-0.06349]",,NA,NA,NA,NA
Apex Clinic,WSKYIBTle0G,,NYqz8G2gfEC,Apex Clinic,Private clinic in usenge  Division,NA,NA,CLOSED,POINT,"[34.06953,0.06131]",,NA,NA,NA,NA
Medical Clinic,kpYD2Y8VGS2,16874,uid3Vo2PCsW,dical Clinic,situated along usenge,NA,NA,only out patient services,POINT,"[34.03299,-0.03974]",,NA,NA,NA,NA
Kolenyo Dispensary,tHIuPy0T8F8,17172,o6cVZ72goEk,Kolenyo Dispensary,,NA,NA,,POINT,"[34.47192,-0.09446]",,NA,NA,NA,NA
Lolwe Dispensary,ttSQ3WmIuow,,o6cVZ72goEk,Lolwe Dispensary,,NA,NA,,POINT,"[34.53621,-0.14716]",,NA,NA,NA,NA
Holo Dispensary,wgZ2mHu3aX9,17118,Vi7hrFiryu0,Holo Dispensary,Dispensary,NA,NA,,POINT,"[35.10123,-0.16982]",,NA,NA,NA,NA
Sisters Of St Joseph Catholic Dispensary,EIAsU8lMsZJ,,HEKTLM0EwH0,Sisters Of St. Joseph,Its a Faith based Disp,NA,NA,,NONE,,,NA,NA,NA,NA
Nyandwela Medical Clinic,Q0TM4uRt6PI,20339,uid3Vo2PCsW,Nyandwela Medical Clinicc,NEAR WICHLUM BEACH MARKET,NA,NA,out patient services,POINT,"[34.21159,0.23757]",,NA,NA,NA,NA
Kombewa County Refferal Hospital,tMymqzXY5dg,13714,o6cVZ72goEk,Kombewa County Refferal Hospital,Located on the Kisumu Bondo road,NA,NA,,POINT,"[34.51792,-0.10345]",,NA,NA,NA,NA
St Clare Bolo Health Centre,LhqVXAyAmeX,14104,cSmqxMnL3hd,St Clare Bolo HC,,NA,NA,,POINT,"[34.87407,-0.34803]",,NA,NA,NA,NA
Nyaguda Health Center,NETZipsOma4,13877,CRBP2g6KqWH,Nyaguda Health Center,upgraded to serve as Health Center,NA,NA,,POINT,"[34.21883,-0.21243]",,NA,NA,NA,NA
Pongwe/Kidimu Dispensary,I1uyMohbaUS,,oJkRlx56eac,Pongwe/Kidimu,,NA,NA,Functioning. Geo codes to be taken,NONE,,,NA,NA,NA,NA
Nyabondo Rehabilitation Centre,OOAGjYKVUEn,18867,TAZBFBDq6KC,Nyabondo Rehabilitation Centre,,NA,NA,,POINT,"[34.97882,-0.38172]",,NA,NA,NA,NA
Kusa Health Centre,KPgXAJQ4rkD,13727,cSmqxMnL3hd,Kusa Health Centre,,NA,NA,,POINT,"[34.85203,-0.33545]",,NA,NA,NA,NA
St Vincents De Paul Health Centre,OaoMmCrvSNm,14128,cyChGO6tdNS,St Vincents De Paul HC,,NA,NA,,POINT,"[35.23278,-0.16969]",,NA,NA,NA,NA
Makindu Dispensary,NQrGfGGhV0g,13759,WzjCQ2bnOk7,Makindu Dispensary,,NA,NA,,POINT,"[35.12573,-0.14086]",,NA,NA,NA,NA
Ukunda Primary Health Care Dispensary,Tw84VDdMyLa,16553,iBuXrh8ESS2,Ukunda PHC,,NA,NA,,POINT,"[39.56638,-4.28637]",,NA,NA,NA,NA
Ndavaya Dispensary,CJn1auuIZAo,11701,YZvux1SW3bs,Ndavaya Dispensary,,NA,NA,,POINT,"[39.16647,-4.25708]",,NA,NA,NA,NA
Umer Dispensary,adrt3yquw88,17530,XIgwnIXyBx0,Umer dispensary,,NA,NA,,POINT,,,NA,NA,NA,NA
Omboye Afya Ubuntu Clinic,QJw6IgW4URp,,kazFsB6YZ6J,Omboye Afya Ubuntu Clinic,,NA,NA,,NONE,,,NA,NA,NA,NA
Ober Ogunga Dispensary,nwPM0BNbnnK,22081,zcpKiQgMNyb,Ober Ogunga Dispensary,near nyakonga primary school,NA,NA,,NONE,,,NA,NA,NA,NA
Boya Nursing Home,LJ30sKf3l1b,13516,F1etBBfosCl,Boya Nursing Home,Nursing Home,NA,NA,,POINT,"[34.94904,-0.16599]",,NA,NA,NA,NA
Pongwe Dispensary,a8JkP5I09iQ,22075,JBSYO3skSW5,Pongwe/Tiwi,"Comprehensive primary health care facility. Situated along Mombasa Lunga Lunga highway, 500 meters from Hillpark Hotel diversion road. It is in Simkumbe Sub Location, Tiwi Location",NA,NA,Operational,NONE,,,NA,NA,NA,NA
Chavogere Dispensary,n1vHAnCMJww,22563,cUBWuuQYISs,Chavogere Dispensary,"its located along Chavakali -kapsabet rd, about 6km from mago - Chavogere murram rd.",NA,NA,the facility is operational,NONE,,,NA,NA,NA,NA
Kisumu County Beyond Zero Mobile Clinic,iIQItxot79B,20965,pOsTvaq49pN,Kisumu County Beyond Zero Mobile Clinic,mobile clinic,NA,NA,,POINT,"[34.75321,-0.10464]",,NA,NA,NA,NA
Sifuyo Health Centre,UDjLzocKru9,14084,XdZKE7HcK5B,Sifuyo Health Centre,,NA,NA,,POINT,"[34.12707,0.15086]",,NA,NA,NA,NA
Ratta Health Centre,aTQwZSIIxPA,14040,b2DzrddWnYN,Ratta Health Centre,,NA,NA,,POINT,"[34.53948,-0.04529]",,NA,NA,NA,NA
Nyayiera Dispensary,oENfnS61NCj,20038,cfUqqHJA6z4,Nyayiera Dispensary (Rarieda),,NA,NA,,POINT,"[34.38304,0.10514]",,NA,NA,NA,NA
Mkang'ombe Dispensary,we0DUGyAhOI,11627,YZvux1SW3bs,Mkang'ombe  Dispensary,,NA,NA,,POINT,"[39.14307,-4.19721]",,NA,NA,NA,NA
Matumbi Dispensary,JUML6lzisNI,18095,vjeHNVWOsRk,Matumbi Dispensary,,NA,NA,,POINT,"[39.38053,-3.96778]",,NA,NA,NA,NA
Kabura Uhuyi Dispensary,FeUHA7ixSA6,17531,zaHyyp9lXME,Kabura Uhuyi Dispensary,,NA,NA,,POINT,"[34.13259,0.13638]",,NA,NA,NA,NA
Mageta Health Centre,gpUX2gUBsc9,13750,NYqz8G2gfEC,Mageta island Dispensary,level 3 facility  in the island usigu division,NA,NA,functional facility,POINT,"[34.0103,-0.1325]",,NA,NA,NA,NA
Pemah Nursing and Maternity Home,HL2HS3GiTCf,21810,bcaDvBIDj6b,Pemah Nursing and Maternity Home,Private facility along the Siaya Rabango Road,NA,NA,The facility is operational,NONE,,,NA,NA,NA,NA
Konya Dispensary,jwWDpfKjHfl,21533,XIgwnIXyBx0,Konya Dispensary,,NA,NA,,NONE,,,NA,NA,NA,NA
Kinango Hospital,KT34EaG36YR,11480,PrGoCfZ06gm,Kinango Hospital,,NA,NA,,POINT,,,NA,NA,NA,NA
Kikoneni Health Centre,UrRsO2NsxHZ,11472,oJkRlx56eac,Kikoneni Health Centre,,NA,NA,,POINT,"[39.3135,-4.44607]",,NA,NA,NA,NA
Mrima (Catholic) Dispensary,xmDX1o9oBG3,11651,lijbuerznbA,Mrima  Dispensary,,NA,NA,,POINT,"[39.24639,-4.49113]",,NA,NA,NA,NA
Lerds Clinic (Shimoni),mnICZPR6Iyf,,oJkRlx56eac,Lerds,Private Medical Clinic,NA,NA,Inspected and working well,NONE,,,NA,NA,NA,NA
Qatar Clinic (Shimoni),o2hO5MIaKmL,20587,oJkRlx56eac,QCC,Private Medical Clinic,NA,NA,Awaiting Approval,POINT,"[39.38056,-4.64524]",,NA,NA,NA,NA
Afya Bora clinic,q30Yo5l21vq,,HEKTLM0EwH0,ABC,Private Medical Clinic,NA,NA,Inspected awaiting approval,NONE,,,NA,NA,NA,NA
Pangani  Dispensary,cApiVLW5Yav,,PBhYjIVYdhk,Pangani,Dispensary,NA,NA,,NONE,,,NA,NA,NA,NA
Mwanguda Dispensary,AR8hK8NvYFa,,lijbuerznbA,Mwanguda Dispensary,,NA,NA,,NONE,,,NA,NA,NA,NA
Vwivwini Dispensary,A2KoM7Hca7w,,oJkRlx56eac,Vwivwini,,NA,NA,Facility currently functioning but GEO Codes not taken,NONE,,,NA,NA,NA,NA
Egago Dispensary,VsGhTdYbBD7,16449,hTylTMl1aid,Egago Dispensary,Along Gavalagi- Lusiola Mkt -Chandoro Road,NA,NA,OPERATIONAL/ Now started offering Immunization services,POINT,"[34.6735,-0.0006]",,NA,NA,NA,NA
Obwogre Dispensary,O6gZXAxAKNy,22407,quAHj7k172D,Obwogre Dispensary,,NA,NA,,NONE,"[34.213592,0.278103]",,NA,NA,NA,NA
Okana Dispensary,y7y9nTpCXFe,20666,s2NvoXiAGWj,Okana Dispensary,Dispensary,NA,NA,Operational,POINT,,,NA,NA,NA,NA
Bar Achuth Dispensary,DqwooToZ1N9,13495,XdZKE7HcK5B,Bar Achuth Dispensary,,NA,NA,,POINT,"[34.17204,0.28968]",,NA,NA,NA,NA
Koyucho Medical Clinic,idckvh4eyBq,18096,uid3Vo2PCsW,Koyucho Medical Clinic,in maranda division at nyamira junction,NA,NA,non functional,POINT,"[34.24633,0.08857]",,NA,NA,NA,NA
Vihiga Health Centre,dhpZNi2matH,16158,W1gE3uts9Qh,Vihiga Health Centre,OFF MAJENGO -KIMA ROAD NEAR VIHIGA POLICE STATION,NA,NA,,POINT,"[34.71465,0.03903]",,NA,NA,NA,NA
Mulele Dispensary,Fjb8CId2BV7,16032,VmCvwovgPi4,Mulele Dispensary,ON BUKUGA- MAGADA ROAD,NA,NA,,POINT,"[34.68658,0.04537]",,NA,NA,NA,NA
R4C Kenya Medical Services,n9DOxUYIVjx,,pOKIONEzUyF,R4C Kenya Medical Services,Clinic,NA,NA,,NONE,,,NA,NA,NA,NA
Nyango Dispensary,AqLdqbmRxuw,17646,QEGPqON6Zcj,Nyango Dispensary,,NA,NA,,POINT,"[38.9078,-4.05769]",,NA,NA,NA,NA
Lyanaginga Health Centre,QPgGjJSA4pB,15982,VmCvwovgPi4,Lyanaginga Health Centre,OFF MAHANGA-KERONGO ROARD,NA,NA,MODEL HEALTH FACILITY,POINT,"[34.65925,0.0165]",,NA,NA,NA,NA
Hema Medical Clinic,HiqYRakSm4q,17674,USg05TR1JwK,Hema Medical Clinic,,NA,NA,,POINT,"[34.73726,0.00025]",,NA,NA,NA,NA
Kinagoni Dispensary,NijIFuj8eTF,11479,wfUbX2QagwS,Kinagoni Dispensary,,NA,NA,,POINT,"[39.2324,-3.86981]",,NA,NA,NA,NA
Vigurungani Dispensary,Yb2CWS6G5vL,11880,QEGPqON6Zcj,Vigurungani Dispensary,,NA,NA,,POINT,"[39.16313,-4.04152]",,NA,NA,NA,NA
St Mathews Kandaria Dispensary,vcWB89raxir,20037,cfUqqHJA6z4,St Mathews Kandaria Dispensary (Rarieda),,NA,NA,,POINT,"[34.41533,0.1261]",,NA,NA,NA,NA
Ukunda Medical Clinic,Iup62QtD0aw,16552,iBuXrh8ESS2,Ukunda Medical Centre,,NA,NA,,POINT,"[39.56565,-4.28475]",,NA,NA,NA,NA
Jirwani Dispensary,bAU8zGySyHG,16454,hXKwpKcEej9,Jirwani Dispensary,,NA,NA,,NONE,,,NA,NA,NA,NA
Aga Khan Hospital (Kisumu),hmIgXXyNHOj,13465,wTeTHBlXnQj,Aga Khan Hospital (Kisumu,,NA,NA,,POINT,"[34.75621,-0.09937]",,NA,NA,NA,NA
Port Florence Dispensary,GDdjoRbOQSx,21522,EmooFdjzKlm,Port Florence,in bondo town near stage,NA,NA,operates day time from 8.am to,NONE,,,NA,NA,NA,NA
Manyuanda St Teresas Cfw Clinic (Rarieda),O62narL8I3g,14126,IqPuAjRYM1t,Manyuanda St Teresa CFW,,NA,NA,,POINT,"[34.276,-0.32611]",,NA,NA,NA,NA
Munoywa Dispensary,z9yLNTDPHpU,16044,QbCSvi9H3CN,Munoywa Dispensary,,NA,NA,,POINT,"[34.75106,0.09808]",,NA,NA,NA,NA
Mutiva Dispensary,skvAyyfOUNh,16460,r6KB3hMzaXh,Mutiva Dispensary,,NA,NA,,NONE,,,NA,NA,NA,NA
Hesed Clinic Masiro,XabIVCngS24,18445,XIgwnIXyBx0,Hesed Clinic Masiro,,NA,NA,,POINT,"[34.16074,0.15324]",,NA,NA,NA,NA
Pendo Medical Clinic,Z08KIZqMqp7,18496,ByAmsolBen5,Pendo Medical Clinic,private clinic,NA,NA,,POINT,"[39.56725,-4.28058]",,NA,NA,NA,NA
Sayyid Aysha Dispensary,nU0IUSP4a2b,14070,ZplKg3SMkIC,Sayyid Aysha Dispensary,,NA,NA,,POINT,"[34.75038,-0.10062]",,NA,NA,NA,NA
Home Ground Nursing Home,Km9l5PUKXWK,21176,pHKNjOmIqg4,Home Ground Nursing Home,nursing home in ugunja town along Busia Kisumu road.,NA,NA,newly opened facility,POINT,"[0.10847,34.17070]",,NA,NA,NA,NA
CFW Clinic Ugunja,vOolO8eE6M2,21175,pHKNjOmIqg4,CFW Clinic Ugunja,medical clinic in ugunja market,NA,NA,has been operating but data put under ambira,POINT,"[33.907,0.15689]",,NA,NA,NA,NA
Gazi Bay Medical Clinic,j6Rw3jybLdO,19862,pOKIONEzUyF,Gazi bay Medical Clinic,private clinic,NA,NA,,POINT,"[39.50596,-4.42556]",,NA,NA,NA,NA
Diani Health Centre,uhuTgMdpGDx,11304,ByAmsolBen5,Diani Health Centre,,NA,NA,,POINT,"[39.5677,-4.27434]",,NA,NA,NA,NA
Kisasi Dispensary,ZBFYiDTKrjf,21456,hXKwpKcEej9,Kisasi Dispensary,,NA,NA,,POINT,"[34.8367184,0.109862]",,NA,NA,NA,NA
Ng'ombeni Dispensary,OArtNCNolNl,11714,XZNJ3zaiaZH,Ng'ombeni Dispensary,,NA,NA,,POINT,"[39.6316,-4.12827]",,NA,NA,NA,NA
Samburu Medical Centre,X7Bbx0S20cF,16520,TwX1KTjb8Qp,Samburu Medical Centre,,NA,NA,,POINT,"[39.26276,-3.79466]",,NA,NA,NA,NA
House of Hope Medical Centre,Q4d8psx1iAH,18720,G2B9ridstXR,House of hope Medical Centre,Near Atoyieng'o River,NA,NA,,POINT,"[34.98087,-0.26418]",,NA,NA,NA,NA
Kemri Medical Clinic,VqROfRW9Crc,18301,Xs7PwQOVMmb,KEMRI Medical Clinic,,NA,NA,,POINT,"[34.67583,-0.0765]",,NA,NA,NA,NA
Kodiaga Prison Health Centre,Q4XkYFvskeI,13709,Xs7PwQOVMmb,Kodiaga Prison HC,,NA,NA,,POINT,"[34.70884,-0.06211]",,NA,NA,NA,NA
Kuoyo Dispensary,Ziuf2e6LMfZ,21705,It7fWcKbcZX,Kuoyo Dispensary,,NA,NA,,NONE,,,NA,NA,NA,NA
Mbaka Oromo Dispensary (Kisumu),mrAt9Y3nTvD,20199,r6rYPoyjxvR,Mbaka Oromo Dispensary (Kisumu),,NA,NA,"Situated 5 Kms from Chulaimbo Market off Kisumu Busia road, next to Mbaka Oromo Primary School.",POINT,"[34.63468,-0.01469]",,NA,NA,NA,NA
Migere Dispensary,wSCzYEjhv03,21487,FFfi4zTqdH2,Migere Dispensary,,NA,NA,,POINT,"[35.10848,-0.010732]",,NA,NA,NA,NA
Nyamarimba Sub County Hospital,jYceYXy2rBf,13899,oTl0WEQrKtX,Nyamarimba Sub County Hospital,,NA,NA,,POINT,"[34.90891,-0.37155]",,NA,NA,NA,NA
Ober Kamoth Health Centre,JVl5vd8v985,13954,hAzpUozlCyI,Ober Kamoth Health Centre,,NA,NA,,POINT,"[34.60952,-0.11518]",,NA,NA,NA,NA
Olps Clinic,a6ZP7RjG0JA,13977,ml7KNIMIuvz,OLPS Clinic,,NA,NA,,POINT,"[34.79355,-0.07817]",,NA,NA,NA,NA
Onyuongo Dispensary,OlwzlLibvzd,20209,G2B9ridstXR,Onyuongo,Dispensary,NA,NA,,POINT,,,NA,NA,NA,NA
Onyinjo Dispensary,bDWpyLyczKC,17173,BRDtIETwfeW,Onyinjo Dispensary,,NA,NA,,POINT,"[34.53725,-0.07104]",,NA,NA,NA,NA
Matuga Dispensary,eJFV4QoSfJT,11581,XZNJ3zaiaZH,Matuga Dispensary,,NA,NA,,POINT,"[39.56773,-4.1771]",,NA,NA,NA,NA
Osewre Dispensary,y1WqAJwDmmi,20069,ulkhuNyw2MH,Osewre Dispensary,,NA,NA,Situated near Reru market along Reru Akado road,POINT,"[34.44436,-0.13337]",,NA,NA,NA,NA
Pedo Dispensary,IoqOztEzEQu,18725,go41UxgIdh5,Pedo dispensary,,NA,NA,,POINT,"[34.90802,-0.33796]",,NA,NA,NA,NA
Otieno Owala Dispensary,Ln42hVA1Qpk,20024,b2DzrddWnYN,Otieno Owala Dispensary,Dispensary,NA,NA,"Near Ndiru Market, off Kombewa Maseno road",POINT,"[34.52013,-0.03547]",,NA,NA,NA,NA
Radienya Dispensary,szk9vzhrYeY,18722,TAZBFBDq6KC,Radienya dispensary,Near Radienya primary school,NA,NA,,POINT,,,NA,NA,NA,NA
Rabuor Sub County Hospital,xHpOSfsb09z,14020,s2NvoXiAGWj,Rabuor Sub County Hospital,Hospital,NA,NA,,POINT,"[34.8299,-0.15333]",,NA,NA,NA,NA
Railways Dispensary (Kisumu),uNfRv08L7NJ,14027,wTeTHBlXnQj,Railways Disp (Kisumu),,NA,NA,,POINT,"[34.74821,-0.10109]",,NA,NA,NA,NA
Ramula Dispensary,UpuCF40GAfx,20331,cnOFVqKDVEi,Ramula Dispensary,,NA,NA,,POINT,"[34.95545,-0.10579]",,NA,NA,NA,NA
Rang'ul Dispensary,iI1UYjIuEa1,21039,G2B9ridstXR,Rang'ul Dispensary,,NA,NA,,POINT,"[34.95438,-0.28168]",,NA,NA,NA,NA
SOS Children Medical Clinic (Kisumu),qk1UIwzC9zv,20386,SPH4pigpmjD,SOS Children Medical Clinic (Kisumu),,NA,NA,,POINT,"[34.73286,-0.05882]",,NA,NA,NA,NA
Shalom Medical Clinic,lr77VokwIqJ,20028,ulkhuNyw2MH,Shalom Medical Clinic,Clinic,NA,NA,Situated at Reru Market along Ngere High School road,POINT,"[34.45309,-0.11168]",,NA,NA,NA,NA
St Consolata Clinic,vLIbRGx39D3,14105,xyzeTkTa8o7,St Consolata Clinic,,NA,NA,,POINT,"[34.77912,-0.06069]",,NA,NA,NA,NA
St Jane Nursing Home,MCxYHCi7SKV,16870,cSmqxMnL3hd,St Jane Nursing Home,,NA,NA,,POINT,"[34.8456,-0.33158]",,NA,NA,NA,NA
St Mark's Lela Dispensary,bX5nd5eRa7d,14118,Xs7PwQOVMmb,St Mark's Lela Dispensary,,NA,NA,,POINT,"[34.69519,-0.07363]",,NA,NA,NA,NA
St Elizabeth Chiga Mission Hospital,tTAHvMCQVS1,14106,kQXcKGM8chb,St Elizabeth Chiga Mission Hospital,FBO,NA,NA,,POINT,"[34.84461,-0.09891]",,NA,NA,NA,NA
St Monica Mission Hospital,yFn8SX1qQbG,14120,xyzeTkTa8o7,St Monica Mission Hospital,,NA,NA,,POINT,"[34.76971,-0.0422]",,NA,NA,NA,NA
Star Maternity & Nursing Home,zkY1vTT6ZhX,14129,UqLylL8NY0G,Star Maternity & Nursing,,NA,NA,,POINT,"[34.75308,-0.12177]",,NA,NA,NA,NA
Got Osimbo Dispensary,M6pRVexaXwC,18321,WrmJKkvfjDl,Got Osimbo dispensary,,NA,NA,,POINT,"[34.33308,0.18690]",,NA,NA,NA,NA
Tamu Health Centre,PENvTx4fphA,14141,WzjCQ2bnOk7,Tamu Health Centre,,NA,NA,,POINT,"[35.20432,-0.10022]",,NA,NA,NA,NA
ICRH Drop-in Centre,NSUxqcGf8ZH,,ByAmsolBen5,ICRH Drop-in Centre,dispensary,NA,NA,,NONE,,,NA,NA,NA,NA
Kaptisi Dispensary,ev7vSNwz1Gm,16457,iphxMgFUJmE,Kaptisi Dispensary,,NA,NA,,POINT,"[34.92219,0.18418]",,NA,NA,NA,NA
Kanyadet Dispensary,WhFoPqHGsl3,22301,F3o4X4OBHKw,Kanyadet,Dispensary,NA,NA,,NONE,,,NA,NA,NA,NA
Itando Mission of Hope and Health Centre,bT0xdjSkCSV,18512,QbCSvi9H3CN,Itando Mission H/C,,NA,NA,,POINT,"[34.73476,0.09916]",,NA,NA,NA,NA
Wasundi Clinic,BtTeBT9y27E,16159,m9cV82YWKBf,Wasundi Clinic,,NA,NA,,POINT,"[34.7555,0.11969]",,NA,NA,NA,NA
Vihiga County Beyond Zero Clinic,kGIz5dr3MJA,21872,af8ohZ5YbyQ,Vihiga County Beyond Zero Clinic,Operates Under Vihiga County Referral Hospital Premises,NA,NA,Mobile Clinic,NONE,,,NA,NA,NA,NA
Hongo Ogosa Health Center,sL4A85fJAXA,13609,s2NvoXiAGWj,Hongo Ogosa Health Center,,NA,NA,,POINT,"[34.89364,-0.18603]",,NA,NA,NA,NA
Komwaga Health Center,DoH8UEMZEIE,,LCXl4ftRJYy,Komwaga Health Center,,NA,NA,,POINT,"[34.84215,-0.19410]",,NA,NA,NA,NA
Mungoma Hospital,sPu82n59r5a,21767,W1gE3uts9Qh,Mungoma Hospital,"Situated in Majengo Town in Maragoli ,Opposite Majengo Mosque",NA,NA,,NONE,,,NA,NA,NA,NA
Sumba Community Dispensary,r7hNHZYd4pj,14133,utYTK2xBC3k,Sumba Community Dispensary,,NA,NA,,POINT,"[34.09344,0.0856]",,NA,NA,NA,NA
Hamisi Sub County Referral Hospital,zwnu6Pa5gLi,15894,d7jBlFuDPt7,Hamisi SCRH,,NA,NA,,POINT,"[34.80206,0.07351]",,NA,NA,NA,NA
Sega Cottage Hospital,ael1wP6imKb,14071,quAHj7k172D,Sega Cottage Hospital,,NA,NA,,POINT,"[34.22549,0.25934]",,NA,NA,NA,NA
Enzaro Health Centre,TebstKvirIl,15879,hTylTMl1aid,Enzaro Health Centre,OFF BOYANI- KIGADAHI JUNCTION,NA,NA,,POINT,"[34.70239,0.00135]",,NA,NA,NA,NA
Kafuduni Dispensary,Lbmua1AMw7d,11448,vjeHNVWOsRk,Kafuduni Dispensary,,NA,NA,This facility require staff quarter to assist patients at night for currently there are only day services offered for staff cannot reside within the facility due to absence of the staff quarter despite having a good number of committed staff.,POINT,"[39.4982,-3.90842]",,NA,NA,NA,NA
Police Line Dispensary,jkMVLieTB3h,19869,wTeTHBlXnQj,Police Line Dispensary,facility within the Police camp,NA,NA,,POINT,"[34.76095,-0.10086]",,NA,NA,NA,NA
Jera Dispensary,JM72QVwNQhk,13634,quAHj7k172D,Jera Dispensary,,NA,NA,,POINT,"[34.26382,0.2862]",,NA,NA,NA,NA
Nyangande Health Center,gdjJjF3h8HT,13923,LCXl4ftRJYy,Nyangande Health Center,,NA,NA,,POINT,"[34.84557,-0.20814]",,NA,NA,NA,NA
Eshu Dispensary,a9OHUtkxjO8,11368,VGENlt3MTt7,Eshu Dispensary,,NA,NA,,POINT,"[39.3469,-4.41492]",,NA,NA,NA,NA
Msulwa Dispensary,nqpogjIlKtQ,11658,HLbG24kuSHF,Msulwa Dispensary,,NA,NA,,POINT,"[39.46136,-4.26404]",,NA,NA,NA,NA
Sango Rota Dispensary,taNmXyxY87R,14066,cSmqxMnL3hd,Sango Rota Dispensary,,NA,NA,,POINT,"[34.88895,-0.34422]",,NA,NA,NA,NA
Rageng'ni Dispensary,mRPHsiYtXeO,14026,c8htRsEJD2W,Rageng'ni Dispensary,,NA,NA,,POINT,"[34.38472,-0.28196]",,NA,NA,NA,NA
Nyang'oma Sub County Hospital,Fiw6j6VJOPf,13928,FFfi4zTqdH2,Nyang'oma Sub county Hospital,,NA,NA,,POINT,"[35.0441,-0.14669]",,NA,NA,NA,NA
Linda Jamii Clinic - Aram Mkt D,QN6ErRlstt7,,kazFsB6YZ6J,Linda Jamii Clinic - Aram Mkt D,Situated at Aram Market,NA,NA,,NONE,,,NA,NA,NA,NA
Ekamanji Dispensary,uco8xXZcBc8,15868,ZD3ThdrdoTN,Ekamanji Dispensary,,NA,NA,,POINT,"[34.60300,0.04709]",,NA,NA,NA,NA
Marie Stopes Clinic (Vihiga),sqDl24SJtey,16002,QbCSvi9H3CN,Marie Stopes Clinic (Vihi,,NA,NA,,POINT,"[34.7286,0.09242]",,NA,NA,NA,NA
Aqswaa Medical Clinic,XCN6sqSgD3b,21168,pOKIONEzUyF,Aqswaa Medical Clinic,New Facility,NA,NA,A long Msa-Lungalunga Rd,POINT,"[39.47367,-4.38673]",,NA,NA,NA,NA
Muhoroni Sugar Company (Musco) Dispensary,VAElHey4wcD,13832,cyChGO6tdNS,Muhoroni Sugar C (MUSCO),,NA,NA,,POINT,"[35.18489,-0.15182]",,NA,NA,NA,NA
Avenue Health Care Clinic,Sho54BLkF2o,13490,wTeTHBlXnQj,Avenue Health Care Clinic,,NA,NA,,POINT,"[34.75323,-0.10463]",,NA,NA,NA,NA
Kadhiambo Dispensary,sNgkYgtxSkV,21657,LCXl4ftRJYy,Kadhiambo Dispensary,Dispensary,NA,NA,,POINT,"[34.84214999,-0.19410001]",,NA,NA,NA,NA
Tuungane Youth Transition Centre,j4ykbP2YFIw,17166,wTeTHBlXnQj,Tuungane Youth Transition,,NA,NA,,POINT,"[34.76629,-0.08976]",,NA,NA,NA,NA
Ting'wangi Health Centre,kuzvgtX2kyS,14148,hMo6PZnvQqb,Ting'wangi Health Centre,,NA,NA,,POINT,"[34.28293,0.02448]",,NA,NA,NA,NA
Arito Langi Dispensary,kOFBpSMhe9h,13484,ulkhuNyw2MH,Arito Langi Dispensary,,NA,NA,,POINT,"[34.44948,-0.09448]",,NA,NA,NA,NA
Riyadh Medical Clinic,mM8uyfLMKX4,18259,AxesNVgsvhq,RIYADH MEDICAL CLINIC,,NA,NA,,POINT,"[34.18606,0.21003]",,NA,NA,NA,NA
Got Regea Dispensary,dDUH3HhyOUc,17520,KzqDLd1CVFQ,Got Regea Dispensary,,NA,NA,,POINT,"[34.46679,0.13769]",,NA,NA,NA,NA
Anyuongi Dispensary,Tkgo1tPTOv2,13482,CRBP2g6KqWH,Anyuongi Dispensary,level 2 gok facility,NA,NA,facility buildings dilapidated,POINT,"[34.27613,-0.17618]",,NA,NA,NA,NA
Zigira (Community) Dispensary,W92Uk8blz6U,17892,pOKIONEzUyF,Zigira (Community) Dispen,,NA,NA,,POINT,"[39.49005,-4.36865]",,NA,NA,NA,NA
Masogo Dispensary (Gem),w8NTKsoCH8b,17518,LWXYw2EpuLy,Masogo Dispensary(Gem),,NA,NA,,POINT,"[34.45428,0.0844]",,NA,NA,NA,NA
Nyadhi Dispensary,nKDcsLqOt81,17535,fpnhZCEZEGQ,Nyadhi Dispensary,,NA,NA,,POINT,"[34.18002,0.08238]",,NA,NA,NA,NA
Ong'ielo Model Health Centre,RW8fKrzu1Ka,13987,cfUqqHJA6z4,Ong'ielo  Model Health Centre,,NA,NA,,POINT,"[34.37778,-0.16875]",,NA,NA,NA,NA
Mur Malanga Dispensary,Tf9HS4ZXH3Z,17523,hMo6PZnvQqb,Mur Malanga Disansary,,NA,NA,,POINT,"[34.25229,-0.00248]",,NA,NA,NA,NA
Jaramogi Oginga Odinga Teaching & Referal Hospital,UZlFjPJGpjz,13939,pOsTvaq49pN,JOOTRH-Nyanza,,NA,NA,,POINT,"[34.77038,-0.08855]",,NA,NA,NA,NA
Gombe Dispensary,ZnCBjKmnr8c,21518,CRBP2g6KqWH,Gombe,,NA,NA,operates outpatient services,NONE,,,NA,NA,NA,NA
Wagai Health Centre,igio73d1icL,16792,mEZBjj4fLBT,Wagai Health Centre,,NA,NA,,POINT,"[34.41679,0.05102]",,NA,NA,NA,NA
GK Prisons Dispensary (Kibos),XdmsyjZT77E,13579,kQXcKGM8chb,GK Prisons Disp (Kibos),,NA,NA,,POINT,"[34.8209,-0.06744]",,NA,NA,NA,NA
Mbwaleni Dispensary,Mt0t1FQrKV9,21259,YZvux1SW3bs,Mbwaleni,About 4 kilometres away west of the Vigurungani-Mtumwa main road,NA,NA,"This facility is new and has not been visited by SCHMT due to lack of transport, hence opened politically as most required items had not been prepared including geo codes not taken but forced to put figures to generate MFL number only",NONE,,,NA,NA,NA,NA
Tumaini DISC clinic,awDItG2Ze2Q,,pHKNjOmIqg4,Tumaini DISC Clinic,Situated in Ugunja town along Kisumu- Busia road approximtly 70 kms from Kisumu town,NA,NA,Offers VCT to vulnarable groups (FSW),NONE,,,NA,NA,NA,NA
Nyagwara Dispensary,rgAAYE224Cd,21292,IqPuAjRYM1t,Nyagwara Dispensary,,NA,NA,,NONE,,,NA,NA,NA,NA
Dunga Dispensary,J2TPkQU0gGJ,22064,yz3WGD5x3v2,Dunga Dispensary,New GOK Dispensary,NA,NA,,NONE,,,NA,NA,NA,NA
Sunga Dispensary,XgCDq1zkmPu,17175,r6rYPoyjxvR,Sunga Dispensary,,NA,NA,,POINT,"[34.58966,-0.0339]",,NA,NA,NA,NA
Makutano Medical Clinic,YRh5IrzeXPM,16451,ZD3ThdrdoTN,Makutano Medical Clinic,,NA,NA,,POINT,"[34.6043,0.04548]",,NA,NA,NA,NA
Kopolo Clinic,aXcTjaOYxbq,16873,JVz0J1MJJ0V,Kopolo clinic,private clinic in nyangoma division,NA,NA,functional clinic,POINT,"[34.3469,-0.00919]",,NA,NA,NA,NA
Nyodima Dispensary,VF10TQ1kGlZ,21514,uid3Vo2PCsW,Nyodima Dispensary,Along Bondo- Usenge route .The facility is 6 km from the main Koyucho junction.,NA,NA,"operate as a dispensary.
still await for supply of drugs",POINT,"[0.07143,34.1415]",,NA,NA,NA,NA
Junction Clinic,obWHqqIIMCn,17729,EmooFdjzKlm,Junction,clinic within bondo town,NA,NA,operates only outpatient services,NONE,,,NA,NA,NA,NA
Matangwe Community Health Centre,Ox532fak7j5,13787,CRBP2g6KqWH,Matangwe Community HC,NGO based hospital in maranda division,NA,NA,functional,POINT,"[34.28988,-0.15378]",,NA,NA,NA,NA
Sunshine Medical Clinic (Kwale),UPKEpcymsJW,17827,dQkHuP0kVjq,Sunshine Medical Clinic (Kwale),,NA,NA,,POINT,"[39.41546,-4.366]",,NA,NA,NA,NA
Mago Care Health Centre,sgK5aw8tN1y,21115,hXKwpKcEej9,Mago Care Health Centre,Situated along Chavakali Kaimosi road adjacent to Mago polytechnic,NA,NA,,POINT,"[34.78924,0.132400]",,NA,NA,NA,NA
Tawakal Medical Clinic (Msambweni),kUIPe1n1oNS,16551,VGENlt3MTt7,Tawakal Clinic,,NA,NA,,POINT,"[39.40521,-4.52363]",,NA,NA,NA,NA
Mwangea Dispensary,WN8nDdz71ml,22677,TwX1KTjb8Qp,Mwangea Dispensary,,NA,NA,,NONE,,,NA,NA,NA,NA
Shirazi Dispensary,r5b82A5eqiv,,VGENlt3MTt7,Shirazi Dispensary,Dispensary,NA,NA,,NONE,,,NA,NA,NA,NA
Gazi Dispensary,L7IMaRobAY4,,pOKIONEzUyF,Gazi Dispensary,Dispensary,NA,NA,Operational,NONE,,,NA,NA,NA,NA
Mivumoni Catholic,IBO76lif4Fr,11624,VGENlt3MTt7,Mivumoni Catholic,,NA,NA,,POINT,"[39.39711,-4.42514]",,NA,NA,NA,NA
Mwachande Medical Services,Oe63qCH9JOH,,VGENlt3MTt7,Mwachande Medical Services,Dispensary,NA,NA,operational,NONE,,,NA,NA,NA,NA
St Jones &Ring Road Health Clinic,BeyRouwSiVk,16882,yz3WGD5x3v2,St Jones &Ring Road HC,,NA,NA,,POINT,"[34.75811,-0.12409]",,NA,NA,NA,NA
Jebrok Dispensary,RAR34ZrlocN,22653,pyG6e1Uq18m,Jebrok Dispensary,Gambogi-Banja road off Baja road,NA,NA,Offering OPD services,NONE,"[34.7634222,0.0183648]",,NA,NA,NA,NA
Gedmed Medical centre and Nursing home,wwqFmV60qZg,21972,bcaDvBIDj6b,Gedmed medical centre and Nursing home,private medical centre and nursing home,NA,NA,,NONE,,,NA,NA,NA,NA
Bar Ndege Dispensary,bhfD7RGs2gk,16784,XIgwnIXyBx0,Bar Ndege Dispensary,,NA,NA,,POINT,"[34.34579,-0.29962]",,NA,NA,NA,NA
Bofu Dispensary,pUx9e19epql,11253,aom47Uzq1RZ,Bofu Dispensary,,NA,NA,"Facility is now working almost throughout for another staff was posted to this facility  since January 2014, hence facility fully operational .",POINT,"[39.43351,-3.98008]",,NA,NA,NA,NA
St Raphael Dispensary,QwwfA6dvS2J,,pHKNjOmIqg4,St Raphael,Situated in Ugunja ward,NA,NA,Offers OPD services,NONE,,,NA,NA,NA,NA
Matibabu Ugunja Clinic,v2JpxavVUe6,,pHKNjOmIqg4,Matibabu,Health centre,NA,NA,"Offers curative OPD, Pharmacy and Opthomology services and x ray",NONE,,,NA,NA,NA,NA
Uloma Dispensary,dNgg6md2JdN,,WrmJKkvfjDl,Uloma,situated along Ugunja Musanda road approximately 15 kms from Ugunja town,NA,NA,,NONE,,,NA,NA,NA,NA
Emuhaya Sub County Referral Hospital,arDVLu1shRK,15876,rVwUPDEkBSy,Emuhaya SCRH,,NA,NA,,POINT,"[34.63297,0.11259]",,NA,NA,NA,NA
Maliera SDA Dispensary,qqhDXan6YY4,,KzqDLd1CVFQ,Maliera SDA Dispensary,,NA,NA,,POINT,"[34.45287,0.11052]",,NA,NA,NA,NA
Gongo Health Centre,AzOEyXz9Alb,17516,LWXYw2EpuLy,Gongo Health Centre,,NA,NA,,POINT,"[34.47773,0.05877]",,NA,NA,NA,NA
Chitsanze Dispensary,xIygblk3gKy,22497,HLbG24kuSHF,Chitsanze Dispensary,,NA,NA,,NONE,"[39.46042,4.14086]",,NA,NA,NA,NA
Silaloni Dispensary,Q0oTmpiCXFG,11794,TwX1KTjb8Qp,Silaloni Dispensary,,NA,NA,,POINT,"[39.2822,-3.62041]",,NA,NA,NA,NA
Majimoto Dispensary,ksNfsN3CiNc,11543,lijbuerznbA,Majimoto Dispensary,,NA,NA,,POINT,"[39.2944,-4.40447]",,NA,NA,NA,NA
Gandini,cYrHrtCUWDR,21256,PrGoCfZ06gm,Gandini,,NA,NA,,NONE,,,NA,NA,NA,NA
Mtaa Dispensary,Mi57MBhhiet,11662,aom47Uzq1RZ,Mtaa Dispensary,,NA,NA,,POINT,"[39.3411,-4.00308]",,NA,NA,NA,NA
Esirulo Imani Medical Clinic,rTT3LA86TCd,15886,rF4SKTlT0XH,Esirulo Imani Medical Cli,,NA,NA,,POINT,"[34.6144,0.11621]",,NA,NA,NA,NA
Geva Medical Clinic,M2i3nLQV5lC,18969,ml7KNIMIuvz,Geva Medical Clinic,,NA,NA,,POINT,"[34.78692,-0.11636]",,NA,NA,NA,NA
Tigoi Health Centre,x8dwth6BYiK,16151,USg05TR1JwK,Tigoi Health Centre,,NA,NA,,POINT,"[34.72554,0.00591]",,NA,NA,NA,NA
Umbrella Health Clinic,wK3GyOKOaEm,,s2NvoXiAGWj,Umbrella Health Clinic,Newly opened school community facility,NA,NA,,NONE,,,NA,NA,NA,NA
Uthanya Dispensary,r0mgms7gl7H,22498,F3o4X4OBHKw,Uthanya,Dispensary,NA,NA,Functional,NONE,,,NA,NA,NA,NA
VINYUNDUNI DISPENSARY,Fe3ZlCt7bvZ,21696,wfUbX2QagwS,VINYUNDUNI DISPENSARY,"The facility is located along kinango samburu road .on the left side of malomani market on your way to samburu.it is makamini location,vinyunduni sublocation",NA,NA,,NONE,,,NA,NA,NA,NA
Olengo Dispensary,qoxnQwymhNP,22499,LWXYw2EpuLy,Olengo,Dispensary,NA,NA,Operational,NONE,,,NA,NA,NA,NA
Lake Kanyaboli Community Dispensary,qzRX4UHiZub,22543,fpnhZCEZEGQ,Lake Kanyaboli Community Dispensary,community dispensary near lake kanyaboli,NA,NA,,NONE,"[0.047750,34.192027]",,NA,NA,NA,NA
Impact Research-Tuungane (Nyando),wYzsobXtVqC,18456,F1etBBfosCl,Impact Research-Tuungane,Medical clinic,NA,NA,,POINT,"[34.92714,-0.17373]",,NA,NA,NA,NA
Mazola Dispensary,z2V9BrTObHC,22300,QEGPqON6Zcj,Mazola Dispensary,,NA,NA,,NONE,,,NA,NA,NA,NA
Munje  Dispensary,CG0ZP7EFHsm,,VGENlt3MTt7,Munje Dispensary,Dispensary,NA,NA,,NONE,,,NA,NA,NA,NA
Lwenya Dispensary,rMQErGALQrA,22650,RaGcUBct8yg,Lwenya Dispensary,"its off Mago -kapsabet road, Mago - Bumuyange murrum road",NA,NA,Offering outpatient services,NONE,"[34.790211,0.1205211]",,NA,NA,NA,NA
Coptic Nursing Home,oic5beVUm72,15862,rVwUPDEkBSy,Coptic Nursing and MH,,NA,NA,,POINT,,,NA,NA,NA,NA
Emusenjeli Dispensary,UgJPzSFxXX4,15878,VY0CncsctUg,Emusenjeli Dispensary,,NA,NA,,POINT,"[34.64638,0.0406]",,NA,NA,NA,NA
Luanda MCH/FP Clinic,Q6GCdk6o0Zf,15962,ZD3ThdrdoTN,Luanda MCH/FP Clinic,,NA,NA,,POINT,"[34.58494,0.02562]",,NA,NA,NA,NA
Mavirivirini Dispensary,LBMVkiN6Sgm,21834,vjeHNVWOsRk,Mavirivirin,Its located off mwanda kafunduni road next to mavirivirini polytechnic,NA,NA,It offers dispensary and clinic out patient only,NONE,,,NA,NA,NA,NA
Gidagadi Dispensary,e8uY6XA82Dq,22611,d7jBlFuDPt7,Gidagadi Dispensary,Majengo-Hamisi road off Gisamba-Buyangu road,NA,NA,Offering OPD services,NONE,"[34.777105,0.052053]",,NA,NA,NA,NA
Gambogi medical clinic,JvU4tcUsPOV,22666,pyG6e1Uq18m,Gambogi medical clinic,Kisumu-Kakamega road next to Gamalenga primary school,NA,NA,OPD services,NONE,"[34.7413603,-0.0054169]",,NA,NA,NA,NA
Cheptul CFC Community Health Centre,TV2Eow2q1EM,22665,iphxMgFUJmE,Cheptul CFC Community Health Centre,Kapsabet-Chavakali road next to Kaimosi high school,NA,NA,OPD services,NONE,"[34.8577347,0.1281875]",,NA,NA,NA,NA
Guru Nanak Dispensary,iNFmUPNw6nI,13596,wTeTHBlXnQj,Guru Nanak Dispensary,,NA,NA,,POINT,"[34.75253,-0.10073]",,NA,NA,NA,NA
Jalaram Nursing Home,VINAriLkHL5,13632,wTeTHBlXnQj,Jalaram Nursing Home,,NA,NA,,POINT,"[34.76432,-0.09485]",,NA,NA,NA,NA
Melkasons Clinic,gH2xbv4PEuL,18290,o6cVZ72goEk,Melkasons Clinic,,NA,NA,"Facility offers curative, preventive and promotive services",POINT,"[34.52487,-0.10864]",,NA,NA,NA,NA
Perani Private Clinic,zqNKCbQy3AJ,17928,HEKTLM0EwH0,Perani Medical Clinic,,NA,NA,,POINT,"[39.18909,-4.51809]",,NA,NA,NA,NA
Buyangu Health Centre,Nn4W2J9Csim,15839,USg05TR1JwK,Buyangu Health Centre,,NA,NA,,POINT,"[34.74595,0.03923]",,NA,NA,NA,NA
Sagam Community Hospital,cPU7gAlPGs7,14064,XM6wZZeKqhk,Sagam Community Hospital,,NA,NA,,POINT,"[34.54176,0.05607]",,NA,NA,NA,NA
Siala Kaduol,X6eQyywhuHF,18426,F3o4X4OBHKw,Siala Kaduol,,NA,NA,,POINT,"[34.46104,0.0122]",,NA,NA,NA,NA
Ahero County Hospital,iPKeTl8lSAZ,13468,F1etBBfosCl,Ahero County Hospital,County hospital,NA,NA,,POINT,"[34.92367,-0.17321]",,NA,NA,NA,NA
Mamboleo Medical Clinic,PkiAhkL8d2m,18417,xyzeTkTa8o7,Mamboleo Medical Clinic,,NA,NA,,POINT,"[34.78539,-0.05816]",,NA,NA,NA,NA
Pand Pieri Community Health Centre,iBuAKaM0WO2,14012,yz3WGD5x3v2,Pand Pieri Community HC,,NA,NA,,POINT,"[34.75698,-0.11627]",,NA,NA,NA,NA
Pendo Medical Clinic (Kinango),vL9tTbgr30f,16519,PrGoCfZ06gm,Pendo MC (Kinango),,NA,NA,,POINT,"[39.31505,-4.13672]",,NA,NA,NA,NA
Tiwi RHTC,gEvZgtrunJY,11853,JBSYO3skSW5,Tiwi RHTC,,NA,NA,,POINT,"[39.5869,-4.24935]",,NA,NA,NA,NA
Chigato Dispensary,loVZFUBEzjo,218833,aom47Uzq1RZ,Chigato,Its located along mazeras kinango road on the left side of mwache primary,NA,NA,It offers primary health services that is (TYPE) adispensary and clinic out patient only,NONE,,,NA,NA,NA,NA
Masaba Hospital Kisumu,sSoQItUt4xV,18414,r6rYPoyjxvR,Masaba Hospital Kisumu,,NA,NA,"Situated along Kisumu Busia Road next to Chulaimbo Secondary School and Chulaimbo Sub District Hospital, approximately 26 kms from the district offices",POINT,"[34.62876,-0.03925]",,NA,NA,NA,NA
Ahero Medical Centre,TYKsuf1A6HB,18291,Vi7hrFiryu0,Ahero Medical Centre,Medical clinic,NA,NA,,POINT,"[34.92412,-0.17296]",,NA,NA,NA,NA
Wanganga Health Centre,htS3CRkD3WD,18283,Vi7hrFiryu0,Wanganga Health Centre,Health Centre,NA,NA,,POINT,"[35.07329,-0.19317]",,NA,NA,NA,NA
Oren Health Centre,IgabCFGuay6,18800,Vi7hrFiryu0,Oren Health Centre,Health Centre,NA,NA,,POINT,"[35.07167,-0.18689]",,NA,NA,NA,NA
Katolo-Manyatta Dispensary,CZEFya4R7Q9,18421,ONutw6s6W4y,Katolo-Manyatta Dispensary,,NA,NA,,POINT,"[34.96644,-0.22764]",,NA,NA,NA,NA
Kinasia Dispensary,aSPafr5E6SG,13694,ONutw6s6W4y,Kinasia Dispensary,Dispensay,NA,NA,,POINT,"[35.02019,-0.24871]",,NA,NA,NA,NA
Olasi Dispensary (Nyando),gYDBnsFssH6,13976,ONutw6s6W4y,Olasi Dispensary  (Nyando,Dispensary,NA,NA,,POINT,"[35.04453,-0.26736]",,NA,NA,NA,NA
Kanyagwal Dispensary,OhVOBYmtprM,13654,LCXl4ftRJYy,Kanyagwal Dispensary,,NA,NA,,POINT,"[34.8797,-0.23887]",,NA,NA,NA,NA
Awasi Mission Health Center,ISsRMwepdm7,13491,Vi7hrFiryu0,Awasi Mission Health Center,Health center,NA,NA,,POINT,"[35.07395,-0.16043]",,NA,NA,NA,NA
Nyahera Sub District Hospital,jO55LWzNxCv,13880,SPH4pigpmjD,Nyahera Sub District Hosp,,NA,NA,,POINT,"[34.71281,-0.03495]",,NA,NA,NA,NA
Nyang'ori Health Centre,hE3sC35yZLP,16082,pyG6e1Uq18m,Nyang'ori Health Centre,,NA,NA,,POINT,"[34.78,0.02]",,NA,NA,NA,NA
Jamii Medical Clinic Vihiga,NuLGQT2gYbZ,18926,W1gE3uts9Qh,Jamii medical clinic vihiga,off majengo-Luanda Road,NA,NA,,POINT,"[34.72,0.0455]",,NA,NA,NA,NA
Oriang Kanyadwera Dispensary,IDjYKFT9aaF,18422,b2DzrddWnYN,Oriang Kanyadwera Disp,,NA,NA,Facility still offering basic preventive and curative services,POINT,"[34.45264,-0.07289]",,NA,NA,NA,NA
Likindu Health Centre,GwLVDDMCfyU,15960,pyG6e1Uq18m,Likindu Health Centre,,NA,NA,,POINT,"[34.6594,0.01703]",,NA,NA,NA,NA
TUMAINI DISC-SIAYA,fMVB01WfR0G,22173,bcaDvBIDj6b,TUMAINI DISC-SIAYA,A FACILITY FOR IMPACT RESEARCH AND DEVELOPMENT DEALING WITH KEY POPULATION,NA,NA,,NONE,,,NA,NA,NA,NA
Kadinda Health Centre,My0xFBJaM5c,16283,F1etBBfosCl,Kadinda Health Centre,Health Centre,NA,NA,,POINT,"[34.89063,-0.24004]",,NA,NA,NA,NA
Kaptech Dispensary,hqiyXj3Cfxz,16456,tDKdg7EyyCj,Kaptech Dispensary,,NA,NA,,POINT,"[34.82459,0.16416]",,NA,NA,NA,NA
Nguge Dispensary,nmjT5bW3zK4,17526,mEZBjj4fLBT,Nguge Dispensary,,NA,NA,,POINT,"[34.42391,0.00187]",,NA,NA,NA,NA
Lwako Ubuntu Afya Clinic,Zl9A7hw4f73,21303,kazFsB6YZ6J,Lwako Ubuntu Afya Clinic,,NA,NA,,NONE,,,NA,NA,NA,NA
Ruma Ubuntu Afya Clinic,nBrB7lHikD9,,IqPuAjRYM1t,Ruma Ubuntu Afya Clinic,"Ndori - Lwanda Kotieno road, 2 kms from Aram mkt, facility situated in Ruma Women Group Development Centre",NA,NA,,NONE,,,NA,NA,NA,NA
Kowino Dispensary,DNnvCXUMH4v,13722,roJc7UkCD2l,Kowino Dispensary,,NA,NA,,POINT,"[34.76895,-0.11414]",,NA,NA,NA,NA
Makamini Dispensary,gfk5MBvovOM,11545,wfUbX2QagwS,Makamini Dispensary,,NA,NA,,POINT,"[39.2454,-3.98457]",,NA,NA,NA,NA
K-Met Corkran Medical Clinic,lFZ0yIDgUyJ,17554,ZplKg3SMkIC,K-MET Corkran Medical Clinic,,NA,NA,,POINT,"[34.76724,-0.08296]",,NA,NA,NA,NA
Linda Jamii Clinic - Aram Mkt,TCfLCyeAYuB,,kazFsB6YZ6J,Linda Jamii Clinic - Aram Mkt,Situated at Aram Market,NA,NA,,NONE,,,NA,NA,NA,NA
Milenye Dispensary,MDtpxJARA3o,,FFfi4zTqdH2,Milenye Dispensary,,NA,NA,,NONE,,,NA,NA,NA,NA
Kiboswa Medical Clinic,Eq8AThGo0jl,22807,pyG6e1Uq18m,Kiboswa Medical Clinic,Kisumu/Kiboswa road,NA,NA,,POINT,,,NA,NA,NA,NA
Rera Health Centre,p6Sle8EB5TO,14042,F3o4X4OBHKw,Rera Health Centre,,NA,NA,,POINT,"[34.448,-0.00521]",,NA,NA,NA,NA
Queenteric Kapiyo Community Nursing Home,bxRvXsnUCmB,,uid3Vo2PCsW,Queenteric Kapiyo Community Nursing Home,near Nyandusi Primary School in Maranda Division,NA,NA,not functional in out patient and inpatient services.,NONE,,,NA,NA,NA,NA
Rwambwa Health Centre,bXn7IY2ZYMz,14063,utYTK2xBC3k,Rwambwa Health Centre,,NA,NA,,POINT,"[34.09324,0.11455]",,NA,NA,NA,NA
Esiarambatsi Health Centre,fs0p5MurBkl,15885,rF4SKTlT0XH,Esiarambatsi HC,,NA,NA,,POINT,"[34.60738,0.08084]",,NA,NA,NA,NA
Givole Dispensary,xMHtgmoaubR,17182,USg05TR1JwK,Givole Dispensary,,NA,NA,,POINT,"[34.80199,0.073]",,NA,NA,NA,NA
Jumuia Friends Hospital Kaimosi,y0kyyERURWh,15913,iphxMgFUJmE,Jumuia Friends Hospital Kaimosi,,NA,NA,,POINT,"[34.84834,0.13183]",,NA,NA,NA,NA
Shiru Health Centre,HBsqa81tb5L,16117,iphxMgFUJmE,Shiru Health Centre,,NA,NA,,POINT,"[34.91163,0.16167]",,NA,NA,NA,NA
Mbeka Dispensary,slWwIzETE49,21517,JVz0J1MJJ0V,mbeka,new facility operates outpatient services,NA,NA,near Kopolo market in Nyangoma Division,NONE,,,NA,NA,NA,NA
Sabatia Eye Hospital Mission,V2RIOHHsYjQ,16097,RaGcUBct8yg,Sabatia Eye Hospital Miss,,NA,NA,,POINT,"[34.7902,0.12052]",,NA,NA,NA,NA
Chavogere Mission,DL2NcqH6Dxv,15847,cUBWuuQYISs,Chavogere Mission,,NA,NA,,POINT,"[34.8105,0.15104]",,NA,NA,NA,NA
Cornerstone Medical Clinic,N52wAZEu66i,11292,HLbG24kuSHF,Cornerstone MC,,NA,NA,,POINT,"[39.45421,-4.17441]",,NA,NA,NA,NA
Magaoni Health Centre,roHvB9P8Of1,20453,pOKIONEzUyF,Magaoni Health Centre,Health Centre,NA,NA,,NONE,,,NA,NA,NA,NA
Royal Run Medical Clinic,lwITlY4Rd2j,18572,HLbG24kuSHF,Royal Run Medical Clinic,,NA,NA,,POINT,"[39.45031,-4.17602]",,NA,NA,NA,NA
Santa Maria Kw Medical Clinic,VySsZ7Dkf9U,,dQkHuP0kVjq,Santa Maria Med Clinic,,NA,NA,,POINT,"[39.415515,-4.36521]",,NA,NA,NA,NA
Segere Dispensary,EwpG2Q4y05m,16790,fpnhZCEZEGQ,Segere Dispensary,,NA,NA,,POINT,"[34.24462,0.11233]",,NA,NA,NA,NA
Mazumalume Dispensary,RMxrov0mRw3,11587,HLbG24kuSHF,Mazumalume Disp,,NA,NA,,POINT,"[39.48973,-4.24513]",,NA,NA,NA,NA
Afyatele Center,YtNck7qPEsv,21519,NYqz8G2gfEC,ATC,"OUTPATIENT MEDICAL CENTER OPERATING FROM 8.AM -5.00PM .THE FACILITY IS WITHIN TOWN CENTER, NEXT TO EASY COACH BOOKING OFFICE",NA,NA,"SERVICES INCLUDES CONSULTATION,LABORATORY, PHARMACY ,MOTHER TO CHILD CLINIC AND FAMILY PLANNING.",NONE,"[34.08258,0.067889]",,NA,NA,NA,NA
Musunguti Dispensary,rKD6LwS0LRX,21422,VmCvwovgPi4,Musunguti Dispensary,"Next to Mususnguti Primary School,Off Kerongo Road",NA,NA,,POINT,"[0.00257,34.63543]",,NA,NA,NA,NA
Teens Watch,GQH7f8V4V24,,iBuXrh8ESS2,Teens Watch,Stand Alone,NA,NA,,NONE,,,NA,NA,NA,NA
Ruma Youth Friendly VCT (Rarieda),ImPheKqePAl,18416,IqPuAjRYM1t,Ruma Youth Friendly VCT,,NA,NA,,POINT,"[34.33526,-0.22119]",,NA,NA,NA,NA
Ambira Sub-District Hospital,QRZj3gcahYE,13476,pHKNjOmIqg4,Ambira,,NA,NA,,POINT,"[34.27269,0.17689]",,NA,NA,NA,NA
Mwachande Medical Clinic,YmlXTZlZ7j0,16548,VGENlt3MTt7,Mwachande Medical Clinic,,NA,NA,,POINT,"[39.3779,-4.46228]",,NA,NA,NA,NA
Wespram Medical centre,UKWQePSMSVL,22078,bcaDvBIDj6b,Wespram Medical centre,private medical clinic,NA,NA,,NONE,,,NA,NA,NA,NA
Sondu Health Centre,Gk01HeIfjsg,14096,TAZBFBDq6KC,Sondu Health Centre,,NA,NA,,POINT,,,NA,NA,NA,NA
Nyabondo Mission Hospital,T4fYNeKF5gb,13864,TAZBFBDq6KC,Nyabondo Mission Hospital,,NA,NA,,POINT,"[34.97848,-0.38168]",,NA,NA,NA,NA
Star of Good Hope Medical Clinic,OjZbKpyClzL,11830,JBSYO3skSW5,Star Of Good Hope MC,,NA,NA,,POINT,"[39.57503,-4.24133]",,NA,NA,NA,NA
Gari Dispensary,FG0txxsfiCw,18866,oTl0WEQrKtX,Gari dispensary,,NA,NA,,POINT,"[34.91391,-0.38029]",,NA,NA,NA,NA
Sigoti Health Centre,eH1iSu1tL6t,14086,TAZBFBDq6KC,Sigoti Health Centre,,NA,NA,,POINT,"[34.97091,-0.34667]",,NA,NA,NA,NA
Naya Health Centre,NxtPmGX4kQD,13837,VlWsveTXbi3,Naya Health Centre,,NA,NA,,POINT,"[34.3121,-0.36255]",,NA,NA,NA,NA
Ng'Iya Health Centre,wY8b3t2QsEL,13852,hMo6PZnvQqb,Ng'iya Health Centre,,NA,NA,,POINT,"[34.37273,-0.04497]",,NA,NA,NA,NA
Kandaria Medical Centre,H2j5rA0udFS,18721,G2B9ridstXR,Kandaria Medical centre,Near Akando primary school,NA,NA,,POINT,"[34.97995,-0.33737]",,NA,NA,NA,NA
Kengen Clinic,sghIxCBxm9L,13669,cSmqxMnL3hd,Kengen Clinic,,NA,NA,,POINT,"[34.8521,-0.33435]",,NA,NA,NA,NA
Urenga Health Centre,mGga9qtmJEk,14159,XIgwnIXyBx0,Urenga Health Centre,,NA,NA,,POINT,"[34.4397,0.0161]",,NA,NA,NA,NA
Misori Dispensary,ttjlT9tfGCj,13815,IqPuAjRYM1t,Misori Dispensary,,NA,NA,,POINT,"[34.278,-0.31856]",,NA,NA,NA,NA
Nyakach County Hospital,ffLvCT7DuPc,13921,go41UxgIdh5,Nyakach County Hospital,,NA,NA,,POINT,"[34.93741,-0.31293]",,NA,NA,NA,NA
Anza Mapema Clinic,zTjUwJx8Mw0,21220,ZplKg3SMkIC,Anza Mapema Clinic,HTS Clinic,NA,NA,,NONE,,,NA,NA,NA,NA
Kunya Dispensary,tgRwAp3Oey9,13725,c8htRsEJD2W,Kunya Dispensary,,NA,NA,,POINT,"[34.39937,-0.28581]",,NA,NA,NA,NA
Manyuanda Health Centre (Rarieda),EZCHSlG09NE,13771,IqPuAjRYM1t,Manyuanda HC (Rarieda),,NA,NA,,POINT,"[34.27609,-0.25252]",,NA,NA,NA,NA
Magodzoni Dispensary,OQaFzTxqOby,11537,JBSYO3skSW5,Magodzoni Dispensary,,NA,NA,,POINT,"[39.5569,-4.21216]",,NA,NA,NA,NA
Msambweni County Refferal Hospital,nUFNIok7EwF,11655,VGENlt3MTt7,Msambweni County Refferal Hospital,,NA,NA,,POINT,"[39.4708,-4.48007]",,NA,NA,NA,NA
Tuungane Dice,RZWK03w2lGf,18109,EmooFdjzKlm,tuungane dice impact,In maranda Division  bondo town centre,NA,NA,specifically for Testing and ART provision,POINT,"[34.27655,0.09979]",,NA,NA,NA,NA
Shimba Hills Health Centre,erZvaDeCoQ3,11787,dQkHuP0kVjq,Shimba Hills HC,,NA,NA,,POINT,"[39.4179,-4.35774]",,NA,NA,NA,NA
Masala Dispensary,ltcUO2beWif,13780,IqPuAjRYM1t,Masala Dispensary,,NA,NA,,POINT,"[34.29273,-0.20811]",,NA,NA,NA,NA
Nyakongo Dispensary,J3865NY4ur6,13884,ONutw6s6W4y,Nyakongo Dispensary,Dispensary,NA,NA,,POINT,"[35.01355,-0.20083]",,NA,NA,NA,NA
Koru Mission Health Centre,UnUk7uMZeBz,13719,cyChGO6tdNS,Koru Mis Health Centre,,NA,NA,,POINT,"[35.27415,-0.18582]",,NA,NA,NA,NA
Dago Jonyo Dispensary,IDDFhT4VRj1,20377,o6cVZ72goEk,Dago Jonyo Dispensary,Dispensary,NA,NA,Aproximately 4kms from Bodi market,POINT,"[34.50411,-0.18251]",,NA,NA,NA,NA
St Joseph's Obaga Dispensary,yr1OdefeL3S,14111,kazFsB6YZ6J,St Joseph's Obaga Disp,,NA,NA,,POINT,"[34.32469,-0.20671]",,NA,NA,NA,NA
Mama Plister Blair Health Centre,ZSjZcx0lxrz,17121,cnOFVqKDVEi,Mama Plister Blair Health,,NA,NA,,POINT,"[34.96551,-0.12894]",,NA,NA,NA,NA
Chemelil Sugar Health Centre,PeEVPAKDbaC,13522,WzjCQ2bnOk7,Chemelil Sug Health Cent,,NA,NA,,POINT,"[35.18239,-0.15153]",,NA,NA,NA,NA
Rachar Sugar Belt Hospital,ieD6w3xqG0G,14021,cyChGO6tdNS,Rachar Sugar Belt Hospita,,NA,NA,,POINT,"[35.19964,-0.15497]",,NA,NA,NA,NA
Saradidi Dispensary,VqXehjCiW9C,14068,kazFsB6YZ6J,Saradidi Dispensary,,NA,NA,,POINT,"[34.39692,-0.11288]",,NA,NA,NA,NA
Nyalenda Health Centre,uMzpY2vfUnF,13887,yz3WGD5x3v2,Nyalenda Health Centre,,NA,NA,,POINT,"[34.75211,-0.1226]",,NA,NA,NA,NA
Central Clinic (Kisumu East),zkmzd91bAW2,13520,pOsTvaq49pN,Central Clinic (Kisumu Ea,,NA,NA,,POINT,,,NA,NA,NA,NA
Family Health Options Kenya (FHOK) Dispensary,tjl59t3dGDS,13552,wTeTHBlXnQj,FHOPK Disp,,NA,NA,,POINT,"[34.76096,-0.10086]",,NA,NA,NA,NA
Uhembo Dispensary,TftBThfkPx8,17532,utYTK2xBC3k,Uhembo Dispensary,,NA,NA,,POINT,"[34.11391,0.08326]",,NA,NA,NA,NA
K-Met Medical Clinic,khQbzuYHM5V,13637,ml7KNIMIuvz,K- MET Medical Clinic,,NA,NA,,POINT,"[34.7871,-0.1164]",,NA,NA,NA,NA
Marie Stopes Nursing Home (Kisumu),UH6upEAwIsn,13776,ZplKg3SMkIC,Marie Stopes NH (Kisumu),,NA,NA,,POINT,"[34.77025,-0.0878]",,NA,NA,NA,NA
Gods Will Medical Clinic,cnTitFnzOOT,13586,roJc7UkCD2l,Gods Will Medical Clinic,,NA,NA,,POINT,"[34.75957,-0.11741]",,NA,NA,NA,NA
Nightingale Medical Centre,E4jVwDn9VtO,13856,pOsTvaq49pN,Nightingale Medical Centr,,NA,NA,,POINT,"[34.7728,-0.08317]",,NA,NA,NA,NA
Ndori Health Centre,QYhKgi9NMUr,13845,cfUqqHJA6z4,Ndori Health Centre,,NA,NA,,POINT,"[34.37752,-0.06975]",,NA,NA,NA,NA
Mashambani Dispensary,PjStrCd2jns,17111,WzjCQ2bnOk7,Mashambani Dispensary,,NA,NA,,POINT,"[35.15148,-0.08145]",,NA,NA,NA,NA
Chulaimbo Sub-District Hospital,aRWvqnCMOEN,13528,r6rYPoyjxvR,Chulaimbo SDH,,NA,NA,,POINT,"[34.63821,-0.03785]",,NA,NA,NA,NA
Mosque Dispensary,nKrfzFPeCtN,13823,ZplKg3SMkIC,Mosque Dispensary,,NA,NA,Facility closed,POINT,"[34.75798,-0.08814]",,NA,NA,NA,NA
Mtc Clinic (Kisumu),HifCRHU3Jlk,13829,pOsTvaq49pN,MTC Clinic (Kisumu),,NA,NA,,POINT,"[34.7845,-0.0893]",,NA,NA,NA,NA
St Jude's Clinic,oCyWes5PjvA,14113,ZplKg3SMkIC,St Jude's Clinic,,NA,NA,,POINT,"[34.7709,-0.08062]",,NA,NA,NA,NA
Port Florence Hospital,pOzVvOXQ6TL,14017,Xs7PwQOVMmb,Port Florence Hospital,,NA,NA,,POINT,"[34.70296,-0.07429]",,NA,NA,NA,NA
Miranga Sub County Referral Hospital,ibwx3O2yztO,13810,BRDtIETwfeW,Miranga Sub County Referral Hospital,,NA,NA,,POINT,"[34.57942,-0.07642]",,NA,NA,NA,NA
Kibos Sugar Research Dispensary,CHbzT0LTnWD,13689,xyzeTkTa8o7,Kibos Sugar Research Disp,,NA,NA,,POINT,"[34.81761,-0.03396]",,NA,NA,NA,NA
Kambare Dispensary,BEJQPDKe2Mo,17527,F3o4X4OBHKw,Kambare Health Centre,,NA,NA,,POINT,"[34.4665,-0.03225]",,NA,NA,NA,NA
Mafisini Dispensary,RYumT9hJ8Ss,11536,VGENlt3MTt7,Mafisini Dispensary,,NA,NA,,POINT,"[39.375,-4.44518]",,NA,NA,NA,NA
Town Hall Dispensary,ZiK8YPqvqtP,14153,wTeTHBlXnQj,Town Hall Dispensary,,NA,NA,,POINT,"[34.76,-0.11]",,NA,NA,NA,NA
Maseno University Medical Clinic,c3fBhfh67ij,13782,r6rYPoyjxvR,Maseno Univ Med Clinic,,NA,NA,,POINT,"[34.6107,-0.00152]",,NA,NA,NA,NA
Ogero Dispensary,iuEpMpu8AyW,13966,F3o4X4OBHKw,Ogero Dispensary,,NA,NA,,POINT,"[34.4828,0.00552]",,NA,NA,NA,NA
Siriba Dispensary,V0PeLlQNL7w,14094,r6rYPoyjxvR,Siriba Dispensary,,NA,NA,,POINT,"[34.61057,-0.00079]",,NA,NA,NA,NA
Dienya Health Centre,yjW8519Mkn2,13533,mEZBjj4fLBT,Dienya Health Centre,,NA,NA,,POINT,"[34.40699,0.00154]",,NA,NA,NA,NA
Jepkoyai Dispensary,NnRW3p4MPs3,16453,USg05TR1JwK,Jepkoyai Dispensary,,NA,NA,,POINT,"[34.72548,0.00584]",,NA,NA,NA,NA
Inuka Nursing Home,d18CNGs9w2s,20097,pHKNjOmIqg4,Inuka Nursing Home,Clinic,NA,NA,,POINT,,,NA,NA,NA,NA
Ligala Dispensary,XedKlZAN2O9,18320,quAHj7k172D,Ligala dispensary,,NA,NA,,POINT,"[34.25057,0.25759]",,NA,NA,NA,NA
Bar Agulu Dispensary,gFFdF6hGiFe,13496,hMo6PZnvQqb,Bar Agulu Dispensary,,NA,NA,,POINT,"[34.3338,0.04205]",,NA,NA,NA,NA
Kimogoi Dispensary,FZc8EjHfowN,16458,d7jBlFuDPt7,Kimogoi Dispensary,,NA,NA,,POINT,"[34.7792,0.05252]",,NA,NA,NA,NA
Avenue Hospital Kisumu,t6mwHRbgVVb,,ZplKg3SMkIC,Avenue Hospital Kisumu,Hospital,NA,NA,,NONE,,,NA,NA,NA,NA
Tumaini Sondu Disc Clinic,cqUcX50S0g3,20934,TAZBFBDq6KC,Tumaini Sondu Disc Clinic,Situated along Kisumu- Kisii highway at centre of Sondu Market.200 metres from Sondu Health Centre,NA,NA,,NONE,,,NA,NA,NA,NA
Emusire Health Centre,bdcsVP2hS8A,16979,rF4SKTlT0XH,Emusire Health Centre,,NA,NA,,POINT,"[34.6068,0.0843]",,NA,NA,NA,NA
Nyaweri Deaf VCT,AOrou4BQtzF,,pOsTvaq49pN,Nyaweri Deaf VCT,,NA,NA,,NONE,,,NA,NA,NA,NA
Ebukanga Dispensary,A2vpkzQnTO0,15865,HxODkmO42Nw,Ebukanga Dispensary,,NA,NA,,POINT,"[34.57881,0.08468]",,NA,NA,NA,NA
Ojm Medical Clinic,ZOncm6QPeaU,16088,rF4SKTlT0XH,OJM Medical Clinic,,NA,NA,,POINT,"[34.60697,0.08379]",,NA,NA,NA,NA
St Mary's Yala Dispensary,tXopH4h3EtN,16418,PeEcMfBchbr,St Mary's Yala Disp,,NA,NA,,POINT,"[34.53172,0.09468]",,NA,NA,NA,NA
Kisumu Regional Blood Transfusion  Center,bOpSaowA1Sy,,pOsTvaq49pN,Kisumu Regional Blood Transfusion  Center,,NA,NA,,NONE,,,NA,NA,NA,NA
Ematsuli Dispensary,RILlb5RVEkC,15875,AgnY1dRfILu,Ematsuli Dispensary,,NA,NA,,POINT,"[34.63229,0.11624]",,NA,NA,NA,NA
Bar-Sauri Dispensary,ZL7FkyG3uwc,16785,PeEcMfBchbr,Bar-Sauri Dispensary,,NA,NA,,POINT,"[34.52503,0.11125]",,NA,NA,NA,NA
Manyatta Community Medical Clinic,vJbJZQRVrWV,20512,It7fWcKbcZX,Manyatta Community Medical Clinic,,NA,NA,,POINT,"[34.78063,-0.09366]",,NA,NA,NA,NA
Mijay Clinic,MmKZuJfRqCq,16017,QbCSvi9H3CN,Mijay Clinic,,NA,NA,,POINT,"[34.7286,0.09242]",,NA,NA,NA,NA
Muhabini Medical Clinic,QxQjHlOsilD,16026,AgnY1dRfILu,Muhabini Medical Clinic,,NA,NA,,POINT,"[34.63271,0.11487]",,NA,NA,NA,NA
Sabatia Health Centre,m6zhE2pzHWO,16098,RaGcUBct8yg,Sabatia Health Centre,,NA,NA,,POINT,"[34.7874,0.1209]",,NA,NA,NA,NA
Iduku Dispensary,QXAvtxBS2Ts,15896,af8ohZ5YbyQ,Iduku Dispensary,off mbihi-vunandi road,NA,NA,,POINT,"[34.69369,0.07738]",,NA,NA,NA,NA
Abundant Life Clinic,HfJn5yioJhf,19897,It7fWcKbcZX,Abundant Life Clinic,,NA,NA,,NONE,,,NA,NA,NA,NA
Kegondi Health Centre,X2FnCxPnyEH,15928,J5T5BAIIILr,Kegondi Health Centre,,NA,NA,,POINT,"[34.73081,0.13037]",,NA,NA,NA,NA
Carol Afandi Clinic,kBVyQJwVEC6,15842,NHcPsj2IMSr,Carol Afandi Clinic,,NA,NA,,POINT,"[34.711,0.11413]",,NA,NA,NA,NA
Bugina Health Centre,gkvsBoZvbH1,15815,cUBWuuQYISs,Bugina Health Centre,,NA,NA,,POINT,"[34.76777,0.149]",,NA,NA,NA,NA
Lidha Dispensary,zKDQjMY6KLK,17525,F3o4X4OBHKw,Lidha Dispensary,,NA,NA,,POINT,"[34.38341,0.04052]",,NA,NA,NA,NA
Nyangu Dispensary,WggQjuiAZV8,13930,XdZKE7HcK5B,Nyangu Dispensary,,NA,NA,,POINT,"[34.13531,0.22488]",,NA,NA,NA,NA
Our Lady of Perpetual Support VCT (Bondo),X3d4OrvHkaW,18093,EmooFdjzKlm,olps vct,,NA,NA,,POINT,"[34.27743,0.09847]",,NA,NA,NA,NA
Ligega Health Centre,AlQczmsgUJn,13735,pHKNjOmIqg4,Ligega Health Centre,,NA,NA,,POINT,"[34.244,0.2119]",,NA,NA,NA,NA
Rafiki Kenia Health Centre,LgOP8HrG6er,,pOKIONEzUyF,Rafiki Kenia Health Centre,communuty Heath Facility,NA,NA,,POINT,"[39.52247,-4.39993]",,NA,NA,NA,NA
Muhaka Dispensary,Rqy8p7UOvvx,11676,pOKIONEzUyF,Muhaka Dispensary,,NA,NA,,POINT,"[39.5141,-4.34114]",,NA,NA,NA,NA
Sega Dispensary,Q1YHVG2A0U1,14072,quAHj7k172D,Sega Dispensary,,NA,NA,,POINT,"[34.2271,0.26353]",,NA,NA,NA,NA
Star Medical Clinic,CIsFGca8lrX,20588,rzPzDuVVuqw,Star Medical Clinic,Its a private clinic near Tiribe market,NA,NA,Inspected but was not due to open until some repaires are done,POINT,"[39.1578,-4.1956]",,NA,NA,NA,NA
Niceview Medical Clinic,k3o2OpsR7Ra,,VGENlt3MTt7,Niceview Medical Clinic,,NA,NA,,NONE,,,NA,NA,NA,NA
J A Comenius Medical Clinic,z3FpD4kEkzq,17826,JBSYO3skSW5,Comenius MC,,NA,NA,,POINT,"[39.58078,-4.23358]",,NA,NA,NA,NA
Sega Mission Hospital,ntP34s4jDH5,14073,quAHj7k172D,Sega Mission Hospital,,NA,NA,,POINT,"[34.2271,0.26353]",,NA,NA,NA,NA
Gombato Dispensary (CDF),TfsKMWO3CEU,16546,ByAmsolBen5,Gombato Dispensary (CDF),,NA,NA,,POINT,"[39.57947,-4.27116]",,NA,NA,NA,NA
Shimoni Dispensary,xOIShowo1zr,11789,oJkRlx56eac,Shimoni Dispensary,,NA,NA,,POINT,"[39.37883,-4.64508]",,NA,NA,NA,NA
Lungalunga  Sub County Hospital,mz64odxfFPq,11526,HEKTLM0EwH0,Lungalunga  Sub County Hospital,,NA,NA,,POINT,"[39.1206,-4.55366]",,NA,NA,NA,NA
Ngathini Dispensary,dcM4sXObsyP,11712,HEKTLM0EwH0,Ngathini Dispensary,,NA,NA,,POINT,"[39.13672,-4.61782]",,NA,NA,NA,NA
Lukore Dispensary,XeJ5kJzSBTR,11525,dQkHuP0kVjq,Lukore Disp,,NA,NA,,POINT,"[39.31559,-4.35603]",,NA,NA,NA,NA
Ukunda Diani Catholic Dispensary,GqRPZuGWkm1,11867,iBuXrh8ESS2,Ukunda Catholic Dispensar,,NA,NA,,POINT,"[39.57617,-4.28795]",,NA,NA,NA,NA
Anding'o Opanga Dispensary,lfs5qignpT4,13477,cSmqxMnL3hd,Anding'o Opanga Disp,,NA,NA,,POINT,"[34.8405,-0.3624]",,NA,NA,NA,NA
Bunde Dispensary,OaksTvWzoaf,13518,F1etBBfosCl,Bunde Dispensary,Dispensary,NA,NA,,POINT,"[34.89962,-0.21854]",,NA,NA,NA,NA
Kiteje Dispensary,ifilZzpttrk,17469,XZNJ3zaiaZH,Kiteje Disp.,,NA,NA,,POINT,"[39.60132,-4.11782]",,NA,NA,NA,NA
Mkundi Dispensary,Al89kMrg3Yt,11630,dQkHuP0kVjq,Mkundi Dispensary,,NA,NA,,POINT,"[39.24814,-4.36638]",,NA,NA,NA,NA
Kilimangodo Dispensary,S6X2QNJUj2g,11476,PBhYjIVYdhk,Kilimangodo Dispensary,,NA,NA,,POINT,"[39.0764,-4.35192]",,NA,NA,NA,NA
Nyakach (AIC) Dispensary,zdklzerrVxH,13881,oTl0WEQrKtX,Nyakach (AIC) Dispensary,,NA,NA,,POINT,"[34.93101,-0.38434]",,NA,NA,NA,NA
Gita Sub County Hospital,ngqqwzhuvjL,13647,xyzeTkTa8o7,Gita Sub County Hospital,,NA,NA,,POINT,"[34.79048,-0.02782]",,NA,NA,NA,NA
Maseno Mission Hospital,gEEJqBQ2vqX,13781,r6rYPoyjxvR,Maseno Mission Hospital,,NA,NA,,POINT,"[34.61169,-0.00026]",,NA,NA,NA,NA
Airport Dispensary (Kisumu),oEWhqoUHkvt,13469,Xs7PwQOVMmb,Airport Dispensary (Kisum,,NA,NA,,POINT,"[34.73359,-0.07331]",,NA,NA,NA,NA
The Great Lakes Medical Centre Luanda,QgvPC8qxtig,20295,gvz1kfj99I3,The Great Lakes Medical Centre Luanda,,NA,NA,,POINT,"[34.5855,0.0268]",,NA,NA,NA,NA
Aluor Mission Health Centre,p7wCM1JfI5d,13473,F3o4X4OBHKw,Aluor Mission HC,,NA,NA,,POINT,"[34.465,0.01047]",,NA,NA,NA,NA
Uriri Dispensary,cgLe4rXJQ2f,14160,mEZBjj4fLBT,Uriri Dispensary,,NA,NA,,POINT,"[34.4546,0.02944]",,NA,NA,NA,NA
Dolphil Nursing & Maternity Home,iQqQPaktVMP,13535,XM6wZZeKqhk,Dolphil Nursing & MH,,NA,NA,,POINT,,,NA,NA,NA,NA
Musitinyi Dispensary,p8nULMcL3p5,16052,VY0CncsctUg,Musitinyi Dispensary,,NA,NA,,POINT,"[34.65628,0.05669]",,NA,NA,NA,NA
Yala Sub-County Hospital,AlbZLFgtUXp,14175,PeEcMfBchbr,Yala Sub-District Hos,,NA,NA,,POINT,"[34.5375,0.10102]",,NA,NA,NA,NA
Rambula Dispensary,vyIRQtMwS3K,16789,pHKNjOmIqg4,Rambula Dispensary,,NA,NA,,POINT,"[34.3044,0.20667]",,NA,NA,NA,NA
Uluthe Dispensary,JR47sh98qKk,13799,WrmJKkvfjDl,Uluthe Dispensary,,NA,NA,To be updated,POINT,"[34.3196,0.29622]",,NA,NA,NA,NA
Madiany Sub-County  Hospital,NFVVCDVuAkk,13747,VlWsveTXbi3,Madiany Sub-County  Hospital,,NA,NA,,POINT,"[34.32304,-0.28396]",,NA,NA,NA,NA
Vision Medical Clinic - Esibuye,V4m6ILYX6WA,21270,AgnY1dRfILu,Vision Medical Clinic - Esibuye,Situated along Kima Stand kisa road near esibuye market,NA,NA,,POINT,"[34.63436,0.07943]",,NA,NA,NA,NA
Mulungunipa Dispensary,acXTP4OkUTk,21526,ByAmsolBen5,Mulungunipa Dispensary,Near Mulungunipa Primary School,NA,NA,New Facility,POINT,"[39.57947,4.27116]",,NA,NA,NA,NA
Mwaluphamba Dispensary,RhP9ywU9c7a,11684,rzPzDuVVuqw,Mwaluphamba Disp,,NA,NA,,POINT,"[39.3663,-4.22579]",,NA,NA,NA,NA
Milimani Hospital,zishViD2fmn,13808,wTeTHBlXnQj,Milimani Hospital,,NA,NA,,POINT,"[34.75328,-0.1217]",,NA,NA,NA,NA
Mwabila Dispensary,LunYFWqFNiA,11681,vjeHNVWOsRk,Mwabila Dispensary,,NA,NA,,POINT,"[39.39173,-3.85645]",,NA,NA,NA,NA
Luanda Wayside Clinic,pHEd3yXAGxi,17112,HxODkmO42Nw,Luanda Wayside Clinic,,NA,NA,,POINT,"[34.58465,0.02825]",,NA,NA,NA,NA
Gogo Dispensary,Zg5gzV6yNTm,19907,KzqDLd1CVFQ,Gogo,,NA,NA,,POINT,"[34.42642,0.09772]",,NA,NA,NA,NA
Simenya Dispensary,bsWJDHxiuNB,14091,rngZkqTBd03,Simenya Dispensary,,NA,NA,,POINT,"[34.36433,0.15676]",,NA,NA,NA,NA
St. monica Town Clinic,Cpr8bbDF973,20836,ZplKg3SMkIC,St. monica Town Clinic,,NA,NA,The clinic is a branch of the St. Monica Mission Hospital,POINT,"[34.76598,-0.09190]",,NA,NA,NA,NA
Serem Health Centre,oIfTa0e3Og0,16103,hXKwpKcEej9,Serem Health Centre,,NA,NA,,POINT,"[34.85275,0.08013]",,NA,NA,NA,NA
Mackinon Road Dispensary,J6BZQiPUm4R,11531,wfUbX2QagwS,Mackinon Road Dispensary,,NA,NA,,POINT,"[39.04021,-3.72919]",,NA,NA,NA,NA
Kilibasi Dispensary,bGJEeoqpsS0,11473,wfUbX2QagwS,Kilibasi Dispensary,,NA,NA,,POINT,,,NA,NA,NA,NA
Agma Clinic,OPpCGyY0Aij,16452,r6KB3hMzaXh,Agma Clinic,,NA,NA,,POINT,"[34.91108,0.15523]",,NA,NA,NA,NA
Mbuwani Dispensary,gwB2ZiLFNyy,11593,ByAmsolBen5,Mbuwani Dispensary,,NA,NA,,POINT,"[39.53,-4.29503]",,NA,NA,NA,NA
Kochieng Health Centre,wn0d2ABPbUF,21671,s2NvoXiAGWj,Kochieng Health Centre,Health Centre,NA,NA,,POINT,"[-0.15332999,34.82990001]",,NA,NA,NA,NA
Tuungane Youth Centre (Kisumu East),Y1nCWbiynS7,16663,ZplKg3SMkIC,Tuungane YC (Kisumu East,,NA,NA,,POINT,"[34.76612,-0.08998]",,NA,NA,NA,NA
Chiga Dispensary,qNO02IGD3yn,13524,kQXcKGM8chb,Chiga Dispensary,,NA,NA,,POINT,"[34.83829,-0.09345]",,NA,NA,NA,NA
Rodi Dispensary,xOk8BwV5Uta,14057,BRDtIETwfeW,Rodi Dispensary,,NA,NA,,POINT,"[34.57262,-0.1188]",,NA,NA,NA,NA
Kuoyo Kaila Dispensary,TAPp4w4qSDy,17171,BRDtIETwfeW,Kuoyo Kaila Dispensary,,NA,NA,,POINT,"[34.56683,-0.08858]",,NA,NA,NA,NA
Mv Patel Medical Clinic,cNVsDgm30I7,13835,wTeTHBlXnQj,MV Patel Medical Clinic,,NA,NA,,POINT,"[34.75305,-0.10143]",,NA,NA,NA,NA
Dunga Nursing Home,cn9tFkEKdnE,16661,yz3WGD5x3v2,Dunga Nursing Home,,NA,NA,,POINT,"[34.74435,-0.13157]",,NA,NA,NA,NA
Harmony Medical Clinic,jMASvYveXkK,19908,KzqDLd1CVFQ,Harmony Medical Clinic,,NA,NA,,POINT,"[34.39921,0.09774]",,NA,NA,NA,NA
Langi Kawino Dispensary,QTbpZ8fdTZG,18250,BRDtIETwfeW,Langi Kawino,,NA,NA,9 Kms from the District Headquarters,POINT,"[34.57652,-0.10116]",,NA,NA,NA,NA
Interfelk Medical Center,tnZuawZDSRe,,yz3WGD5x3v2,Interfelk Medical Center,Private Medical Facility owned by an NGO,NA,NA,,POINT,"[37.63776,0.05715]",,NA,NA,NA,NA
Victoria Sub District Hospital,vW57VhRdvs6,17376,wTeTHBlXnQj,Victoria Sub District Hos,,NA,NA,,POINT,"[34.75107,-0.11147]",,NA,NA,NA,NA
Keeping Alive Societys Hope,krU1mMvcA2E,20700,pOsTvaq49pN,Keeping Alive Societys Hope,Stand Alone Site for Special Population,NA,NA,,POINT,"[34.77785,-0.09810]",,NA,NA,NA,NA
AAR Health care-Kisumu,VeDu9Olup41,20956,wTeTHBlXnQj,AAR Health care-Kisumu,,NA,NA,Private institution,POINT,"[-0.10465,34.75328]",,NA,NA,NA,NA
Vigetse Medical Clinic,mfkFWNnJ5AP,20692,hTylTMl1aid,Vigetse Medical Clinic,OFF LUSIOLA MARKET ROAD,NA,NA,Run by Community Women Group,POINT,"[34.6735,-0.000603147]",,NA,NA,NA,NA
Tumaini DiSC - Asembo Bay,EFUa7hVf8r5,18557,cfUqqHJA6z4,Tumaini DiSC - Asembo Bay,,NA,NA,,POINT,"[34.38666,0.18348]",,NA,NA,NA,NA
Rambugu Dispensary (Rarieda),w6gmsyy7sL6,17437,kazFsB6YZ6J,Rambugu Dispensary,,NA,NA,,POINT,"[34.35616,-0.09399]",,NA,NA,NA,NA
Bilashaka Dispensary,wPoz7tDb3nG,,HLbG24kuSHF,Bilashaka Dispensary,,NA,NA,,NONE,,,NA,NA,NA,NA
St Jairus Hospital,TLYxOpSwSUe,21766,Xs7PwQOVMmb,St. Jairus Hospital,,NA,NA,,NONE,,,NA,NA,NA,NA
Nyang'oma Mission Health Centre,C3hcs594UwF,13929,JVz0J1MJJ0V,Nyang'oma Mission HC,In Nyangoma Division.,NA,NA,NYANG'OMA MKT,POINT,"[34.19475,-0.15457]",,NA,NA,NA,NA
Hawinga Health Centre,GrfDMFELnO0,13600,zaHyyp9lXME,Hawinga Health Centre,,NA,NA,,POINT,"[34.16046,0.0876]",,NA,NA,NA,NA
Lake Basin Development Authority (Lbda) Dispensary(Closed),HBI9GuCnD7F,13730,r6rYPoyjxvR,LBDA Disp,,NA,NA,,POINT,"[34.7649,-0.06348]",,NA,NA,NA,NA
Othach Dispensary,O1VQBaVQvat,14000,bxQkw99jktF,Othach Dispensary,NEAR BOARDER USIGU DIVISION  AND SIAYA DISTRICT,NA,NA,NEAREST TOWN-NYAMONYE MKT,POINT,"[34.20696,-0.05059]",,NA,NA,NA,NA
Kotunga Dispensary,EzS8Q2aNLJ9,21899,kQXcKGM8chb,Kotunga Dispensary,GOK Dispensary,NA,NA,,NONE,,,NA,NA,NA,NA
Pemba Dispensary,aSJOD9ZkU6k,20492,vjeHNVWOsRk,Pemba Dispensary,,NA,NA,,NONE,,,NA,NA,NA,NA
Tumaini Medical Clinic,WU2NJQdqz1h,11865,TwX1KTjb8Qp,Tumaini Medical Clinic,,NA,NA,,POINT,"[38.8649,-4.08103]",,NA,NA,NA,NA
Mbita Dispensary,wXwH1HE5zBG,21258,YZvux1SW3bs,Mbita,,NA,NA,,NONE,,,NA,NA,NA,NA
Mwangulu Community Dispensary,VVcbqmCinwl,11691,PBhYjIVYdhk,Mwangulu Dispensary,,NA,NA,,POINT,"[39.0134,-4.40954]",,NA,NA,NA,NA
Uhuyi Dispensary,TXGyS25PjDj,14107,rngZkqTBd03,Uhuyi Dispensary,,NA,NA,,POINT,"[34.44379,0.21003]",,NA,NA,NA,NA
Samburu Health Centre,GRZc4EZ9PuV,11768,TwX1KTjb8Qp,Samburu Health Centre,,NA,NA,,POINT,"[39.2698,-3.79018]",,NA,NA,NA,NA
Kwale Beyond Zero Mobile Clinic,o6PAzmMdPPt,21012,HLbG24kuSHF,Kwale Beyond Zero Clinic,Mobile Clinic,NA,NA,This is a Mobile Clinic,NONE,,,NA,NA,NA,NA
Mwananyamala Dispensary (CDF),cOgv5EHeFRj,16549,lijbuerznbA,Mwananyamala Dispensary (CDF),,NA,NA,,POINT,"[39.26573,-4.43605]",,NA,NA,NA,NA
Mwangwei Dispensary,KHcGc6wBwP4,20336,oJkRlx56eac,Mwangwei Dispensary,,NA,NA,,NONE,,,NA,NA,NA,NA
Mkwiro Dispensary,nKsYZHJP9tb,11633,oJkRlx56eac,Mkwiro Dispensary,,NA,NA,,POINT,"[39.3968,-4.66227]",,NA,NA,NA,NA
Mzizima (CDF) Dispensary,aZcZ3CdOcM0,17893,oJkRlx56eac,Mzizima  Dispensary,,NA,NA,,POINT,"[39.3496,-4.60703]",,NA,NA,NA,NA
Rotary Doctors Clinic,hgcnCq1Fd31,16094,rF4SKTlT0XH,Rotary Doctors Clinic,,NA,NA,,POINT,"[34.59418,0.11257]",,NA,NA,NA,NA
Elim Family Community Care,bB2Xlj8z1LN,16883,UqLylL8NY0G,Elim Family Community Car,,NA,NA,,NONE,,,NA,NA,NA,NA
Mwena Dispensay,Tuwzk3ENvM5,,PBhYjIVYdhk,Mwena Dispensay,Its a GOK Fcaility,NA,NA,,NONE,,,NA,NA,NA,NA
Majoreni Dispensary,k25SFxZn4B9,11544,oJkRlx56eac,Majoreni Dispensary,,NA,NA,,POINT,"[39.2762,-4.57561]",,NA,NA,NA,NA
Uyawi Hospital,pdEPFrsSUIf,14165,JVz0J1MJJ0V,Uyawi Hospital,in nyangoma Division,NA,NA,NEAREST MARKET-NANGO,POINT,"[34.16597,-0.16139]",,NA,NA,NA,NA
Kombani Dispensary,m3LmuT3zzVS,21694,XZNJ3zaiaZH,Kombani Disp,It is situated along Likoni /Lunga Lunga Highway about 500M from Kombani Kwale Junction.,NA,NA,functional,NONE,,,NA,NA,NA,NA
Mwaluvanga Dispensary,rwBKTKbWnzb,11685,dQkHuP0kVjq,Mwaluvanga Disp,,NA,NA,,POINT,"[39.3639,-4.37916]",,NA,NA,NA,NA
Wasini Dispensary,hJjfTzNHbKB,11892,oJkRlx56eac,Wasini Dispensary,,NA,NA,,POINT,"[39.3629,-4.65501]",,NA,NA,NA,NA
Vanga Health Centre,CFOmFTRmpEp,11879,HEKTLM0EwH0,Vanga Health Centre,,NA,NA,,POINT,,,NA,NA,NA,NA
Absalom Wangulu Dispensary,NS2k3fejJUx,,s2NvoXiAGWj,Absalom Wangulu Dispensary,New CDF Facility,NA,NA,,NONE,,,NA,NA,NA,NA
Administration Police Dispensary (Kisumu East),cQB8Va1pD81,13464,ZplKg3SMkIC,Admin Police Disp(Kisumu,,NA,NA,,POINT,"[34.75813,-0.12409]",,NA,NA,NA,NA
Vitsangalaweni Dispensary,nTLGF3pu49r,11884,lijbuerznbA,Vitsangalaweni Dispensary,,NA,NA,,POINT,"[39.2142,-4.48469]",,NA,NA,NA,NA
Masogo Sub County Hospital,FDrUcAP4Sn4,13785,FFfi4zTqdH2,Masogo Sub County Hospital,,NA,NA,,POINT,"[35.00522,-0.09843]",,NA,NA,NA,NA
Dima Mwangaza Clinic,gFUoa0GmAlZ,,HLbG24kuSHF,Dima Clinic,A mission clinic near Dima Primary School,NA,NA,"Offers outpatient,HTS, ANC services",NONE,,,NA,NA,NA,NA
Kichaka Simba Dispensary,uQPLFW1Tzcz,11467,dQkHuP0kVjq,K/simba Disp,,NA,NA,,POINT,"[39.35684,-4.34917]",,NA,NA,NA,NA
Kwale Medical Centre,AJmiiRNj2SP,,HLbG24kuSHF,Kwale Medical Center,Located in Kwale town opposite Kwale market. Plot No.15.,NA,NA,"Offers outpatient, HTS, laboratory, ANC  and family planning  services.",NONE,,,NA,NA,NA,NA
Muhoroni County  Hospital,p1xtagfLUyQ,13831,cyChGO6tdNS,Muhoroni County Hospital,,NA,NA,,POINT,"[35.20573,-0.15112]",,NA,NA,NA,NA
Oyamo Dispensary,CDCeYZgAB3g,14007,CRBP2g6KqWH,Oyamo Dispensary,ISLAND IN NYANGOMA DIVISION,NA,NA,POP ARE FISHER FORKS.NO SPECIFIC BOAT FOR THE FACILITY.,POINT,"[34.2387,-0.191]",,NA,NA,NA,NA
Kibandaongo Dispensary,MWEDyBsOpxM,11464,PrGoCfZ06gm,Kibandaongo Dispensary,,NA,NA,,POINT,"[39.39798,-4.04451]",,NA,NA,NA,NA
Homebase,V3g7s8omfUQ,,PrGoCfZ06gm,Homebase,,NA,NA,Had not included its name in the MFL thus its MFL code not obtained,POINT,,,NA,NA,NA,NA
St.Lydia Okore Dispensary,XdYpjzrtesB,21706,ZplKg3SMkIC,Okore Dispensary,,NA,NA,,NONE,,,NA,NA,NA,NA
Ogen Health Center,LYauDwfdLGf,13965,WzjCQ2bnOk7,Ogen Health Center,,NA,NA,,POINT,"[35.18204,-0.03917]",,NA,NA,NA,NA
Koduol Reru Dispensary,BbQdZEIQFV7,,LCXl4ftRJYy,Koduol Reru Dispensary,,NA,NA,,NONE,,,NA,NA,NA,NA
Bonde Dispensary,k2bd5BmXP2t,13506,go41UxgIdh5,Bonde Dispensary,,NA,NA,,POINT,"[34.88627,-0.31432]",,NA,NA,NA,NA
Rabar Dispensary,bejbJuEmJLP,14018,zaHyyp9lXME,Rabar Dispensary,,NA,NA,,POINT,"[34.19299,0.14334]",,NA,NA,NA,NA
Wekoye Medical Clinic,mLciqwiDS3o,20100,rF4SKTlT0XH,Wekoye Medical Clinic,A private clinic at Makakha,NA,NA,,POINT,"[34.60739,0.08085]",,NA,NA,NA,NA
Ulungo Dispensary,i7fRWb47rxA,14158,bxQkw99jktF,Ulungo Dispensary,in usigu Division . boarders Yala swamp in Siaya District .the facility is very far from the main road almost 8km,NA,NA,the facility have a new maternity built. There is Bondo teachers training collage,POINT,"[34.10807,0.01815]",,NA,NA,NA,NA
Usenge Dispensary,U0QSt0gU4Am,14163,NYqz8G2gfEC,Usenge Dispensary,in Usigu Division,NA,NA,USENGE TOWN,POINT,"[34.05523,-0.06648]",,NA,NA,NA,NA
Lihanda Health Centre,NE6kXJlu9lG,17512,XM6wZZeKqhk,Lihanda Health Centre,,NA,NA,,POINT,"[34.50559,0.0404]",,NA,NA,NA,NA
Kambajo Dispensary,cgGKqOQ5YLB,13651,uid3Vo2PCsW,Kambajo Dispensary,level 2 facility in maranda division,NA,NA,functional facility,POINT,"[34.21136,-0.07894]",,NA,NA,NA,NA
Alwalidayn Dispensary,cjPwf2Grgo9,,pOKIONEzUyF,Alwalidayn Dispensary,Dispensary,NA,NA,Operational,NONE,,,NA,NA,NA,NA
Radier Dispensary,JcrbB7yUiAC,14023,bxQkw99jktF,Radier Dispensary,IN USIGU DIVISION,NA,NA,HAS VERY POOR ROAD NETWORK,POINT,"[34.07347,-0.02495]",,NA,NA,NA,NA
Mawere Dispensary,q2YkoU00i0A,13796,EmooFdjzKlm,Mawere Dispensary,in maranda Division. Near the boarder of Siaya and Bondo,NA,NA,NEAREST TOWN-NDORI MKT,POINT,"[34.3443,-0.04655]",,NA,NA,NA,NA
Serawongo Dispensary,TvQQht1n3MH,14077,JVz0J1MJJ0V,Serawongo Dispensary,IN NYANGOMA DIVISION,NA,NA,,POINT,"[34.13437,-0.15221]",,NA,NA,NA,NA
Sirembe Dispensary,PJL0GkJnlST,14093,KzqDLd1CVFQ,Sirembe Dispensary,,NA,NA,,POINT,"[34.4,0.09503]",,NA,NA,NA,NA
Nyamonye Mission Dispensary,Fb6QnAUP1Gf,13914,bxQkw99jktF,Nyamonye Mission Disp,is a Catholic dispensary in Usigu Division,NA,NA,most services are out patient. the facility is along the roadside towards Usenge.have beaches.,POINT,"[34.13787,-0.05125]",,NA,NA,NA,NA
Mindhine Dispensary,PIXoJMTOosr,13803,XM6wZZeKqhk,Mindhine Dispensary,,NA,NA,,POINT,"[34.53381,0.0475]",,NA,NA,NA,NA
Got Agulu Sub-District Hospital,DVnHWnAZOjR,13588,NYqz8G2gfEC,Got Agulu SDH,within Usigu Division,NA,NA,level 3 facility but has no theatre,POINT,"[34.0248,-0.0341]",,NA,NA,NA,NA
Got Matar Health Centre,LUgqcwSvTS4,13590,bxQkw99jktF,Got Matar Health Center,level 3 facility in usigu division,NA,NA,functional facility,POINT,"[34.1315,-0.0309]",,NA,NA,NA,NA
Mabinju Dispensary,PJpy4XMrHPm,13743,CRBP2g6KqWH,Mabinju Dispensary,level 2 facility in nyangoma division,NA,NA,functional,POINT,"[34.24136,-0.13472]",,NA,NA,NA,NA
Chianda Dispensary (Rarieda),TFTsjlwBeca,18564,c8htRsEJD2W,Chianda Dispensary (Rarieda),Dispensry,NA,NA,Near Chianda market,POINT,"[34.35278,0.25589]",,NA,NA,NA,NA
Nyagoko Dispensary,UKLTU9SVDp3,13874,kazFsB6YZ6J,Nyagoko Dispensary,,NA,NA,,POINT,"[34.29557,-0.17535]",,NA,NA,NA,NA
Uhembo Community Dispensary,BC5jNR7hpPn,21782,fpnhZCEZEGQ,Uhembo Community Dispensary,A dispensary in Central Alego ward,NA,NA,,POINT,"[0.123641,34.232597]",,NA,NA,NA,NA
Marenyo Health Centre,Jm2yFzjQT78,13773,XM6wZZeKqhk,Marenyo Health Centre,,NA,NA,,POINT,"[34.55194,0.07641]",,NA,NA,NA,NA
Ulafu Dispensary,TsA9YJvSsDV,20507,zcpKiQgMNyb,Ulafu Dispensary,The facility is in South East Alego,NA,NA,The facility is opeartional,NONE,,,NA,NA,NA,NA
Onding Dispensary,p6QLmTAlmyU,17515,XM6wZZeKqhk,Onding Dispensary,,NA,NA,,POINT,"[34.49949,0.02241]",,NA,NA,NA,NA
Relief Medical Clinic,HtjvpGFpwdN,40601,EmooFdjzKlm,Relief Medical Clinic,opposite post office,NA,NA,offers outpatient services,NONE,,,NA,NA,NA,NA
Nyawara Health Centre,Oy12OVa3NVS,13947,LWXYw2EpuLy,Nyawara Health Centre,,NA,NA,,POINT,"[34.4888,0.09451]",,NA,NA,NA,NA
Malanga Health Centre,LG4e3brI9u7,13760,KzqDLd1CVFQ,Malanga Health Centre,,NA,NA,,POINT,"[34.44843,0.11703]",,NA,NA,NA,NA
Kapiyo Health Centre,nw9YVA9Tx6R,13655,uid3Vo2PCsW,Kapiyo health centre,level 3 facility in maranda,NA,NA,functional facility,POINT,"[34.17491,-0.08601]",,NA,NA,NA,NA
Boro Dispensary,xHviPII2Tc3,13513,fpnhZCEZEGQ,Boro Dispensary,,NA,NA,,POINT,"[34.23423,0.08843]",,NA,NA,NA,NA
Kadenge Ratuoro Health Centre,iAuQRWVoRpK,13641,fpnhZCEZEGQ,Kadenge Ratuoro HC,,NA,NA,,POINT,"[34.17477,0.02373]",,NA,NA,NA,NA
Mulaha Dispensary,swdibQaVyEC,13834,bcaDvBIDj6b,Mulaha Dispensary,,NA,NA,,POINT,"[34.15618,0.02967]",,NA,NA,NA,NA
Mwamanga Dispensary,L52Kwplbv87,,ByAmsolBen5,Mwamanga Dispensary,Dispensary,NA,NA,Operational,NONE,,,NA,NA,NA,NA
Kogelo Dispensary,XZwiXe6lGnE,13710,hMo6PZnvQqb,Kogelo Dispensary,,NA,NA,,POINT,"[34.3448,0.00716]",,NA,NA,NA,NA
Benga Dispensary,YjzBFHmaVTv,16786,utYTK2xBC3k,Benga Dispensary,,NA,NA,,POINT,"[34.12491,0.09518]",,NA,NA,NA,NA
Umala Dispensary,EqMPdPE7rOm,16791,hMo6PZnvQqb,Umala Dispensary,,NA,NA,,POINT,"[34.3424,0.03286]",,NA,NA,NA,NA
Ndere Health Centre,BTkvpaSEq55,13840,KzqDLd1CVFQ,Ndere Health Centre,,NA,NA,,POINT,"[34.38299,0.13766]",,NA,NA,NA,NA
Nduru Dispensary,GBhUzlGBAgx,16787,hMo6PZnvQqb,Nduru Dispensary,,NA,NA,,POINT,"[34.36116,0.0106]",,NA,NA,NA,NA
Mbaga Health Centre,HG5fUsbdzk6,13797,zcpKiQgMNyb,Mbaga Health Centre,,NA,NA,,POINT,"[34.27626,0.08298]",,NA,NA,NA,NA
Bama Hospital,kZP86ulsOJr,13493,bcaDvBIDj6b,Bama Hospital,,NA,NA,,POINT,"[34.29407,0.05668]",,NA,NA,NA,NA
GOK Prison Siaya,gayIyTyhzca,18264,bcaDvBIDj6b,GOK Prison Siaya,,NA,NA,,POINT,"[34.28706,0.05147]",,NA,NA,NA,NA
Siaya County Referral Hospital,b3yukBxVi1J,14080,bcaDvBIDj6b,Siaya County Referral Hospital,"In Siaya Town, along Siaya Ugunja road",NA,NA,,POINT,"[34.2839,0.06313]",,NA,NA,NA,NA
Kaluo Dispensary,SaC88wqvxMt,13648,zcpKiQgMNyb,Kaluo Dispensary,,NA,NA,,POINT,"[34.33441,0.11195]",,NA,NA,NA,NA
Jamii Clinical Service,drgqgyi497v,14115,bcaDvBIDj6b,Jamii Clinical Service,In Siaya Town within ACK compound,NA,NA,,POINT,"[34.28555,0.06048]",,NA,NA,NA,NA
Paula Nursing Home,cboaO7vmAZg,16419,bcaDvBIDj6b,Paula Nursing Home,,NA,NA,,POINT,"[34.28883,0.05291]",,NA,NA,NA,NA
Rejoice Medical Clinic,e5BVJo58Fqu,18927,hTylTMl1aid,Rejoice Medical clinic,OFF MAJENGO-LUSIOLA MARKET,NA,NA,,POINT,"[34.69858,0.01765]",,NA,NA,NA,NA
St Elizabeth Lwak Mission Health Centre,PvuLFowO5Cs,13739,kazFsB6YZ6J,St. Elizabeth Lwak Missio,,NA,NA,,POINT,"[34.35,-0.13]",,NA,NA,NA,NA
Port Florence Clinic,LWizhuTSIhC,18774,bcaDvBIDj6b,Port Florence Clinic,Within Siaya Town Near Mwisho Hotel,NA,NA,,POINT,"[34.29105,0.05627]",,NA,NA,NA,NA
Ashburn Ohuru Dispensary,GqpnFjeQXTM,17524,hMo6PZnvQqb,Ashburn Ohuru Dispensary,,NA,NA,,NONE,,,NA,NA,NA,NA
Rangala Health Centre,ytVjSxVQbQ2,14033,rngZkqTBd03,Rangala Health Centre,,NA,NA,,POINT,"[34.33179,0.15529]",,NA,NA,NA,NA
Randago Dispensary,tKxiY0VjNrr,17521,hMo6PZnvQqb,Randago Dispensary,,NA,NA,,POINT,"[34.29287,0.01429]",,NA,NA,NA,NA
St Paul Dispensary,Xac1eOb2dTq,14123,pHKNjOmIqg4,St Paul Dispensary,,NA,NA,,POINT,"[34.29315,0.16325]",,NA,NA,NA,NA
Abidha Health Centre,SlmxDUIybki,13461,cfUqqHJA6z4,Abidha Health Centre,,NA,NA,,POINT,"[34.41064,-0.15902]",,NA,NA,NA,NA
Pap Oriang' Dispensary,CF5rXY2iwya,,hMo6PZnvQqb,Pap Oriang' Dispensary,,NA,NA,,NONE,,,NA,NA,NA,NA
Bar Olengo Dispensary,sK3DDy5tVCy,13499,hMo6PZnvQqb,Bar Olengo Dispensary,,NA,NA,,POINT,"[34.21078,0.01515]",,NA,NA,NA,NA
Nyambare Health Centre,q0HFYe46rHe,13904,utYTK2xBC3k,Nyambare Health Centre,,NA,NA,,POINT,"[34.10204,0.13342]",,NA,NA,NA,NA
Sikalame Dispensary,BvSVueanUP2,14087,rngZkqTBd03,Sikalame Dispensary,,NA,NA,,POINT,"[34.4051,0.16876]",,NA,NA,NA,NA
Banja Health Centre,oYc9S0YvbLH,15805,r6KB3hMzaXh,Banja Health Centre,,NA,NA,,POINT,"[34.8298,0.04438]",,NA,NA,NA,NA
Sigomere Health Centre,z4pEZ9GMUj7,14085,WrmJKkvfjDl,Sigomre Health Centre,,NA,NA,,POINT,"[34.3645,0.1963]",,NA,NA,NA,NA
Kagwa Health Centre,T9MIrcv0VeS,13644,IqPuAjRYM1t,Kagwa Health Centre,,NA,NA,,POINT,"[34.25665,-0.22851]",,NA,NA,NA,NA
Reach-out Centre Trust,o3BEH7zeg8y,,ByAmsolBen5,Reach-out Centre Trust,,NA,NA,,NONE,,,NA,NA,NA,NA
Tingare Dispensary,n8Ox0LYd7Di,14147,WrmJKkvfjDl,Tingare Dispensary,,NA,NA,,POINT,"[34.3857,0.2588]",,NA,NA,NA,NA
Nadanya Dispensary,gkuMI9M275m,16060,QbCSvi9H3CN,Nadanya Dispensary,,NA,NA,,POINT,"[34.68,0.1]",,NA,NA,NA,NA
Bar Aluru Dispensary (Rarieda),yonouRgu7l7,13497,kazFsB6YZ6J,Bar Aluru Dispensary,,NA,NA,,POINT,"[34.3383,-0.11998]",,NA,NA,NA,NA
Kibigori Dispensary,SXegfern6PF,13687,FFfi4zTqdH2,Kibigori Dispensary,,NA,NA,,POINT,"[35.18199,-0.03911]",,NA,NA,NA,NA
Bwiti Dispensary,A0Ln8q092qB,17894,oJkRlx56eac,Bwiti  Dispensary,Dispensary,NA,NA,,NONE,,,NA,NA,NA,NA
Manyuanda Sub County Refferal Hospital,gzocEzWT73W,13770,ulkhuNyw2MH,Manyuanda Sub County Refferal Hospital,,NA,NA,,POINT,"[34.46953,-0.14141]",,NA,NA,NA,NA
Ukwala Sub County Hospital,izw2qiqKFYI,14156,AxesNVgsvhq,Ukwala Sub County Hospital,,NA,NA,,POINT,"[34.18806,0.1931]",,NA,NA,NA,NA
Bodi Health Centre,gYaEWAxDwbL,13503,o6cVZ72goEk,Bodi Health Centre,,NA,NA,,POINT,"[34.51242,-0.16328]",,NA,NA,NA,NA
Ebusyubi Dispensary,QiAHGmf0031,15867,gvz1kfj99I3,Ebusyubi Dispensary,,NA,NA,,POINT,"[34.55698,0.00968]",,NA,NA,NA,NA
Children's Support Centre Emurembe,CIuooXol8YE,18329,AgnY1dRfILu,Emurembe Children Support,,NA,NA,,POINT,"[34.67416,0.10508]",,NA,NA,NA,NA
Ebukoolo Dispensary,EG1SVurEMgh,17113,HxODkmO42Nw,Ebukoolo Dispensary,,NA,NA,,POINT,"[34.56529,0.07111]",,NA,NA,NA,NA
Junction Medical Clinic,PYpFtijsCdO,16450,NHcPsj2IMSr,Junction Medical Clinic,,NA,NA,,POINT,"[34.7328,0.1152]",,NA,NA,NA,NA
Alliance Clinic,lBSKqMNnHEz,15794,NHcPsj2IMSr,Alliance Clinic,,NA,NA,,POINT,"[34.73399,0.11834]",,NA,NA,NA,NA
Ipali Health Centre,Xm3UkkgGu65,15904,HxODkmO42Nw,Ipali Health Centre,,NA,NA,,POINT,"[34.58067,0.0505]",,NA,NA,NA,NA
Mwichio Amua Medical Clinic,w5kcCzrN24S,16057,rF4SKTlT0XH,Mwichio Amua MC,,NA,NA,,POINT,"[34.60972,0.07349]",,NA,NA,NA,NA
Kapchemwani Dispensary,FQYIEOl4hmM,15921,d7jBlFuDPt7,Kapchemwani Dispensary,,NA,NA,,POINT,"[34.76278,0.03782]",,NA,NA,NA,NA
Bay Way Medical Clinic,gGWCryggS8Z,15806,P35Hsu3jEza,Bay Way Medical Clinic,,NA,NA,,POINT,"[34.56958,0.00125]",,NA,NA,NA,NA
Gram's Medical Clinic,YwNNF2PBc5H,20946,ZD3ThdrdoTN,Gram's Medical Clinic,Situated along Kisumu Busia Road within Luanda Town,NA,NA,,NONE,,,NA,NA,NA,NA
Mummy's Medical Clinic,k2WPRyAHIXH,16039,P35Hsu3jEza,Mummy's Medical Clinic,,NA,NA,,POINT,"[34.57765,0.01913]",,NA,NA,NA,NA
Luanda Town Dispensary,qIGDrvFNv3H,15963,ZD3ThdrdoTN,Luanda Town Dispensary,,NA,NA,A new CDF constructed health facility gazetted the year 2010 and became operational in may 2012,POINT,"[34.58669,0.02453]",,NA,NA,NA,NA
Chamakanga Mission,wEWIMLj1i9i,15845,cUBWuuQYISs,Chamakanga Mission,,NA,NA,,POINT,"[34.79545,0.14687]",,NA,NA,NA,NA
Christian Partners Development Agency VCT,Q3Yk9ysG1Zp,18270,NHcPsj2IMSr,CPDA,,NA,NA,,POINT,"[34.73582,0.12105]",,NA,NA,NA,NA
Mamba Community Dispensary,MRQeZtlocOi,,lijbuerznbA,Mamba Dispensary,,NA,NA,,POINT,"[39.24374,-4.45923]",,NA,NA,NA,NA
Mbale Rural Health Training Centre,DbCCiO4AXdh,16012,af8ohZ5YbyQ,Mbale Rural Health Traini,SITUATED OPPOSITE MUNG'OMA CHEMIST,NA,NA,,POINT,"[34.72189,0.08033]",,NA,NA,NA,NA
Mbale Specialist Health Centre,CG9vm2LJPIR,21106,af8ohZ5YbyQ,Mbale Specialist Health Centre,Located at Cherry House in Mbale Town Vihiga Sub-County Near NHIF Office.,NA,NA,,POINT,"[34.72164,0.08078]",,NA,NA,NA,NA
Esitsaba Dispensary,Av2bHzt2Sqw,15887,rVwUPDEkBSy,Esitsaba Dispensary,,NA,NA,,POINT,"[34.61374,0.00975]",,NA,NA,NA,NA
Green Valley Clinic,VJrq2ZoA12x,18740,HxODkmO42Nw,Green Valley Clinic,,NA,NA,,POINT,"[34.5803,0.05]",,NA,NA,NA,NA
Bodo Medical Clinic,QAsALhw98vK,20726,VGENlt3MTt7,Bodo Medical Clinic,,NA,NA,,POINT,"[39.41154,-4.54650]",,NA,NA,NA,NA
Mainga Dispensary,DsOK1u3aO6G,21208,DP7qvMiw5Du,Mainga Dispensary,,NA,NA,,POINT,"[34.67130,-0.04727]",,NA,NA,NA,NA
Mbaleway Side Clinic,smevdO8k4H9,16013,af8ohZ5YbyQ,Mbaleway Side Clinic,Off Equity Bank,NA,NA,,POINT,"[34.72021,0.07966]",,NA,NA,NA,NA
Uradi Health Centre,ER9BOdawZcT,17183,zaHyyp9lXME,Uradi Health Centre,,NA,NA,,POINT,"[34.15762,0.12156]",,NA,NA,NA,NA
Alpha Medical Agency,hNDKFPKWYOa,19880,NHcPsj2IMSr,Alpha Medical Agency,,NA,NA,,POINT,"[34.72601,0.11621]",,NA,NA,NA,NA
Jasho Medical Clinic,JnOJFkOE4Ly,16448,af8ohZ5YbyQ,Jasho medical clinic,off mbale mkt kk road,NA,NA,under new management,POINT,"[34.7192,0.0795]",,NA,NA,NA,NA
Disciples of Mercy Clinic,H2T8SxOU1zP,13534,xyzeTkTa8o7,Disciples of Mercy Clinic,,NA,NA,,POINT,"[34.80129,-0.05596]",,NA,NA,NA,NA
Rehema VCT Centre,UHTP0OylQIe,16461,iphxMgFUJmE,Rehema VCT Centre,,NA,NA,,POINT,"[34.8596,0.12859]",,NA,NA,NA,NA
Pap Kodero Health Centre,ybNHUZ8G4xz,14013,c8htRsEJD2W,Pap Kodero Health Centre,,NA,NA,,POINT,"[34.32236,0.24657]",,NA,NA,NA,NA
Lieta Health Centre (Rarieda),ZFly5uT5UHQ,17439,VlWsveTXbi3,Lieta  Health Centre,,NA,NA,,POINT,"[34.32313,-0.28374]",,NA,NA,NA,NA
Lumumba  Sub-County Hospital,qa07L6R8UeS,13738,UqLylL8NY0G,Lumumba  Sub-County Hospital,Sub County Hospital,NA,NA,,POINT,"[34.76599,-0.09968]",,NA,NA,NA,NA
Korwenje Dispensary,j6QLHcTeO6f,13720,b2DzrddWnYN,Korwenje Dispensary,,NA,NA,,POINT,"[34.49191,-0.04739]",,NA,NA,NA,NA
Lwala Kadawa Dispensary,lkn5DPoeGjs,17174,DP7qvMiw5Du,Lwala Kadawa Dispensary,,NA,NA,,POINT,"[34.62185,-0.08013]",,NA,NA,NA,NA
Meridian Medical Clinic,YADJJGFW7pT,20957,wTeTHBlXnQj,Meridian Medical Clinic,,NA,NA,,POINT,"[34.75332,-0.10462]",,NA,NA,NA,NA
Rae Dispensary,AqD7UCCUGCh,14024,G2B9ridstXR,Rae Dispensary,,NA,NA,,POINT,"[34.95691,-0.2382]",,NA,NA,NA,NA
Opapla Dispensary,zeG49V2oKJ1,13990,ulkhuNyw2MH,Opapla Dispensary,,NA,NA,,POINT,"[34.41908,-0.09656]",,NA,NA,NA,NA
Riat Dispensary,RuEWpmWUmCM,14046,DP7qvMiw5Du,Riat Disp (Kisumu West),,NA,NA,,POINT,"[34.66381,-0.02097]",,NA,NA,NA,NA
Mkongani Dispensary,THNDq8DTAhT,11629,rzPzDuVVuqw,Mkongani Dispensary,,NA,NA,,POINT,"[39.26751,-4.29084]",,NA,NA,NA,NA
Mwapala Dispensary,nG7ntzMdobM,11693,dQkHuP0kVjq,Mwapala Dispensary,,NA,NA,,POINT,"[39.4527,-4.34027]",,NA,NA,NA,NA
Waa Dispensary,O6vTdQ8hQL1,11888,XZNJ3zaiaZH,Waa Dispensary,,NA,NA,,POINT,"[39.60243,-4.17348]",,NA,NA,NA,NA
Oboch Dispensary,sxMelmjaLmt,13955,oTl0WEQrKtX,Oboch Dispensary,,NA,NA,,POINT,"[34.93802,-0.38896]",,NA,NA,NA,NA
Kwale District Hospital,gbQw8OQtjpj,11507,HLbG24kuSHF,Kwale District Hospital,,NA,NA,,POINT,"[39.45515,-4.1753]",,NA,NA,NA,NA
Kopiata Beach Dispensary (Rarieda),i6CeX6jJX7A,18050,c8htRsEJD2W,Kopiata Beach Dispensary,,NA,NA,,POINT,,,NA,NA,NA,NA
Kibogo Dispensary,tWQw1jmjWO4,13688,G2B9ridstXR,Kibogo Dispensary,,NA,NA,,POINT,"[34.89,-0.35]",,NA,NA,NA,NA
Orongo Dispensary,Aa4MetEuYbi,21047,kQXcKGM8chb,Orongo Dispensary,,NA,NA,,NONE,,,NA,NA,NA,NA
Hope Clinic,UzbF2v7jzcW,,JBSYO3skSW5,Hope Clinic,FBO Facility,NA,NA,This is a Faith Based clinic,NONE,,,NA,NA,NA,NA
Owens Nursing Home,GLrTuOOsFej,14006,EmooFdjzKlm,Owens Nursing Home,IN MARANDA DIVISION,NA,NA,CAPTURE THE TOWN CENTRE POP,POINT,"[34.2696,-0.10985]",,NA,NA,NA,NA
Nduru Kadero Dispensary,VNthlMGjt7T,13848,b2DzrddWnYN,Nduru Kadero Dispensary,,NA,NA,,POINT,"[34.46748,-0.06836]",,NA,NA,NA,NA
Ojola Dispensary,xSUP8uKu35W,13971,hAzpUozlCyI,Ojola Dispensary,,NA,NA,,POINT,"[34.64551,-0.06627]",,NA,NA,NA,NA
Miwani Dispensary,Z5NeINoTgxS,13816,PoYQc8biHf3,Miwani Dispensary,,NA,NA,,POINT,"[34.97964,-0.05023]",,NA,NA,NA,NA
Ekwanda Health Centre,KvcLdBE3Qar,15870,P35Hsu3jEza,Ekwanda Health Centre,,NA,NA,,POINT,"[34.57131,0.01411]",,NA,NA,NA,NA
Kima Mission Hospital,OwA3FdxjmkQ,15946,rVwUPDEkBSy,Kima Mission Hospital,,NA,NA,,POINT,"[34.6237,0.0261]",,NA,NA,NA,NA
Akala Health Centre,ngzYEraCr33,13471,F3o4X4OBHKw,Akala Health Centre,,NA,NA,,POINT,"[34.42139,0.05961]",,NA,NA,NA,NA
Tumaini Dice Dispensary,xyaGAI5y5BB,20523,wTeTHBlXnQj,Tumaini Dice,Non Governmental Organization Drop in Centre for Key Populations,NA,NA,,NONE,,,NA,NA,NA,NA
Ebusiratsi Health Centre,t8pVCEXnij3,15866,AgnY1dRfILu,Ebusiratsi Health Centre,,NA,NA,,POINT,"[34.63435,0.07941]",,NA,NA,NA,NA
Givudimbuli Health Centre,LeATvvxVKcP,15889,RaGcUBct8yg,Givudimbuli Health Centre,,NA,NA,,POINT,"[34.7807,0.08814]",,NA,NA,NA,NA
Inyali Dispensary,rI8R5Xp4mez,15903,m9cV82YWKBf,Inyali Dispensary,,NA,NA,,POINT,"[34.75611,0.08883]",,NA,NA,NA,NA
Kizibe Dispensary,b9PRSKsPyq0,11495,rzPzDuVVuqw,Kizibe Disp,,NA,NA,,POINT,"[39.30133,-4.25582]",,NA,NA,NA,NA
Vyongwani Dispensary,khbVI9AHqV9,11887,HLbG24kuSHF,Vyongwani Dispensary,,NA,NA,,POINT,"[39.4883,-4.15284]",,NA,NA,NA,NA
Mbuguni Dispensary,UpSJbkTCmSw,11590,HLbG24kuSHF,Mbuguni Disp,,NA,NA,,POINT,"[39.55489,-4.10839]",,NA,NA,NA,NA
Usoma Dispensary,NwNdyVDgAPq,16664,Xs7PwQOVMmb,Usoma Dispensary,,NA,NA,,POINT,"[34.71978,-0.10381]",,NA,NA,NA,NA
Kisumu County Hospital,uBfCuhllvg3,13704,wTeTHBlXnQj,Kisumu County Hospital,located within Winam Division. GOK,NA,NA,situated within Kisumu City next to Jomo Kenyatta sports groud,POINT,"[34.756,-0.10181]",,NA,NA,NA,NA
Vihiga County Referral Hosptial,ZJARL7Ml1Hp,16157,af8ohZ5YbyQ,Vihiga CRH,NEAR GOVERNORS OFFICE,NA,NA,,POINT,"[34.72208,0.07981]",,NA,NA,NA,NA
Future Life Dispensary,NhqbIqtewwY,17522,bcaDvBIDj6b,Future Life Dispensary,,NA,NA,We care for your life,POINT,"[34.287,0.03721]",,NA,NA,NA,NA
Rota Dispensary,E5fkFJ09xpE,14060,hAzpUozlCyI,Rota Dispensary,,NA,NA,,POINT,"[34.6749,-0.09282]",,NA,NA,NA,NA
Stops Medical Clinic Kenya Ltd,RVZASnfRiVR,17700,pOsTvaq49pN,Stops Medical Clinic,,NA,NA,,POINT,"[34.77473,-0.08295]",,NA,NA,NA,NA
Efombo Med Clinic,tSo2tc47JnU,,XZNJ3zaiaZH,Efombo,Private clinic located in Kombani,NA,NA,operational,NONE,,,NA,NA,NA,NA
LVCT Health -Kisumu,h8pJQvffN71,16662,wTeTHBlXnQj,LVCT Health-Kisumu,,NA,NA,,POINT,"[34.7632,-0.09962]",,NA,NA,NA,NA
Mbegani Disp,Sv2N7LtmPBa,,rzPzDuVVuqw,Mbegani Disp,,NA,NA,,NONE,,,NA,NA,NA,NA
Mwer Dispensary,R9fTJQSUjAc,16788,zaHyyp9lXME,Mwer Dispensary,,NA,NA,,POINT,"[34.1864,0.10804]",,NA,NA,NA,NA
Mkanyeni,Apuzt6X31WX,21257,aom47Uzq1RZ,Mkanyeni,,NA,NA,,NONE,,,NA,NA,NA,NA
Lutsangani Dispensary,mWfiQXewlzK,11527,PrGoCfZ06gm,Lutsangani Dispensary,,NA,NA,,POINT,"[39.51361,-4.06412]",,NA,NA,NA,NA
St Joseph Maledi Clinic,w9pOxZ2aMK1,16550,PBhYjIVYdhk,St Joseph Maledi Clinic,,NA,NA,,POINT,"[39.12749,-4.44943]",,NA,NA,NA,NA
Ndeda Dispensary,kIkn9YIz4Qj,13839,JVz0J1MJJ0V,Ndeda island Dispensary,Island in nyangoma Division,NA,NA,pop confined in the Island.No boat for the facility. most people are fishermen.,POINT,,,NA,NA,NA,NA
Mnyenzeni Dispensary,bplF50Sazvt,11638,aom47Uzq1RZ,Mnyenzeni Dispensary,"Just one kilometre away, west of the Kinango -Mazeras high way",NA,NA,It currently termed as A Model Health Centre for Kinango Sub County But be informed that it is not fully operating as intended due to some factors though the structure is ready.,POINT,"[39.4868,-3.98765]",,NA,NA,NA,NA
Asayi Dispensary,uYsMyJiKEjP,16783,KzqDLd1CVFQ,Asayi Dispensary,,NA,NA,,POINT,"[34.37246,0.1176]",,NA,NA,NA,NA
Ogam Dispensary,JRvC1h1WCBh,13961,bxQkw99jktF,Ogam Dispensary,IN USIGU DIVISION,NA,NA,NEAREST TOWN-NYAMONYE,POINT,"[34.12472,-0.02632]",,NA,NA,NA,NA
Usigu Health Centre,Iya3kdsvW1A,14164,bxQkw99jktF,Usigu Health Center,in Usigu Division,NA,NA,the center of excellence for Bondo Costituency,POINT,"[34.0994,-0.0568]",,NA,NA,NA,NA
Ramula Health Centre,I12ueCqFUQG,14030,XM6wZZeKqhk,Ramula Health Centre,,NA,NA,,POINT,"[34.52851,0.00116]",,NA,NA,NA,NA
Nyenye Misori Dispensary,dSXVo1RmpPp,13948,NYqz8G2gfEC,Nyenye Misori Dispensary,NEAR UHANYA BEACH IN USIGU DIVISION,NA,NA,NEAREST TOWN-USENGE,POINT,"[34.06874,-0.10144]",,NA,NA,NA,NA
Bondo Medical Clinic,v8yY4OQYPJg,13508,EmooFdjzKlm,Bondo Medical clinic,clinic in bondo town maranda division,NA,NA,fully functional clinic,POINT,"[34.27539,-0.0983]",,NA,NA,NA,NA
Gobei Health Centre,APRSsUJAVrP,13581,EmooFdjzKlm,Gobei Health Center,"level 3 facilty in maranda division. By the road Bondo to Kisumu road,just 6 kms from Bondo Town.",NA,NA,"NEAREST MKT-AJIGO
TOWN-BONDO
ID 6498385",POINT,"[34.2905,-0.09021]",,NA,NA,NA,NA
Aro (SDA) Dispensary,P145FMfaGsd,13485,EmooFdjzKlm,Aro (SDA) Dispensary,FBO facility in maranda division,NA,NA,,POINT,"[34.35579,-0.06953]",,NA,NA,NA,NA
Ubuntu Afya Ninalakeside clinic,SvdFDb72jP5,20926,JVz0J1MJJ0V,Ninalakeside clinic,Medical clinic located warianda beach from Nango centre(Uyawi H/Centre),NA,NA,Has been operating a waiting registration,POINT,"[34.16296,0.13567]",,NA,NA,NA,NA
Ouya Dispensary,xHrYMm0ZsQu,14005,CRBP2g6KqWH,Ouya Dispensary,IN NYANGOMA DIVISION,NA,NA,HAS VERY POOR ROAD NETWORK,POINT,"[34.24527,-0.18844]",,NA,NA,NA,NA
Inuka Hospital & Maternity Home,NJ9UDodbyoQ,13618,KzqDLd1CVFQ,Inuka Hospital & MH,,NA,NA,,POINT,"[34.3982,0.14441]",,NA,NA,NA,NA
Barding Dispensary,jetCZf5Uzd1,18396,hMo6PZnvQqb,Barding Dispensary,,NA,NA,,POINT,"[34.32742,0.01281]",,NA,NA,NA,NA
Yoef Medical Clinic,Kwetuny3zhF,,It7fWcKbcZX,Yoef Medical Clinic,,NA,NA,,NONE,,,NA,NA,NA,NA
Mwachinga Dispensary,nKyBwCMaG1X,11682,PrGoCfZ06gm,Mwachinga Dispensary,,NA,NA,,POINT,"[39.42356,-4.12867]",,NA,NA,NA,NA
Bongu Konyango Dispensary,x6bSboDXpcN,22192,b2DzrddWnYN,Bongu Konyango Dispensary,Located in west katieno sublocation kogundo village about 4km from Bar korwa market.,NA,NA,,NONE,,,NA,NA,NA,NA
Nehemiah International Dispensary,wIWRfw6LO4y,18338,PoYQc8biHf3,Nehemiah International Di,,NA,NA,,POINT,"[34.90291,-0.04807]",,NA,NA,NA,NA
Agro Chemical,F0qhs0a31FJ,19815,cyChGO6tdNS,Agro Chemical,,NA,NA,,POINT,,,NA,NA,NA,NA
Jaber Dispensary,UIqndsbcvdK,20503,cyChGO6tdNS,Jaber Dispensary,,NA,NA,,POINT,,,NA,NA,NA,NA
Nyakunguru Dispensary,dhvsEE9CCU6,20500,FFfi4zTqdH2,Nyakunguru Dispensary,,NA,NA,,POINT,,,NA,NA,NA,NA
Yago Community Dispensary,WDmkMU9agIF,20334,WzjCQ2bnOk7,Yago Community Dispensary,,NA,NA,,POINT,"[35.17883,-0.08017]",,NA,NA,NA,NA
Koru Dispensary,uY2xlbkbeVL,17110,cyChGO6tdNS,Koru Dispensary,,NA,NA,,POINT,"[35.26685,-0.1807]",,NA,NA,NA,NA
Kandege Health Center,E8uyiuF3BqN,13652,cyChGO6tdNS,Kandege Health Center,,NA,NA,,POINT,"[35.3071,-0.21452]",,NA,NA,NA,NA
Obumba Dispensary,sjhSrlzV4w6,13956,PoYQc8biHf3,Obumba Dispensary,,NA,NA,,POINT,"[34.90175,-0.09184]",,NA,NA,NA,NA
Jemojeji Dispensary,lhkL7lSLsIo,17673,r6KB3hMzaXh,Jemojeji Dispensary,Kapsotik-Hamisi road near St. Veronica Girls,NA,NA,Level 2,NONE,"[34.8463777,0.075068]",,NA,NA,NA,NA
Mazeras Dispensary,pnHduTXb4hB,11585,aom47Uzq1RZ,Mazeras Dispensary,,NA,NA,,POINT,"[39.5453,-3.96724]",,NA,NA,NA,NA
Got Nyabondo Dispensary,FxwJAofV4uL,13591,xyzeTkTa8o7,Got Nyabondo Dispensary,,NA,NA,,POINT,"[34.80427,-0.00573]",,NA,NA,NA,NA
Bar Korwa Health Centre,lq9mb305HDu,13498,b2DzrddWnYN,Bar Korwa Health Centre,,NA,NA,,POINT,"[34.51293,-0.06878]",,NA,NA,NA,NA
Interfelk Medical Center,kmH06yhQkCU,,yz3WGD5x3v2,Interfelk Medical Center,Private Medical Facility owned by an NGO,NA,NA,,POINT,"[-0.11816,34.76111]",,NA,NA,NA,NA
Dago kokore,Al6DGyCfZfo,22806,SPH4pigpmjD,Dago,,NA,NA,,NONE,"[34.73952,-00.03285]",,NA,NA,NA,NA
Malombe Dispensary,lFDwFBdhXi9,22783,USg05TR1JwK,Malombe Dispensary,Gambogi-Serem road-Jebrok market-Malombe dispensary,NA,NA,OPD services,NONE,"[34.73188,0.020001]",,NA,NA,NA,NA
Kinondo Kwetu Community Dispensary,wEmj5Y6nGNJ,16547,pOKIONEzUyF,Kinondo Kwetu Community,,NA,NA,,POINT,"[39.31632,-4.22519]",,NA,NA,NA,NA
Oriang Alwala Dispensary,Btt2n49zIB0,18086,ulkhuNyw2MH,Oriang Alwala Dispensary,,NA,NA,11 Kms from the district offices,POINT,"[34.48159,-0.14491]",,NA,NA,NA,NA
Asat Beach Dispensary,GiQGODA5NZB,13487,ulkhuNyw2MH,Asat Beach Dispensary,,NA,NA,,POINT,"[34.51846,-0.18267]",,NA,NA,NA,NA
Bethany Dispensary,uWZStRB5zxs,,XZNJ3zaiaZH,Bethany Dispensary,FBO Facility,NA,NA,Faith Based clinic,NONE,,,NA,NA,NA,NA
Joint Partner Medical Clinic,QMHy1WuUYtI,16455,iphxMgFUJmE,Joint Partner Medical Clinic,,NA,NA,,POINT,"[34.8809,0.14149]",,NA,NA,NA,NA
Siaya County  Beyond Zero Mobile Clinic,JdG77mrMlNl,21021,bcaDvBIDj6b,Siaya County Beyond Zero Moble Clinic,Mobile clinic Covering the entire County,NA,NA,,NONE,,,NA,NA,NA,NA
Siaya Medical Centre,Fv8YzhiTel7,14081,bcaDvBIDj6b,Siaya Medical Centre,,NA,NA,,POINT,"[34.28735,0.06702]",,NA,NA,NA,NA
Siwadhe Clinic,UWdI1Tzf9nR,17536,bcaDvBIDj6b,Siwadhe Clinic,,NA,NA,We care for your life,POINT,"[34.18147,0.0742]",,NA,NA,NA,NA
Got Koyembe Dispensary,QPZ9f0CtO2r,21792,hMo6PZnvQqb,Got Koyembe Dispensary,,NA,NA,,POINT,"[34.294139,0.060448]",,NA,NA,NA,NA
Boyani Dispensary,Yk6aPsR7nng,15809,pyG6e1Uq18m,Boyani Dispensary,,NA,NA,,POINT,"[34.73471,-0.01333]",,NA,NA,NA,NA
Tumaini Dice,EVGtiyRCiFL,22564,FFfi4zTqdH2,Tumaini Dice,,NA,NA,,NONE,,,NA,NA,NA,NA
Kibuyuni Dispensary,OR9keyneDae,11466,dQkHuP0kVjq,Kibuyuni Disp,,NA,NA,,POINT,"[39.30996,-4.39597]",,NA,NA,NA,NA
Mnara Dispensary,U5xbK4LZeYP,13817,cyChGO6tdNS,Mnara Dispensary,,NA,NA,,POINT,"[35.23274,-0.16969]",,NA,NA,NA,NA
Godo Dispensary,qBmMdCCXus8,11400,PBhYjIVYdhk,Godo Dispensary,,NA,NA,,POINT,"[39.02958,-4.52498]",,NA,NA,NA,NA
Mwanda Dispensary,QKJ6fVUHJhT,11687,vjeHNVWOsRk,Mwanda Dispensary,,NA,NA,,POINT,"[39.4334,-3.88865]",,NA,NA,NA,NA
Bondo District Hospital,Z6fKUbscAbZ,13507,uid3Vo2PCsW,BDH,level 4 facility in Maranda division. Is the Sub County reffaral Hospital,NA,NA,Fully functional.this is the refferal hospital for the sub county,POINT,"[34.2745,-0.09021]",,NA,NA,NA,NA
Got Winyo,dflOe2CKktL,21515,uid3Vo2PCsW,Got Winyo,"Is a dispensary along the boarder ,near river Yala.This is boundary between Alego Usonga and Bondo Sub Counties.",NA,NA,operate with only one nurse.operate only day time.,NONE,,,NA,NA,NA,NA
Bondo University Clinic,gJMpRxcAgyi,18097,EmooFdjzKlm,uni,clinic within university,NA,NA,functional clinic,POINT,"[34.25786,-0.0938]",,NA,NA,NA,NA
Kibuye Dispensary,sMXVcxekNFj,21516,EmooFdjzKlm,Kibuye,is a dispensary with only out patient services,NA,NA,,NONE,,,NA,NA,NA,NA
Cherwa Dispensary,i687P6dSq5L,20240,G2B9ridstXR,Cherwa Dispensary,,NA,NA,,POINT,,,NA,NA,NA,NA
Kisumu International Airport Dispensary,iNygDluopLE,17553,Xs7PwQOVMmb,Kisumu Int Airport Disp,,NA,NA,,POINT,"[34.72832,-0.08225]",,NA,NA,NA,NA
Nyalunya Dispensary,bSJkg11sPh7,13890,ml7KNIMIuvz,Nyalunya Dispensary,,NA,NA,,POINT,"[34.80916,-0.11746]",,NA,NA,NA,NA
Kasongo Dispensary,D1sNaKhXlyS,16282,cnOFVqKDVEi,Kasongo Dispensary,,NA,NA,,POINT,"[35.1999,-0.16046]",,NA,NA,NA,NA
Nyabola CDF Dispensary,jzLxTVPy6wv,18865,go41UxgIdh5,Nyabola CDF dispensary,,NA,NA,,POINT,"[34.90544,-0.33879]",,NA,NA,NA,NA
Nyangore Dispensary,Wo1VJV9cbON,20501,WzjCQ2bnOk7,Nyangore Dispensary,,NA,NA,,POINT,,,NA,NA,NA,NA
Migosi Sub County Hospital,zZdbrp6Tyiv,13807,oz6zXuKWiR9,Migosi Sub County Hospital,Facility upgraded from Health Center to Sub County Hospital,NA,NA,,POINT,"[34.78327,-0.07607]",,NA,NA,NA,NA
Ogra Health Centre,Q5GF0n7TnBZ,13968,cnOFVqKDVEi,Ogra Health Centre,,NA,NA,,POINT,"[34.95048,-0.11154]",,NA,NA,NA,NA
Taru Dispensary,hVc9GNgGPYF,11838,wfUbX2QagwS,Taru Dispensary,,NA,NA,,POINT,"[39.14233,-3.75404]",,NA,NA,NA,NA
St Luke's Hospital,NCtsWIAR0An,14117,wTeTHBlXnQj,St Luke's Hospital,,NA,NA,,POINT,"[34.76167,-0.10616]",,NA,NA,NA,NA
Kochieng' Dispensary,OwzGpKsWOqi,21795,fpnhZCEZEGQ,Kochieng' Dispensary,In Central Alego ward near Segere Market,NA,NA,operational,NONE,,,NA,NA,NA,NA
Jalsonga Clinic,xuLm7orKCop,,bcaDvBIDj6b,Jalsonga Clinic,Within Siaya Township near KNUT buildinding,NA,NA,,POINT,"[34.28486,0.06086]",,NA,NA,NA,NA
Bugamangi Dispensary,LFwsHgAoh20,15814,W1gE3uts9Qh,Bugamangi Dispensary,off vihiga police-magui road,NA,NA,OFF VIHIGA POLICE LINE-KIDUNDU ROAD,POINT,"[34.71465,0.06011]",,NA,NA,NA,NA
Asembo Bay Health Clinic (Rarieda),Q2wknvbUAES,18039,cfUqqHJA6z4,Asembo Bay Health Clinic,,NA,NA,,POINT,"[34.38582,-0.1815]",,NA,NA,NA,NA
Nyathengo Dispensary,JndRLlEOlBD,13944,hMo6PZnvQqb,Nyathengo Dispensary,,NA,NA,,POINT,"[34.36196,0.05181]",,NA,NA,NA,NA
Simba Opepo Dispensary,uirOz9L34AZ,14088,xyzeTkTa8o7,Simba Opepo Dispensary,,NA,NA,,POINT,"[34.79305,-0.0475]",,NA,NA,NA,NA
Maseno University(Kisumu Town Campus),BRYBCpe7EWf,20905,wTeTHBlXnQj,Maseno University(Kisumu Town Campus),Stand Alone VCT Center,NA,NA,,POINT,"[34.75231,-0.10749]",,NA,NA,NA,NA
Katito Sub County Hospital,jlWXLaZNtbr,13657,G2B9ridstXR,Katito Sub County Hospital,,NA,NA,,POINT,"[34.97284,-0.26973]",,NA,NA,NA,NA
Uzima Clinic,ID00TFbuIVK,,pHKNjOmIqg4,Uzima Clinic,,NA,NA,,POINT,"[34.30351,0.17243]",,NA,NA,NA,NA
Mahaya Health Centre (Rarieda),t0zCVxe2wkB,13757,kazFsB6YZ6J,Mahaya Health Centre,,NA,NA,,POINT,"[34.34066,-0.16223]",,NA,NA,NA,NA
Equator Nursing and Maternity Home,BFMszIA8Pqk,15880,ZD3ThdrdoTN,Equator Nursing and MH,,NA,NA,,POINT,"[34.5926,0.03427]",,NA,NA,NA,NA
Mama Anns Odede Community Health Centre,CQFAYq3arhb,18912,c8htRsEJD2W,Mama Anns Odede Community  HC,,NA,NA,,POINT,"[34.35437,0.2474]",,NA,NA,NA,NA
Chemelil GOK Health Center,vVYa9Lb6bZ5,13521,WzjCQ2bnOk7,Chemelil GOK  Health Center,,NA,NA,,POINT,"[35.10848,-0.10732]",,NA,NA,NA,NA
Wagoro Dispensary (Rarieda),SWsrrwl19XQ,17438,IqPuAjRYM1t,Wagoro Dispensary,,NA,NA,,POINT,"[34.28912,-0.26793]",,NA,NA,NA,NA
Medical Clinic Bahari,PrhEjRmLQfn,,iBuXrh8ESS2,Medical Clinic Bahari,private clinic,NA,NA,,NONE,,,NA,NA,NA,NA
Matibabu Ukwala Clinic,YdthQZVh45c,17529,AxesNVgsvhq,Matibabu Ukwala Clinic,,NA,NA,,POINT,"[34.17871,0.20658]",,NA,NA,NA,NA
Karuoth Dispensary,Pa9tT2RsExD,17533,fpnhZCEZEGQ,Karuoth Dispensary,,NA,NA,,POINT,"[34.28015,0.10758]",,NA,NA,NA,NA
Magina Health Center,IsPfFl0jTyA,18430,ONutw6s6W4y,Magina Health Center,Health Center,NA,NA,,NONE,,,NA,NA,NA,NA
The Hope Medical Centre-Awasi,CZvhXoH6bT8,18415,Vi7hrFiryu0,The Hope Medical Centre-A,Maternity and Nursing home,NA,NA,,POINT,"[35.07167,-0.16453]",,NA,NA,NA,NA
St Vincent Clinic (Kisumu East),WCFjDYvoyij,14127,ZplKg3SMkIC,St Vincent C (Kisumu East,,NA,NA,,POINT,"[34.76608,-0.08018]",,NA,NA,NA,NA
Xposha VCT Centre,KnQgPAqtdvj,18492,NHcPsj2IMSr,Xposha VCT Centre,,NA,NA,,POINT,"[34.72931,0.11384]",,NA,NA,NA,NA
Ulafu Dispensary,ZCWRFiCjKsj,20507,zcpKiQgMNyb,Ulafu Dispensary,The facility is in south East Alego,NA,NA,,POINT,"[34.20876,0.04048]",,NA,NA,NA,NA
Miranga Dispensary,umOkAJJ3aUH,20907,FFfi4zTqdH2,Miranga Dispensary,,NA,NA,,NONE,,,NA,NA,NA,NA
Mwangulu Community Health Unit,DvKyBjOLWk7,601863,VVcbqmCinwl,Mwangulu CHU,Cu,NA,NA,,POINT,"[39.0134,-4.40954]",,NA,NA,NA,NA
Godo Community Health Unit,snnwWrb3dPe,602752,qBmMdCCXus8,Godo CHU,Cu,NA,NA,,POINT,"[39.57947,-4.27116]",,NA,NA,NA,NA
Makutano Community Health Unit,L9O4LFq7XrL,,qBmMdCCXus8,Makutano CHU,,NA,NA,,NONE,,,NA,NA,NA,NA
Mtumwa Community Health Unit,AlInSWGH0ZG,602757,S6X2QNJUj2g,Mtumwa CHU,Cu,NA,NA,,POINT,"[39.53,-4.29503]",,NA,NA,NA,NA
Jego Community Health Unit,srKiXRlw5Dc,602754,dcM4sXObsyP,Jego CHU,Cu,NA,NA,,POINT,"[39.0764,-4.35192]",,NA,NA,NA,NA
Nyangore Community Unit,cnIKp2ghbAC,,Wo1VJV9cbON,Nyangore Community Unit,,NA,NA,,NONE,,,NA,NA,NA,NA
Kabar East Community Health Unit,rne8LTIiAsR,602669,umOkAJJ3aUH,Kabar East CHU,,NA,NA,,POINT,"[35.00522,-0.09843]",,NA,NA,NA,NA
Tonde Community Unit,F1ADc18CGzI,,UIqndsbcvdK,Tonde Community Unit,,NA,NA,,NONE,,,NA,NA,NA,NA
Lower Tamu Community Unit,IqKRE6AgQJR,,p1xtagfLUyQ,Lower Tamu Community Unit,,NA,NA,,NONE,,,NA,NA,NA,NA
Kabar West Community Unit,nn8PNuELJ0M,,D1sNaKhXlyS,Kabar West Community Unit,,NA,NA,,NONE,,,NA,NA,NA,NA
Olembo Community Health Unit,A2sLKdFAjKf,,ffLvCT7DuPc,Olembo Community Health Unit,,NA,NA,,NONE,,,NA,NA,NA,NA
Central Koguta Community Health Unit,cmj5jX3kOce,,MCxYHCi7SKV,Central Koguta Community Health Unit,,NA,NA,,NONE,,,NA,NA,NA,NA
Kasaye Community Healtrh Unit,jxY2VdP1Rdl,,iI1UYjIuEa1,Apondo Kasaye Community Healtrh Unit,,NA,NA,,NONE,,,NA,NA,NA,NA
Givogi Community Unit,wLg68yBBKfF,,oYc9S0YvbLH,Givogi C.U.,C.U. Linked to Banja Health Centre,NA,NA,The Community Unit was created by CHAK in conjunction with MOPHS Hamisi Sub-county. The CU has started to operate.,NONE,,,NA,NA,NA,NA
Alara Community Health Unit,tytq6CEQ2JN,,jYceYXy2rBf,Alara Community Health Unit,,NA,NA,,NONE,,,NA,NA,NA,NA
Omia Diere A Community Health Unit,QJfVDWMFaFa,600409,SlmxDUIybki,Omia Diere A CHU,,NA,NA,,POINT,"[34.41064,-0.15902]",,NA,NA,NA,NA
Morning Star Community Health Unit,ZImy6KUXwBi,601860,cOgv5EHeFRj,Morning Star CHU,Cu,NA,NA,,POINT,"[39.26573,-4.43605]",,NA,NA,NA,NA
Neema Community Health Unit,LfYWg3gPacx,,A0Ln8q092qB,Neema Community Health Unit,,NA,NA,,NONE,,,NA,NA,NA,NA
Katolo Community Health Unit,b0IFY3rLEvK,600298,gYDBnsFssH6,Katolo CHU,,NA,NA,Fully functional,POINT,"[35.04453,-0.26736]",,NA,NA,NA,NA
Koyeyo Community Health Unit,ojeT6ofFy2Z,602391,Pa9tT2RsExD,Koyeyo CHU,,NA,NA,,NONE,"[34.28015,0.10758]",,NA,NA,NA,NA
Nyamonye Community Health Unit,WFPkFRwHFkz,600016,JRvC1h1WCBh,Nyamonye CHU,,NA,NA,,POINT,"[34.12472,-0.02632]",,NA,NA,NA,NA
Kiwegu B Community Health Unit,E7i4TtPMF6A,,CFOmFTRmpEp,Kiwegu B CHU,,NA,NA,,NONE,,,NA,NA,NA,NA
Majimoto Community Unit,TYyZqE4oa1v,,ksNfsN3CiNc,Majimoto Community Unit,Cu,NA,NA,,NONE,,,NA,NA,NA,NA
Wasini/Mkwiro Community Health Unit,ZSwcN6HmhSi,602760,hJjfTzNHbKB,Wasini/Mkwiro CHU,Cu,NA,NA,,POINT,"[39.3496,-4.60703]",,NA,NA,NA,NA
Rise and Shine Community Health Unit,YqZW7hYm4Lh,601864,xOIShowo1zr,Rise and Shine CHU,Cu,NA,NA,,POINT,"[39.37883,-4.64508]",,NA,NA,NA,NA
Dzombo Community Health Unit,bu5iqGfioXx,602751,MRQeZtlocOi,Dzombo CHU,Cu,NA,NA,,POINT,"[39.02958,-4.52498]",,NA,NA,NA,NA
Wema Community Health Unit,Nl0BFGLInil,,qBmMdCCXus8,Wema CHU,,NA,NA,,NONE,,,NA,NA,NA,NA
Maendeleo Community Health Unit,e2zhif3ErWq,602243,dcM4sXObsyP,Maendeleo CHU,Cu,NA,NA,,POINT,"[39.13672,-4.61782]",,NA,NA,NA,NA
Ebutsimi Community Health Unit,Cx7OG5OuF2Y,600658,QiAHGmf0031,Ebutsimi CHU,,NA,NA,,NONE,,,NA,NA,NA,NA
Mulundu Community Unit,fN5PJnuIq0G,,hqiyXj3Cfxz,Mulundu Community Unit,The CU is  linked to Kaimosi Mision Hospital,NA,NA,The CU was created by CHAK(Christian Health Association of  Kenya) in December 2012. The CU has just started reporting.,NONE,,,NA,NA,NA,NA
Lower Mbihi Community Unit,Gm8736oF0Rp,,QXAvtxBS2Ts,Lower Mbihi Community Unit,,NA,NA,,NONE,,,NA,NA,NA,NA
Upper Kadongo Community Health Unit,inDDR7l3wz4,600131,lkn5DPoeGjs,Upper Kadongo CHU,,NA,NA,,POINT,"[34.62185,-0.08013]",,NA,NA,NA,NA
Kaudha East Community Health Unit,QdkKXicukme,600041,zKDQjMY6KLK,Kaudha East CHU,,NA,NA,,NONE,,,NA,NA,NA,NA
Umala Community Unit,Lk98ZiGW0bh,,QwwfA6dvS2J,Umala Cu,,NA,NA,,NONE,,,NA,NA,NA,NA
Upper Mbihi Community Unit,SATepGjdMJg,,DbCCiO4AXdh,Upper Mbihi Community Unit,,NA,NA,,NONE,,,NA,NA,NA,NA
Chambiti Health Community Unit,C9jroKnm0HB,,DbCCiO4AXdh,Chambiti Health Community Unit,Municipality Division,NA,NA,,NONE,,,NA,NA,NA,NA
Chavogere Community Unit,ShWKeNZf8LD,,DL2NcqH6Dxv,Chavogere Community Unit,Community Unit,NA,NA,,NONE,,,NA,NA,NA,NA
Kisasi Community Unit,v3iXAVABB7Z,,oIfTa0e3Og0,Kisasi Community Unit,Linked to Serem Health Centre,NA,NA,It is a newly created Community Unit. It was created by CHAK(Christian Health Association of Kenya) in December 2012. The CU has just started operating but still has a few challenges to be overcome soon.,NONE,,,NA,NA,NA,NA
Shiru Community Unit,RpMIyzAJ4YH,1746,HBsqa81tb5L,Shiru CU,,NA,NA,"Link Facility
Shiru Health Centre",NONE,,,NA,NA,NA,NA
Muhudu Community Unit,T3Fx9kbMQJm,,hqiyXj3Cfxz,Muhudu CU,,NA,NA,"Link Facility
Kaptech Dispensary",NONE,,,NA,NA,NA,NA
Gamoi Community Unit,Y93bySUjVWU,,FZc8EjHfowN,Gamoi Community Unit,,NA,NA,"link Facility
Kimogoi Dispensary",NONE,,,NA,NA,NA,NA
Lusiola Community Unit,RiyXYMrEGeY,,VsGhTdYbBD7,Lusiola Community Unit,,NA,NA,,NONE,,,NA,NA,NA,NA
Kapsotik Community Health Unit,MaLz18q2xyu,600665,oIfTa0e3Og0,Kapsotik CHU,,NA,NA,"Link facility
Serem Health Centre",POINT,"[34.85275,0.08013]",,NA,NA,NA,NA
Anyiko Community Unit,VK9WlY9LSTH,,ZL7FkyG3uwc,Anyiko unit,community unit,NA,NA,,NONE,,,NA,NA,NA,NA
Rambula South Community Unit,pFAhuwru70D,,vyIRQtMwS3K,Rambula South Cu,,NA,NA,,NONE,,,NA,NA,NA,NA
Lundha Community Unit,oFTBgxRHu6S,,Zg5gzV6yNTm,Lundha Community Unit,COMMUNITY UNIT,NA,NA,,NONE,,,NA,NA,NA,NA
Majimoto Community Unit,P9RSVjkLleV,,ksNfsN3CiNc,Majimoto Community Unit,Cu,NA,NA,,NONE,,,NA,NA,NA,NA
Rachar Community Unit,HJA04KbwbcG,,rgAAYE224Cd,Rachar CU,,NA,NA,,NONE,,,NA,NA,NA,NA
Venus Community Health Unit,VwKFDiiXW3u,601868,MRQeZtlocOi,Venus CHU,Cu,NA,NA,,POINT,"[39.2438,-4.45926]",,NA,NA,NA,NA
4Ms Community Health Unit,GndpAyWp8in,601806,OArtNCNolNl,4Ms CHU,,NA,NA,,POINT,"[39.6316,-4.12827]",,NA,NA,NA,NA
Mwachema Community Health Unit,lVdePJOICYZ,601811,gEvZgtrunJY,Mwachema CHU,,NA,NA,,POINT,"[39.5869,-4.24935]",,NA,NA,NA,NA
Upper Kombewa Community Health Unit,lKL5AHs4Lmz,600132,tMymqzXY5dg,Upper Kombewa CHU,,NA,NA,,POINT,"[34.51792,-0.10345]",,NA,NA,NA,NA
Upper Sidho East 2 Community Unit,GyMi7mP5UBH,,vVYa9Lb6bZ5,Upper Sidho East 2 Community Unit,,NA,NA,,NONE,,,NA,NA,NA,NA
Asango West Community Health Unit,VLEX54m1gFu,600474,dNgg6md2JdN,Asango West CHU,,NA,NA,,POINT,"[34.3857,0.2588]",,NA,NA,NA,NA
Tingare East Community Health Unit,GG6aW2QYvxU,600511,n8Ox0LYd7Di,Tingare East CHU,,NA,NA,,POINT,"[34.3857,0.2588]",,NA,NA,NA,NA
Uhuyi Community Health Unit,QurQNJ21WQY,600514,TXGyS25PjDj,Uhuyi CHU,,NA,NA,,POINT,"[34.3911,0.09255]",,NA,NA,NA,NA
Nyabera Lower Community Unit,dZhpeBEkD6B,,ttjlT9tfGCj,Nyabera Lower Community Unit,,NA,NA,,NONE,,,NA,NA,NA,NA
Ligala Community Health Unit,sHNnuJkAaLa,600486,XedKlZAN2O9,Ligala CHU,,NA,NA,,NONE,,,NA,NA,NA,NA
Khusikulu Community Unit,rmzI0kgfAmg,,arDVLu1shRK,Khusikulu Community Unit,,NA,NA,,NONE,,,NA,NA,NA,NA
Akom Community Health Unit,VYJ21CcmhB1,600395,yr1OdefeL3S,Akom CHU,,NA,NA,,POINT,"[34.32469,-0.20671]",,NA,NA,NA,NA
Ndigwa  Lower Community Health Unit,gl9MFZnsUqw,,NFVVCDVuAkk,Ndigwa  Lower Community Health Unit,,NA,NA,,NONE,,,NA,NA,NA,NA
Embali Community Health Unit,UVhpU0Re2ak,,Xm3UkkgGu65,Embali CU,,NA,NA,,NONE,,,NA,NA,NA,NA
Mkendwa,ILeR8mKVWlE,700129,qk1UIwzC9zv,Mkendwa,,NA,NA,,NONE,,,NA,NA,NA,NA
Nyagoko East Community Health Unit,m4Jmvl0VkXo,600407,UKLTU9SVDp3,Nyagoko East CHU,,NA,NA,,POINT,"[34.29557,-0.17535]",,NA,NA,NA,NA
Kaudha West Community Health Unit,t9HMmL9GLrW,600042,zKDQjMY6KLK,Kaudha West CHU,,NA,NA,,NONE,,,NA,NA,NA,NA
Kedh Community Unit,UvXC72moLQ4,,uBfCuhllvg3,KEDH Community Unit,Community unit at Tier 4,NA,NA,,NONE,,,NA,NA,NA,NA
Kegoye Community Unit,iRiNUGokBW4,,DbCCiO4AXdh,Kegoye Community Unit,,NA,NA,,NONE,,,NA,NA,NA,NA
Mambai Community Health Unit,Tg1V0PuGPLN,600759,LeATvvxVKcP,Mambai CHU,,NA,NA,,POINT,,,NA,NA,NA,NA
Onyinyore Community Unit,gLrhNIhJ3BF,,X6eQyywhuHF,Onyinyore unit,,NA,NA,,NONE,,,NA,NA,NA,NA
Ekaita A Community Health Unit,ehYmQozMvSE,600654,t8pVCEXnij3,Ekaita A CU,,NA,NA,,NONE,"[34.63435,0.07941]",,NA,NA,NA,NA
Milalani Community Health Unit,YKYY7jaShUB,601859,nUFNIok7EwF,Milalani CHU,Cu,NA,NA,,POINT,"[39.4708,-4.48007]",,NA,NA,NA,NA
Mkomba Community Health Unit,RnnIIj8xI5B,601809,THNDq8DTAhT,Mkomba CHU,,NA,NA,,POINT,"[39.26751,-4.29084]",,NA,NA,NA,NA
Kitagwa Community Health Unit,oAUcxqQ4iIw,600667,x8dwth6BYiK,Kitagwa CHU,,NA,NA,"Link Facility
 Tigoi Health Centre",POINT,"[34.72554,0.00591]",,NA,NA,NA,NA
Yiro West Community Health Unit,WtKRRJt0aC5,600519,BvSVueanUP2,Yiro West CHU,,NA,NA,,POINT,"[34.4051,0.16876]",,NA,NA,NA,NA
Simenya Community Health Unit,kTrBWpjLdh9,600507,bsWJDHxiuNB,Simenya CHU,,NA,NA,,POINT,"[34.36433,0.15676]",,NA,NA,NA,NA
Homalime B Community Unit,gYIdesbWqDe,,uY2xlbkbeVL,Homalime B Community Unit,,NA,NA,,NONE,,,NA,NA,NA,NA
Kandege Community Unit,q8G0FkDATrA,,E8uyiuF3BqN,Kandege Community Unit,,NA,NA,,NONE,,,NA,NA,NA,NA
Upper B,KvzKA6dYJpw,,zZdbrp6Tyiv,Upper B,,NA,NA,,NONE,,,NA,NA,NA,NA
Lutsangani Community Health Unit,mJIdyLWdftE,601799,mWfiQXewlzK,Lutsangani CHU,Community unit,NA,NA,,NONE,"[39.51361,-4.06412]",,NA,NA,NA,NA
Ndavaya Community Health Unit,LilT4fzazlF,602307,CJn1auuIZAo,Ndavaya CHU,,NA,NA,,NONE,"[39.16647,-4.25708]",,NA,NA,NA,NA
Barkowino Community Health Unit,UHhNS8Sdjeo,600005,Z6fKUbscAbZ,Barkowino CHU,,NA,NA,,NONE,"[34.2745,-0.09021]",,NA,NA,NA,NA
Nyawita Community Health Unit,iff0xKuMiPk,600019,Z6fKUbscAbZ,Nyawita CHU,,NA,NA,,POINT,"[34.2745,-0.09021]",,NA,NA,NA,NA
Marenyo Community Health Unit,HmE4ocPKDUO,602429,PIXoJMTOosr,Marenyo CHU,,NA,NA,,POINT,"[34.53381,0.0475]",,NA,NA,NA,NA
Kochieng A Community Health Unit,rScn0GYDRAo,600430,xHviPII2Tc3,Kochieng A CHU,,NA,NA,,NONE,"[34.23423,0.08843]",,NA,NA,NA,NA
Ojuando A Community Health Unit,dQH1evdWzvU,600445,xHviPII2Tc3,Ojuando A CHU,,NA,NA,,NONE,"[34.23423,0.08843]",,NA,NA,NA,NA
Wathorego Community Unit,myWOgw1HNfR,,uirOz9L34AZ,Wathorego Community Unit,,NA,NA,,NONE,,,NA,NA,NA,NA
West Kadinga Community Health Unit,dvF9uNUGvAD,600133,gzocEzWT73W,West Kadinga CHU,,NA,NA,,POINT,"[34.46953,-0.14141]",,NA,NA,NA,NA
West Kanyadwera Community Health Unit,D74m9Enwni7,600134,VNthlMGjt7T,West Kanyadwera CHU,,NA,NA,,POINT,"[34.45264,-0.07289]",,NA,NA,NA,NA
Ojolla Community Health Unit,CefbwAUndXm,600813,xSUP8uKu35W,Ojolla CHU,,NA,NA,,POINT,,,NA,NA,NA,NA
Okok Community Unit,jCbBZXXSI8Y,,ngqqwzhuvjL,Okok Community Unit,,NA,NA,,NONE,,,NA,NA,NA,NA
East Kadinga Community Health Unit,ILhTymhWLc2,600110,gzocEzWT73W,East Kadinga CHU,,NA,NA,,POINT,"[34.46953,-0.14141]",,NA,NA,NA,NA
Jimo West Community Health Unit,da5jPZw9l5d,602740,IoqOztEzEQu,Jimo West CHU,,NA,NA,,POINT,"[34.88627,-0.31432]",,NA,NA,NA,NA
Kabar Central Community Health Unit,j6CuaT6uSb9,602667,FDrUcAP4Sn4,Kabar Central CHU,,NA,NA,,POINT,"[35.00522,-0.09843]",,NA,NA,NA,NA
Kasule A Community Unit,eOkxBxGwDAY,,a6ZP7RjG0JA,Kasule A Community Unit,,NA,NA,,NONE,,,NA,NA,NA,NA
Komolo Community Unit,XONRygPeWeg,18946,SaC88wqvxMt,Komolo Community Unit,,NA,NA,,NONE,,,NA,NA,NA,NA
Hono Community Health Unit,o1LmURm3G8L,600424,SaC88wqvxMt,Hono CHU,,NA,NA,,NONE,"[34.33441,0.11195]",,NA,NA,NA,NA
Nyalgunga Community Health Unit,nkRprJ0bqU8,600442,SaC88wqvxMt,Nyalgunga CHU,,NA,NA,,NONE,"[34.33441,0.11195]",,NA,NA,NA,NA
Nyadhi Community Health Unit,naGy9zIELeT,602310,nKDcsLqOt81,Nyadhi CHU,,NA,NA,,NONE,"[34.18002,0.08238]",,NA,NA,NA,NA
Masala Community Health Unit,PdfLiIHi9QE,600402,ltcUO2beWif,Masala CHU,,NA,NA,,POINT,"[34.29273,-0.20811]",,NA,NA,NA,NA
Mur Malanga Community Health Unit,uYLCuw2Yjnv,602295,Tf9HS4ZXH3Z,Mur Malanga CHU,,NA,NA,,NONE,"[34.25229,-0.00248]",,NA,NA,NA,NA
Givole Community Unit,kKrGGzWba8X,,xMHtgmoaubR,Givole Community Unit,,NA,NA,"Link facility
Givole Dispensary",NONE,,,NA,NA,NA,NA
Kisumu Dh -New Born Unit,mvbTIjUf9W7,,uBfCuhllvg3,Kisumu DH - New born unit,,NA,NA,,NONE,,,NA,NA,NA,NA
Kisienya Community Unit,GoJu0uc6DFx,,QPgGjJSA4pB,Kisienya Community Unit,,NA,NA,,NONE,,,NA,NA,NA,NA
Kisumu Dh 7-Amenity,kTrcUGhlUfW,,uBfCuhllvg3,Kisumu DH 7-Amenity,,NA,NA,,NONE,,,NA,NA,NA,NA
Owaga Community Unit,pw3g0Ag3TeN,,p1xtagfLUyQ,Owaga Community Unit,,NA,NA,,NONE,,,NA,NA,NA,NA
Itegero Community Unit,n8SaZSzQSNK,,m6zhE2pzHWO,Itegero Community unit,Community Unit,NA,NA,,NONE,,,NA,NA,NA,NA
Kidundu Community Unit,GIEpZM9dzNB,,dhpZNi2matH,Kidundu Community Unit,,NA,NA,,NONE,,,NA,NA,NA,NA
Sigomere Community Health Unit,K08KWzfXKa4,600505,z4pEZ9GMUj7,Sigomere CHU,,NA,NA,,POINT,"[34.3645,0.1963]",,NA,NA,NA,NA
Kodiere Community Health Unit,dyIeJOWr39m,600432,R9fTJQSUjAc,Kodiere CHU,,NA,NA,,NONE,"[34.1864,0.10804]",,NA,NA,NA,NA
Ajigo Community Health Unit,XUiysfiFuNO,600002,APRSsUJAVrP,Ajigo CHU,,NA,NA,,NONE,,,NA,NA,NA,NA
Kuoyo Community Unit,Syg6S7zTxnX,,zZdbrp6Tyiv,Kuoyo Community Unit,,NA,NA,,NONE,,,NA,NA,NA,NA
Siger A Community Health Unit,rvCRgZUkxWW,600414,w6gmsyy7sL6,Siger A CHU,,NA,NA,,POINT,"[34.35616,-0.09399]",,NA,NA,NA,NA
Kisumu Dh 5-Surgical,f5WEradBO13,,uBfCuhllvg3,Kisumu DH 5-Surgical,,NA,NA,,NONE,,,NA,NA,NA,NA
Kisumu Dh 4-Male Medical,rveetRBiX6o,,uBfCuhllvg3,Kisumu DH 4-Male Med.,,NA,NA,,NONE,,,NA,NA,NA,NA
Sihay Community Health Unit,mCPtKH3aaSc,600506,mGga9qtmJEk,Sihay CHU,,NA,NA,,POINT,"[34.4397,0.0161]",,NA,NA,NA,NA
Akiayi Boresha Community Health Unit,P7jGoKiqf5d,600245,Gk01HeIfjsg,Akiayi Boresha CHU,,NA,NA,,POINT,,,NA,NA,NA,NA
Gavudunyi Community Unit,acNIco6at7P,,zwnu6Pa5gLi,Gavudunyi CU,,NA,NA,"Link Facility
Hamisi SDH",NONE,,,NA,NA,NA,NA
East Karateng Community Health Unit,NvuI3IpYSHN,600113,aRWvqnCMOEN,East Karateng CHU,,NA,NA,,POINT,"[34.63821,-0.03785]",,NA,NA,NA,NA
Newa Community Health Unit,LhpYq97nB71,600124,aRWvqnCMOEN,Newa CHU,,NA,NA,,POINT,"[34.63821,-0.03785]",,NA,NA,NA,NA
Kathieno B Community Health Unit,Tl9lac0Gz5s,600484,bhfD7RGs2gk,Kathieno B CHU,,NA,NA,,POINT,"[34.34579,-0.29962]",,NA,NA,NA,NA
Kabodho West Community Health Unit,Isfz422u4KT,600253,k2bd5BmXP2t,Kabodho West CHU,,NA,NA,,POINT,"[34.88627,-0.31432]",,NA,NA,NA,NA
Kabodho East Community Health Unit,Xpr3YeJwMET,600251,ffLvCT7DuPc,Kabodho East CHU,,NA,NA,,POINT,"[34.93741,-0.31293]",,NA,NA,NA,NA
Lisana Community Health Unit,DAf1MTvOfBF,600260,jlWXLaZNtbr,Lisana CHU,,NA,NA,,POINT,"[34.97284,-0.26973]",,NA,NA,NA,NA
Mulunyenya Community Health Unit,jQY93ENk6h4,,A2vpkzQnTO0,Mulunyenya  CU,,NA,NA,,NONE,,,NA,NA,NA,NA
Siger C Community Health Unit,DTQXhSxLHxe,602623,PvuLFowO5Cs,Siger C CHU,,NA,NA,,POINT,"[34.35616,-0.09399]",,NA,NA,NA,NA
Ndigwa  Upper Community Health Unit,mwrrkoSH7nU,600404,NFVVCDVuAkk,Ndigwa CHU,,NA,NA,,POINT,"[34.32304,-0.28396]",,NA,NA,NA,NA
Ekaita B Community Health Unit,dhY9nqB6VaD,,t8pVCEXnij3,Ekaita B CU,,NA,NA,,NONE,,,NA,NA,NA,NA
Memba B Community Health Unit,yY6Nr1WbBfQ,602616,VqXehjCiW9C,Memba B CHU,,NA,NA,,POINT,"[34.39692,-0.11288]",,NA,NA,NA,NA
Lower Kadongo Community Health Unit,kkRg9PH1gTr,600121,lkn5DPoeGjs,Lower Kadongo CHU,,NA,NA,,POINT,"[34.62185,-0.08013]",,NA,NA,NA,NA
Kathieno C Community Health Unit,CNdHZfRDCYb,600485,jwWDpfKjHfl,Kathieno C CHU,,NA,NA,,POINT,"[34.34579,-0.29962]",,NA,NA,NA,NA
Lower Kanyakwar,dFE1sQ8K6Z2,,zZdbrp6Tyiv,Lower Kanyakwar,,NA,NA,,NONE,,,NA,NA,NA,NA
Okana Community Health Unit,MHlKjYpVnvk,602301,y7y9nTpCXFe,Okana CHU,,NA,NA,Community Health Services,POINT,"[34.8299,-0.15333]",,NA,NA,NA,NA
Masana Community Unit,CZQL77SwNk6,,TebstKvirIl,Masana Community Unit,,NA,NA,,NONE,,,NA,NA,NA,NA
North Ramba B Community Health Unit,FlMaWzfeeub,602617,QYhKgi9NMUr,North Ramba B CHU,,NA,NA,,POINT,"[34.37752,-0.06975]",,NA,NA,NA,NA
North Ramba A Community Health Unit,tfrizk806Mx,600405,QYhKgi9NMUr,North Ramba A CHU,,NA,NA,,POINT,"[34.37752,-0.06975]",,NA,NA,NA,NA
Omia Mwalo Community Health Unit,qhFUEB5HnyR,600411,SlmxDUIybki,Omia Mwalo CHU,,NA,NA,,POINT,"[34.41064,-0.15902]",,NA,NA,NA,NA
Lieta  Upper  Community Health Unit,fVXe0v2Sr1m,600400,ZFly5uT5UHQ,Lieta Upper  CHU,,NA,NA,,POINT,"[34.32313,-0.28374]",,NA,NA,NA,NA
Esibuye Community Health Unit,jErhYBDkbdK,,t8pVCEXnij3,Esibuye CU,,NA,NA,,NONE,,,NA,NA,NA,NA
Esikhuyu Community Health Unit,oiUGHWl2U66,,A2vpkzQnTO0,Esikhuyu CU,,NA,NA,,NONE,,,NA,NA,NA,NA
Emusutswi Community Health Unit,J6XQjOXtsRx,,RILlb5RVEkC,Emusutswi CU,a community health unit,NA,NA,,NONE,"[34.63100,0.11730]",,NA,NA,NA,NA
Ematsuli Community Health Unit,MyQAUUYpCZR,,RILlb5RVEkC,Ematsuli CU,,NA,NA,,NONE,"[34.63227,0.11625]",,NA,NA,NA,NA
Ebukhaya Community Health Unit,DnhnW9WMgLh,,bdcsVP2hS8A,Ebukhaya CU,,NA,NA,,NONE,,,NA,NA,NA,NA
Ebusubi Community Health Unit,ZQcImViVdtl,,bdcsVP2hS8A,Ebusubi CU,,NA,NA,,NONE,,,NA,NA,NA,NA
Emuhondo Community Health Unit,pIwsaZZppWE,,t8pVCEXnij3,Emuhondo CU,,NA,NA,,NONE,,,NA,NA,NA,NA
Emukolla Community Health Unit,idTwgDcwE4m,,Xm3UkkgGu65,Emukolla CU,,NA,NA,,NONE,,,NA,NA,NA,NA
Essaba A Community Health Unit,WngwTlPhlwV,,bdcsVP2hS8A,Essaba A CU,,NA,NA,,NONE,,,NA,NA,NA,NA
Essaba B Community Health Unit,D4NgS7ld9fQ,,bdcsVP2hS8A,Essaba B CU,,NA,NA,,NONE,,,NA,NA,NA,NA
Emanyinya Community Health Unit,CQZbkjdVMUC,,bdcsVP2hS8A,Emanyinya CU,,NA,NA,,NONE,,,NA,NA,NA,NA
Essunza Community Health Unit,AVJrKTu2U37,,bdcsVP2hS8A,Essunza CU,,NA,NA,,NONE,,,NA,NA,NA,NA
Ragengni Community Health Unit,ZocSQR5Krgv,600413,mRPHsiYtXeO,Ragengni CHU,,NA,NA,,POINT,"[34.38472,-0.28196]",,NA,NA,NA,NA
Emmabwi Community Health Unit,TSppwtdrQT9,,A2vpkzQnTO0,Emmabwi CU,,NA,NA,,NONE,,,NA,NA,NA,NA
Ebusiloli Community Health Unit,piqMVe1jv5l,,fs0p5MurBkl,Ebusiloli CU,,NA,NA,,NONE,,,NA,NA,NA,NA
Lower Kagwa Community Health Unit,mmPkmuZZZLn,,T9MIrcv0VeS,Lower Kagwa Community Health Unit,,NA,NA,,NONE,,,NA,NA,NA,NA
Itumbu A Community Health Unit,jRS3eiauEWU,,Xm3UkkgGu65,Itumbu A CU,,NA,NA,,NONE,,,NA,NA,NA,NA
Omia Malo B Community Health Unit,B1odxAC5e0J,602621,vcWB89raxir,Omia Malo B CHU,,NA,NA,,POINT,"[34.41533,0.1261]",,NA,NA,NA,NA
Bar B Community Health Unit,CAZwSnU4aoD,600081,jO55LWzNxCv,Bar B CHU,Community Unit,NA,NA,Community Health Services,POINT,"[34.71281,-0.03495]",,NA,NA,NA,NA
Itumbu B Community Health Unit,Ne91XucZZg4,,Xm3UkkgGu65,Itumbu B  CU,,NA,NA,,NONE,,,NA,NA,NA,NA
South Ramba Community Health Unit,YLDquNfW7pt,600415,oENfnS61NCj,South Ramba CHU,,NA,NA,,POINT,"[34.37752,-0.06975]",,NA,NA,NA,NA
Dago Community Unit,XQ1khExEPI7,,jO55LWzNxCv,Dago CHU,Community health services,NA,NA,Community health services,POINT,"[34.71281,-0.03495]",,NA,NA,NA,NA
Siger B Community Health Unit,PhsKghSLBqn,602622,yonouRgu7l7,Siger B CHU,,NA,NA,,POINT,"[34.3383,-0.11998]",,NA,NA,NA,NA
Esibakala Community Health Unit,Ve4NEgQImBA,,Xm3UkkgGu65,Esibakala CU,,NA,NA,,NONE,,,NA,NA,NA,NA
Nyadorera B Community Health Unit,myRUVmIc3HX,600440,bXn7IY2ZYMz,Nyadorera B CHU,,NA,NA,,NONE,"[34.09324,0.11455]",,NA,NA,NA,NA
Vingujini Community Health Unit,cgKO7D4btnH,601869,nUFNIok7EwF,Vingujini CHU,Cu,NA,NA,,POINT,"[39.4708,-4.48007]",,NA,NA,NA,NA
Bongwe Community Health Unit,UL6vysDv35l,601850,gwB2ZiLFNyy,Bongwe CHU,Cu,NA,NA,,NONE,"[39.53,-4.29503]",,NA,NA,NA,NA
Naya Upper Community Health Unit,XNLYqpFZT21,602218,NxtPmGX4kQD,Naya Upper CHU,,NA,NA,,POINT,"[34.3121,-0.36255]",,NA,NA,NA,NA
Sifuyo East Community Health Unit,LqPt7KJnvOp,600503,UDjLzocKru9,Sifuyo East CHU,,NA,NA,,POINT,"[34.12707,0.15086]",,NA,NA,NA,NA
Chitsanze Community Health Unit,ACkQURz9IKC,602266,gbQw8OQtjpj,Chitsanze CHU,,NA,NA,,POINT,"[39.45515,-4.1753]",,NA,NA,NA,NA
Simur Community Unit,JLxLnxZbWeb,,izw2qiqKFYI,Simur Community Unit,,NA,NA,,NONE,,,NA,NA,NA,NA
Kisumu Dh 1-Maternity,C8bCE4dQJog,,uBfCuhllvg3,Kisumu DH 1-Maternity,,NA,NA,,NONE,,,NA,NA,NA,NA
Mwangwei Community Health Unit,YaNAK5ned2y,,KHcGc6wBwP4,Mwangwei Community Health Unit,,NA,NA,,NONE,,,NA,NA,NA,NA
Mzizima B Community Health Unit,Mra85RQvoWf,,aZcZ3CdOcM0,Mzizima B Community Health Unit,,NA,NA,,NONE,,,NA,NA,NA,NA
Orego Community Unit,Eel2U3duhGY,,OaoMmCrvSNm,Orego Community Unit,,NA,NA,,NONE,,,NA,NA,NA,NA
Vinyunduni Community Health Unit,peKqmQ0Pevj,602786,gfk5MBvovOM,Vinyunduni CHU,,NA,NA,,NONE,"[39.2454,-3.98457]",,NA,NA,NA,NA
Kisumu Dh 8-Psychiatry,dlXL1vWB0xJ,,uBfCuhllvg3,Kisumu DH 8-Psychiatry,,NA,NA,,NONE,,,NA,NA,NA,NA
Siriwo Community Health Unit,RM9AsNP2Tqc,600051,w8NTKsoCH8b,Siriwo CHU,,NA,NA,,NONE,,,NA,NA,NA,NA
Ikumba Community Unit,sN8tgQCVFJy,,dhpZNi2matH,Ikumba Community Unit,,NA,NA,,NONE,,,NA,NA,NA,NA
Kokwiri C Community  Health Unit,BEjOCGfXgZs,,EZCHSlG09NE,Kokwiri C Community  Health Unit,,NA,NA,,NONE,,,NA,NA,NA,NA
Kochogo North Community Unit,eZDZ9d5LOPI,,iPKeTl8lSAZ,Kochogo North CU,,NA,NA,,NONE,,,NA,NA,NA,NA
Kakola Ombaka Community Unit,BfiBthJqFVZ,,OaksTvWzoaf,Kakola Ombaka Community Unit,,NA,NA,fully functional,NONE,,,NA,NA,NA,NA
Gombato Community Health Unit,nLRD0BkhZZN,602177,TfsKMWO3CEU,Gombato CHU,Cu,NA,NA,,NONE,"[39.57947,-4.27116]",,NA,NA,NA,NA
Sega Community Health Unit,drYaIkSi9DR,601866,Q1YHVG2A0U1,Sega CHU,,NA,NA,,NONE,,,NA,NA,NA,NA
Mtaa Community Health Unit,dNFOcVZ7bfw,601802,Mi57MBhhiet,Mtaa CHU,Community unit,NA,NA,,NONE,"[39.3411,-4.00308]",,NA,NA,NA,NA
Silaloni Community Health Unit,qS27VpGTyW2,602783,Q0oTmpiCXFG,Silaloni CHU,Community unit,NA,NA,,NONE,"[39.2822,-3.62041]",,NA,NA,NA,NA
Mwanda Community Health Unit,Vgmv6FiJjui,602793,QKJ6fVUHJhT,Mwanda CHU,Community unit,NA,NA,,NONE,"[39.4334,-3.88865]",,NA,NA,NA,NA
Central Bwanda Community Health Unit,v78JWgwYWpI,600082,gdjJjF3h8HT,Central Bwanda CHU,,NA,NA,,POINT,"[34.84557,-0.20814]",,NA,NA,NA,NA
Kolal Community Health Unit,JU2x09jl8bX,600091,gdjJjF3h8HT,Kolal CHU,,NA,NA,,POINT,"[34.84557,-0.20814]",,NA,NA,NA,NA
Ebusiekwe Community Health Unit,eGLkWQihZnW,600652,Xm3UkkgGu65,Ebusiekwe CU,,NA,NA,,NONE,"[34.58067,0.0505]",,NA,NA,NA,NA
Ebunangwe Community Health Unit,WtPgHoza8SN,600651,fs0p5MurBkl,Ebunangwe CU,,NA,NA,,NONE,"[34.60738,0.08084]",,NA,NA,NA,NA
Emusire Community Health Unit,XD7Pdy5BHt2,600657,bdcsVP2hS8A,Emusire CHU,,NA,NA,,NONE,"[34.6068,0.0843]",,NA,NA,NA,NA
Emmukunzi Community Health Unit,I8QCKOTIBDh,600656,RILlb5RVEkC,Emmukunzi CU,,NA,NA,,NONE,"[34.63229,0.11624]",,NA,NA,NA,NA
Kizibe Community Health Unit,dfASNRj8OXp,601807,b9PRSKsPyq0,Kizibe CHU,,NA,NA,,POINT,"[39.30133,-4.25582]",,NA,NA,NA,NA
Magui Community Unit,hGcMGIuYf9G,,LFwsHgAoh20,Magui Community Unit,,NA,NA,,NONE,,,NA,NA,NA,NA
Solongo community unit,hxyJypd71JT,,X2FnCxPnyEH,Solongo community unit,,NA,NA,,NONE,,,NA,NA,NA,NA
Kobongo Community Unit,BAwY5B8NcOi,,TYKsuf1A6HB,Kobongo Community Unit,,NA,NA,,NONE,,,NA,NA,NA,NA
Mur Ng'Iya Community Health Unit,ayIUV8DmdpM,602387,JndRLlEOlBD,Mur Ng'Iya CHU,,NA,NA,,NONE,"[34.37273,-0.04497]",,NA,NA,NA,NA
Simkumbe Community Health Unit,xyyl8aLREYx,601812,OQaFzTxqOby,Simkumbe CHU,,NA,NA,,POINT,"[39.5569,-4.21216]",,NA,NA,NA,NA
Mazumalume Community Health Unit,aWEZ830GRBo,601808,RMxrov0mRw3,Mazumalume CHU,,NA,NA,,POINT,"[39.48973,-4.24513]",,NA,NA,NA,NA
Mtamazide Community Health Unit,lqnN7IClfa4,601810,OArtNCNolNl,Mtamazide CHU,,NA,NA,,POINT,"[39.6316,-4.12827]",,NA,NA,NA,NA
Vyokuta Community Health Unit,aHTOA185Kht,601813,khbVI9AHqV9,Vyokuta CHU,,NA,NA,,POINT,"[39.4883,-4.15284]",,NA,NA,NA,NA
Kingwede Community Health Unit,DXgqOp80F3D,601856,nUFNIok7EwF,Kingwede CHU,Cu,NA,NA,,POINT,"[39.4708,-4.48007]",,NA,NA,NA,NA
Matuga Community Health Unit,SWAOOD3vqvV,602181,eJFV4QoSfJT,Matuga CHU,,NA,NA,,POINT,"[39.56773,-4.1771]",,NA,NA,NA,NA
Mzizima A Community Unit,y0KyK8RyjIo,602759,aZcZ3CdOcM0,Mzizima CU,Cu,NA,NA,,POINT,"[39.0134,-4.40954]",,NA,NA,NA,NA
Kajimbo Community Health Unit,UR5hB0Rwiof,600255,sxMelmjaLmt,Kajimbo CHU,,NA,NA,,POINT,"[34.93802,-0.38896]",,NA,NA,NA,NA
Anyuro Community Health Unit,koHQTwsDF6S,600079,OhVOBYmtprM,Anyuro CHU,,NA,NA,,POINT,"[34.8797,-0.23887]",,NA,NA,NA,NA
Ogenya Community Health Unit,N9ZQ6pP9RiH,600104,OhVOBYmtprM,Ogenya CHU,,NA,NA,Community Health Services,POINT,"[34.8797,-0.23887]",,NA,NA,NA,NA
Ochoria Community Health Unit,JQn8lZJ3vbq,600198,E8uyiuF3BqN,Ochoria CHU,,NA,NA,,POINT,"[35.3071,-0.21452]",,NA,NA,NA,NA
East Katwenga Community Health Unit,Ud34Ys2mHTg,600396,i6CeX6jJX7A,East Katwenga CHU,,NA,NA,,POINT,"[34.38472,-0.28196]",,NA,NA,NA,NA
Kakola Ahero Community Health Unit,TIwGwLzb83Q,600297,iPKeTl8lSAZ,Kakola Ahero CHU,,NA,NA,Fully Functional,POINT,"[34.92367,-0.17321]",,NA,NA,NA,NA
Tura Community Health Unit,EizZg4MpfB3,600302,iPKeTl8lSAZ,Tura CHU,,NA,NA,Fully Functional,POINT,"[34.92367,-0.17321]",,NA,NA,NA,NA
Kochogo Central Community Health Unit,V6Jpn0zjM3w,600299,OaksTvWzoaf,Kochogo Central CHU,,NA,NA,Fully functional,POINT,"[34.92367,-0.17321]",,NA,NA,NA,NA
Nyabera Upper Community Health Unit,x72J3hq8Kyr,600406,ttjlT9tfGCj,Nyabera Upper CHU,,NA,NA,,POINT,"[34.27609,-0.25252]",,NA,NA,NA,NA
Mbuguni Community Unit,ppRvixkjubH,,UpSJbkTCmSw,Mbuguni CU,"Is in Mbuguni Location, was established by Kwale District Eye Centre. Has 22 members",NA,NA,,NONE,,,NA,NA,NA,NA
Kakmie Community Health Unit,Odhcf8uk6oi,600295,TYKsuf1A6HB,Kakmie CHU,,NA,NA,,POINT,"[34.94904,-0.16599]",,NA,NA,NA,NA
Homalime A Community Health Unit,ndQmwbG9mqP,600193,U5xbK4LZeYP,Homalime A CHU,,NA,NA,,POINT,"[35.23274,-0.16969]",,NA,NA,NA,NA
Muhoroni East Community Health Unit,yF2aSbkasnz,600196,p1xtagfLUyQ,Muhoroni East CHU,,NA,NA,,POINT,"[35.20573,-0.15112]",,NA,NA,NA,NA
Kamswa South Community Health Unit,Ye8wuLZiYxI,602670,Fiw6j6VJOPf,Kamswa South CHU,,NA,NA,,POINT,,,NA,NA,NA,NA
Wangaya 1 Community Health Unit,x04Br4mDol0,600201,Fiw6j6VJOPf,Wangaya 1 CHU,,NA,NA,,POINT,,,NA,NA,NA,NA
Tiribe Community Unit,vo7FzO9t7tA,,THNDq8DTAhT,Tiribe CU,Newly formed,NA,NA,,NONE,,,NA,NA,NA,NA
Omia Malo A Community Health Unit,D8phvPwdYSi,600410,RW8fKrzu1Ka,Omia Malo A CHU,,NA,NA,,POINT,"[34.37778,-0.16875]",,NA,NA,NA,NA
Kitivo Community Unit,uJn3gh4CO9p,,O6vTdQ8hQL1,Kitivo CU,Is in Waa Location in Kitivo.,NA,NA,,NONE,,,NA,NA,NA,NA
Kapchemgung Community Health Unit,LjVjDFfpcu6,600664,NnRW3p4MPs3,Kapchemgung CHU,,NA,NA,"Link facility
Jepkoyai Dispensary",POINT,"[34.72548,0.00584]",,NA,NA,NA,NA
Gombe Community Health Unit,WklSe6HVapm,600036,iuEpMpu8AyW,Gombe CHU,,NA,NA,,POINT,"[34.4828,0.00552]",,NA,NA,NA,NA
Rera Community Health Unit,sfcMtBG2atc,600064,p6Sle8EB5TO,Rera CHU,,NA,NA,,POINT,"[34.448,-0.00521]",,NA,NA,NA,NA
Dienya Community Health Unit,RZMRsHV7rFQ,600057,yjW8519Mkn2,Dienya CHU,,NA,NA,,POINT,"[34.40699,0.00154]",,NA,NA,NA,NA
Dienya West Community Health Unit,y0uWbAk6xQ0,600035,yjW8519Mkn2,Dienya West CHU,,NA,NA,,POINT,"[34.40699,0.00154]",,NA,NA,NA,NA
Gimomoi Community Health Unit,YAUmp4UBxPY,600661,FQYIEOl4hmM,Gimomoi CHU,,NA,NA,"Link facility
 Kapchemwani Dispensary",POINT,"[34.76278,0.03782]",,NA,NA,NA,NA
Uriri Community Health Unit,cZQS2WUAz5Q,600053,cgLe4rXJQ2f,Uriri CHU,,NA,NA,,POINT,"[34.4546,0.02944]",,NA,NA,NA,NA
Wagai East Community Health Unit,Qzo6XwhorMi,600054,igio73d1icL,Wagai East CHU,,NA,NA,,POINT,"[34.41679,0.05102]",,NA,NA,NA,NA
Ekwanda Community Health Unit,zPChVHdVPjA,600655,KvcLdBE3Qar,Ekwanda CHU,,NA,NA,,POINT,"[34.57131,0.01411]",,NA,NA,NA,NA
Mwembe Community Health Unit,wDrHhz8hfKH,600669,GwLVDDMCfyU,Mwembe CHU,,NA,NA,"Link facility
Likindu Dispensary",POINT,"[34.6594,0.01703]",,NA,NA,NA,NA
Ndori Community Health Unit,lcHigvkwOt4,600048,ngzYEraCr33,Ndori CHU,,NA,NA,,POINT,"[34.42139,0.05961]",,NA,NA,NA,NA
Malunga Central Community Health Unit,DUJ5SoOEq1l,600044,igio73d1icL,Malunga Central CHU,,NA,NA,,POINT,"[34.41679,0.05102]",,NA,NA,NA,NA
Malunga West Community Health Unit,Q6ZKaOQzXFg,600046,igio73d1icL,Malunga West CHU,,NA,NA,,POINT,"[34.41679,0.05102]",,NA,NA,NA,NA
Demesi Community Health Unit,PHZnYZWU7w2,602389,gkuMI9M275m,Demesi CHU,community unit,NA,NA,,POINT,"[34.68,0.1]",,NA,NA,NA,NA
Wanondi Community Health Unit,FHDTWmUX5v0,600761,gkuMI9M275m,Wanondi CHU,community unit,NA,NA,,POINT,"[34.73081,0.13037]",,NA,NA,NA,NA
Kipchekwen Community Health Unit,Oz2kpN8bbdp,600663,oYc9S0YvbLH,Kipchekwen CHU,,NA,NA,"Link facility
Banja Heath Centre",POINT,"[34.8298,0.04438]",,NA,NA,NA,NA
Munoywa Community Health Unit,Wr4onkedhra,600760,z9yLNTDPHpU,Munoywa CHU,community unit,NA,NA,,POINT,"[34.75106,0.09808]",,NA,NA,NA,NA
Sauri Community Health Unit,ifxEynzllFg,600065,ZL7FkyG3uwc,Sauri CHU,,NA,NA,,POINT,"[34.52503,0.11125]",,NA,NA,NA,NA
Nyamninia Community Health Unit,IjUyQlzjQZ0,600061,AlbZLFgtUXp,Nyamninia CHU,,NA,NA,,POINT,"[34.52503,0.11125]",,NA,NA,NA,NA
Ruwe Community Health Unit,D6Ko7qy2Yak,600501,TXGyS25PjDj,Ruwe CHU,,NA,NA,,POINT,"[34.3911,0.09255]",,NA,NA,NA,NA
Chamakanga Community Health Unit,gdpNBOep2Qg,602625,wEWIMLj1i9i,Chamakanga CHU,Community Unit,NA,NA,,POINT,"[34.79545,0.14687]",,NA,NA,NA,NA
Budaywa Community Health Unit,y6wdfsCeFKT,602715,gkvsBoZvbH1,Budaywa CHU,Community Unit,NA,NA,,POINT,"[34.76777,0.149]",,NA,NA,NA,NA
Makuchi Community Health Unit,suRyeMIMHFa,600668,HBsqa81tb5L,Makuchi CHU,,NA,NA,"Link facility
Shiru Health Centre",POINT,"[34.91163,0.16167]",,NA,NA,NA,NA
Kaptech Community Health Unit,BKRm1T8oiLI,600666,hqiyXj3Cfxz,Kaptech CHU,,NA,NA,"Link facility
Kaptech Dispensary",POINT,"[34.82459,0.16416]",,NA,NA,NA,NA
Sifuyo West Community Health Unit,CWZdKieYRC2,600504,UDjLzocKru9,Sifuyo West CHU,,NA,NA,,POINT,"[34.12707,0.15086]",,NA,NA,NA,NA
Rang'ala Community Health Unit,dwLK2j6KFCE,600499,ytVjSxVQbQ2,Rang'ala CHU,,NA,NA,,POINT,"[34.33179,0.15529]",,NA,NA,NA,NA
Yiro East Community Health Unit,ScZ0CGW0uWV,600518,bsWJDHxiuNB,Yiro East CHU,,NA,NA,,POINT,"[34.36433,0.15676]",,NA,NA,NA,NA
Ambira Community Health Unit,xN1XUFHu4jo,600471,QRZj3gcahYE,Ambira CHU,,NA,NA,,POINT,"[34.27269,0.17689]",,NA,NA,NA,NA
Ngunya Community Health Unit,veDs6YXCO7U,600494,QRZj3gcahYE,Ngunya CHU,,NA,NA,,POINT,"[34.27269,0.17689]",,NA,NA,NA,NA
Doho West Community Health Unit,Zgtvevikf2R,600476,izw2qiqKFYI,Doho West CHU,,NA,NA,,POINT,"[34.18806,0.1931]",,NA,NA,NA,NA
Magoya Community Health Unit,oyYhPW1Cjxl,600489,vyIRQtMwS3K,Magoya CHU,,NA,NA,,POINT,"[34.3044,0.20667]",,NA,NA,NA,NA
Rambula North Community Health Unit,vrLSVyT5kF7,600495,vyIRQtMwS3K,Rambula North CHU,,NA,NA,,POINT,"[34.3044,0.20667]",,NA,NA,NA,NA
Mung'ao Community Health Unit,vVni8ZY2PQD,600492,JR47sh98qKk,Mung'ao CHU,,NA,NA,,POINT,"[34.3645,0.1963]",,NA,NA,NA,NA
Ligega Community Health Unit,GdVr4kNCS1v,600487,AlQczmsgUJn,Ligega CHU,,NA,NA,,POINT,"[34.244,0.2119]",,NA,NA,NA,NA
Got Osimbo Community Health Unit,TkJRVG5FwZ7,600477,M6pRVexaXwC,Got Osimbo CHU,,NA,NA,,POINT,"[34.3645,0.1963]",,NA,NA,NA,NA
Ugunja Community Health Unit,jm4lQbKMvpp,600513,Xac1eOb2dTq,Ugunja CHU,,NA,NA,,POINT,"[34.29315,0.16325]",,NA,NA,NA,NA
Ndenga Community Health Unit,sopgnxLepmi,600493,WggQjuiAZV8,Ndenga CHU,,NA,NA,,POINT,"[34.13531,0.22488]",,NA,NA,NA,NA
Tingare West Community Health Unit,RnJ1T2fLb8L,600512,n8Ox0LYd7Di,Tingare West CHU,,NA,NA,,POINT,"[34.3857,0.2588]",,NA,NA,NA,NA
Kobong Community Health Unit,CBt2UggIZWL,600398,ybNHUZ8G4xz,Kobong CHU,,NA,NA,,POINT,"[34.32236,0.24657]",,NA,NA,NA,NA
Siranga Community Health Unit,l4kyqpYLRPQ,600510,izw2qiqKFYI,Siranga CHU,,NA,NA,,POINT,"[34.18806,0.1931]",,NA,NA,NA,NA
Yenga Community Health Unit,LAnNNXR5af2,600517,izw2qiqKFYI,Yenga CHU,,NA,NA,,POINT,"[34.18806,0.1931]",,NA,NA,NA,NA
Memba A Community Health Unit,MZbrmGZpSU9,602615,PvuLFowO5Cs,Memba A CHU,,NA,NA,,POINT,"[34.39692,-0.11288]",,NA,NA,NA,NA
Masat West Community Health Unit,OaLI80XhSrU,600491,UDjLzocKru9,Masat West CHU,,NA,NA,,POINT,"[34.12707,0.15086]",,NA,NA,NA,NA
Madungu Community Health Unit,Rr8A0iO8mFL,600488,z4pEZ9GMUj7,Madungu CHU,,NA,NA,,POINT,"[34.3645,0.1963]",,NA,NA,NA,NA
Kokwiri B Community Health Unit,dQMJXReTwEZ,602614,SWsrrwl19XQ,Kokwiri B CHU,,NA,NA,,POINT,"[34.28912,-0.26793]",,NA,NA,NA,NA
Kigama Community Unit,O1HgwOnizIU,,rI8R5Xp4mez,Kigama CU,Community Unit,NA,NA,,NONE,,,NA,NA,NA,NA
Kochogo South Community Unit,L3sj4Wf3rmz,,My0xFBJaM5c,Kochogo South Community Unit,,NA,NA,,NONE,,,NA,NA,NA,NA
Nyando Koru Community Unit,mv9em67On1U,,uY2xlbkbeVL,Nyando Koru Community Unit,,NA,NA,,NONE,,,NA,NA,NA,NA
Chango Community Unit,vBTUwYhMAL0,,DbCCiO4AXdh,Chango Community Unit,,NA,NA,,NONE,,,NA,NA,NA,NA
Naya Lower Community Health Unit,TwC36z9qpzV,,NxtPmGX4kQD,Naya Lower Community Health Unit,,NA,NA,,NONE,,,NA,NA,NA,NA
Gandini 2 Community Health Unit,QkDBorzjvIa,601797,mWfiQXewlzK,Gandini 2 CHU,,NA,NA,,NONE,"[39.51361,-4.06412]",,NA,NA,NA,NA
Bugina Community Unit,zCBTWgdWnWN,,gkvsBoZvbH1,Bugina CU,,NA,NA,,NONE,,,NA,NA,NA,NA
Uzima Self Help Group Community Health Unit,WBkMP1NTove,601867,RYumT9hJ8Ss,Uzima Self Help Group CHU,Cu,NA,NA,,NONE,"[39.375,-4.44518]",,NA,NA,NA,NA
Scheme Community Health Unit,gkuOQB5THkK,601865,uhuTgMdpGDx,Scheme CHU,cu,NA,NA,,NONE,"[39.5677,-4.27434]",,NA,NA,NA,NA
Vigulu Health Community Unit,sPjW4tO3fQS,,rKD6LwS0LRX,Vigulu Health Community Unit,MUNGOMA LOCATION,NA,NA,,NONE,,,NA,NA,NA,NA
Kisumu Dh 2-Peadiatrics,Uo8m2MR3FVR,,uBfCuhllvg3,Kisumu DH 2-Peadiatrics,,NA,NA,,NONE,,,NA,NA,NA,NA
Mahaya Community Health Unit,ITPNrxu8ehH,600401,t0zCVxe2wkB,Mahaya CHU,,NA,NA,,NONE,,,NA,NA,NA,NA
Vokoli Community Unit,ZwpPIpQ10xR,,m6zhE2pzHWO,Vokoli Community Unit,Community Unit,NA,NA,,NONE,,,NA,NA,NA,NA
Emurembe Community Health Unit,Ldrgy2qjfxD,,fs0p5MurBkl,Emurembe CU,,NA,NA,,NONE,,,NA,NA,NA,NA
Kedoli Community Unit,nrUquuolyri,,m6zhE2pzHWO,Kedoli Community Unit,,NA,NA,,NONE,,,NA,NA,NA,NA
Nyadhiwa Community Unit,yWKg2Gs9xZk,,swdibQaVyEC,Nyadhiwa Community unit,,NA,NA,,NONE,,,NA,NA,NA,NA
Hillside Community Health Unit,I8TeQQW2B8W,,xmDX1o9oBG3,Hillside CHU,,NA,NA,,NONE,,,NA,NA,NA,NA
Gandini Community Health Unit,QCp8kIatOC2,,AR8hK8NvYFa,Gandini CHU,,NA,NA,,NONE,,,NA,NA,NA,NA
Mwanguda Community Health Unity,aSzWToPZKe8,,AR8hK8NvYFa,Manguda CHU,,NA,NA,,NONE,,,NA,NA,NA,NA
Bidinimole Community Health Unit,z3Gn8kEtwwU,,S6X2QNJUj2g,Bidinimole CHU,,NA,NA,,NONE,,,NA,NA,NA,NA
Mambani Community Health Unit,czXK59KImSZ,,S6X2QNJUj2g,Mambani CHU,,NA,NA,,NONE,,,NA,NA,NA,NA
Kiwegu A Community Health Unit,dORz0FKI5hC,,CFOmFTRmpEp,Kiwegu A CHU,,NA,NA,,NONE,,,NA,NA,NA,NA
Vanga A Community Health Unit,fj1fq9IAR4d,,CFOmFTRmpEp,Vanga A CHU,,NA,NA,,NONE,,,NA,NA,NA,NA
Imarika Community Health Unit,uS2emNyeLfg,,CFOmFTRmpEp,Imarika CHU,,NA,NA,,NONE,,,NA,NA,NA,NA
Nyangoma A Community Health Unit,lWP4DY5ZawO,600017,C3hcs594UwF,Nyangoma A CHU,,NA,NA,,POINT,"[34.19475,-0.15457]",,NA,NA,NA,NA
Mahola Ulawe Community Health Unit,kGdftluoNtD,600436,R9fTJQSUjAc,Mahola Ulawe CHU,,NA,NA,,NONE,"[34.1864,0.10804]",,NA,NA,NA,NA
Gangu Community Health Unit,baUcp4hS0FH,600423,GrfDMFELnO0,Gangu CHU,,NA,NA,,NONE,"[34.16046,0.0876]",,NA,NA,NA,NA
Kaugagi Hawinga Community Health Unit,iCOhiIB2X4v,600428,GrfDMFELnO0,Kaugagi Hawinga CHU,,NA,NA,,NONE,"[34.16046,0.0876]",,NA,NA,NA,NA
Kaugagi Udenda Community Health Unit,dFckfDiyCTS,600429,GrfDMFELnO0,Kaugagi Udenda CHU,,NA,NA,,NONE,"[34.16046,0.0876]",,NA,NA,NA,NA
Mnyenzeni Health Centre,VGhxv5iAXdp,,bplF50Sazvt,Mnyenzeni HC,,NA,NA,,NONE,,,NA,NA,NA,NA
Sigoma Uranga Community Health Unit,lrJOYkAfHdW,600447,GrfDMFELnO0,Sigoma Uranga CHU,,NA,NA,,NONE,"[34.16046,0.0876]",,NA,NA,NA,NA
Othatch Community Health Unit,SirkftfBvM4,600020,O1VQBaVQvat,Othatch CHU,,NA,NA,,POINT,"[34.20696,-0.05059]",,NA,NA,NA,NA
Mwachinga Community Health Unit,EELxBROIUIM,602790,nKyBwCMaG1X,Mwachinga CHU,Community unit,NA,NA,,NONE,,,NA,NA,NA,NA
Mrima Health Community Unit,E8eve6SBDiC,,xmDX1o9oBG3,Mrima Health Community Unit,,NA,NA,,NONE,,,NA,NA,NA,NA
Kilimangodo Community Health Unit,AH5NjkfcL1P,602226,S6X2QNJUj2g,Kilimangodo CHU,Cu,NA,NA,,POINT,"[39.0764,-4.35192]",,NA,NA,NA,NA
Mtsunga Community Health Unit,cviWyRoOMNz,601861,S6X2QNJUj2g,Mtsunga CHU,Cu,NA,NA,,POINT,"[39.0764,-4.35192]",,NA,NA,NA,NA
Central Community Health Unit,baXgVdyKY8Q,601852,UrRsO2NsxHZ,Central CHU,Cu,NA,NA,,POINT,"[39.3135,-4.44607]",,NA,NA,NA,NA
Majoreni Community Unit,KEfiovwk8wL,,k25SFxZn4B9,Majoreni Community Unit,Cu,NA,NA,,NONE,,,NA,NA,NA,NA
Ndenda/Oyamo B Community Unit,j8oi2ope1DS,,kIkn9YIz4Qj,Ndenda/Oyamo B,,NA,NA,,NONE,,,NA,NA,NA,NA
Ndeda Oyamo Community Health Unit,Y3eiKJ6MtRQ,600014,kIkn9YIz4Qj,Ndeda Oyamo CHU,,NA,NA,,NONE,,,NA,NA,NA,NA
Uyawi Community Health Unit,DiDMYhkrTyk,600026,pdEPFrsSUIf,Uyawi CHU,,NA,NA,,POINT,"[34.16597,-0.16139]",,NA,NA,NA,NA
Kibandaongo Community Health Unit,JCnFSZ9YOcS,601798,MWEDyBsOpxM,Kibandaongo CHU,Community unit,NA,NA,,NONE,"[39.39798,-4.04451]",,NA,NA,NA,NA
Chengoni Community Health Unit,VguBcMfvXmR,602794,GRZc4EZ9PuV,Chengoni CHU,,NA,NA,,NONE,"[39.2698,-3.79018]",,NA,NA,NA,NA
Chigato Community Health Unit,WkWrijp4Z5Y,602792,bplF50Sazvt,Chigato CHU,,NA,NA,,NONE,"[39.4868,-3.98765]",,NA,NA,NA,NA
Kabura Uhuyi Community Health Unit,Mc8Bjcm2Psj,600425,FeUHA7ixSA6,Kabura Uhuyi CHU,,NA,NA,,NONE,"[34.13259,0.13638]",,NA,NA,NA,NA
Menza Mwenye Community Health Unit,benC8xu0vIE,601858,nTLGF3pu49r,Menza Mwenye CHU,Cu,NA,NA,,POINT,"[39.2142,-4.48469]",,NA,NA,NA,NA
Vitsangalaweni A Community Health Unit,ODCLuFMLs0r,601870,nTLGF3pu49r,Vitsangalaweni CHU,Cu,NA,NA,,POINT,"[39.2142,-4.48469]",,NA,NA,NA,NA
Vitsngalaweni B Community Unit,dkIBXKHU2AW,,nTLGF3pu49r,Vitsngalaweni B Community Unit,,NA,NA,,NONE,,,NA,NA,NA,NA
Jitahidi Community Health Unit,gKlqGghOXB5,602755,A0Ln8q092qB,Jitahidi CHU,Cu,NA,NA,,POINT,"[39.3135,-4.44607]",,NA,NA,NA,NA
Bumbani Community Health Unit,yjKOwzXkcOX,601851,UrRsO2NsxHZ,Bumbani CHU,Cu,NA,NA,,POINT,"[39.3135,-4.44607]",,NA,NA,NA,NA
Matope Community Health Unit,oiJ5DZo1RMb,602784,GRZc4EZ9PuV,Matope CHU,,NA,NA,,NONE,"[39.2698,-3.79018]",,NA,NA,NA,NA
Mwabila Community Health Unit,sKw8GbAKlnI,601803,LunYFWqFNiA,Mwabila CHU,Community unit,NA,NA,,NONE,"[39.39173,-3.85645]",,NA,NA,NA,NA
Ramunde Community Health Unit,s2qQNDsc4Jb,600498,mGga9qtmJEk,Ramunde CHU,,NA,NA,,POINT,"[34.4397,0.0161]",,NA,NA,NA,NA
East Migwena Community Health Unit,whor1AvaeeB,600006,Tkgo1tPTOv2,East Migwena CHU,,NA,NA,,NONE,"[34.27613,-0.17618]",,NA,NA,NA,NA
Asayi Community Health Unit,O9YkMOW9Mdb,600034,uYsMyJiKEjP,Asayi CHU,,NA,NA,,POINT,"[34.37246,0.1176]",,NA,NA,NA,NA
Kalkada Uradi Community Unit,IJrxkP15QxW,,bejbJuEmJLP,Kalkada Uradi Community U,,NA,NA,,NONE,,,NA,NA,NA,NA
Komenya Kalaka Community Health Unit,LOLRHgFZQYb,600433,bejbJuEmJLP,Komenya Kalaka CHU,,NA,NA,,NONE,"[34.19299,0.14334]",,NA,NA,NA,NA
Komenya Kowala Community Health Unit,EV4OT65ry5s,600434,bejbJuEmJLP,Komenya Kowala CHU,,NA,NA,,NONE,"[34.19299,0.14334]",,NA,NA,NA,NA
Bar Kanyango Community Health Unit,NHIxYjDnJVX,600004,i7fRWb47rxA,Bar Kanyango CHU,,NA,NA,,POINT,"[34.10807,0.01815]",,NA,NA,NA,NA
Usenge A Community Health Unit,tu0MkKvn3qv,600023,U0QSt0gU4Am,Usenge A CHU,,NA,NA,,POINT,"[34.05523,-0.06648]",,NA,NA,NA,NA
Usenge B Community Unit,B1JC6XTLv5o,,U0QSt0gU4Am,Usenge B Community Unit,,NA,NA,,NONE,,,NA,NA,NA,NA
Lihanda Community Health Unit,yDM5cEPauzQ,602400,NE6kXJlu9lG,Lihanda CHU,,NA,NA,,POINT,"[34.50559,0.0404]",,NA,NA,NA,NA
Gongo 2 Community Health Unit,Vd37n2rdAJT,600058,AzOEyXz9Alb,Gongo 2 CHU,,NA,NA,,POINT,"[34.47773,0.05877]",,NA,NA,NA,NA
Usire Community Health Unit,cZHgB1rJ7Nr,600025,cgGKqOQ5YLB,Usire CHU,,NA,NA,,POINT,"[34.21136,-0.07894]",,NA,NA,NA,NA
Maranda  Community Health Unit,hBTQKGKaA1z,600012,cgGKqOQ5YLB,Maranda community CHU,,NA,NA,,POINT,"[34.21136,-0.07894]",,NA,NA,NA,NA
Got Ramogi Community Health Unit,AprnOO3Oikr,600009,JcrbB7yUiAC,Got Ramogi CHU,,NA,NA,,POINT,"[34.07347,-0.02495]",,NA,NA,NA,NA
Abom Community Health Unit,Ph4pEeJhc2B,600001,q2YkoU00i0A,Abom CHU,,NA,NA,,POINT,"[34.3443,-0.04655]",,NA,NA,NA,NA
Nyangoma B Community Health Unit,yDExqN0iWwt,600018,TvQQht1n3MH,Nyangoma B CHU,,NA,NA,,POINT,"[34.13437,-0.15221]",,NA,NA,NA,NA
Sirembe Community Health Unit,aaH6kf3W1yZ,600066,PJL0GkJnlST,Sirembe CHU,,NA,NA,,POINT,"[34.4,0.09503]",,NA,NA,NA,NA
Pala Community Health Unit,P6bVi0wtaOo,600022,LUgqcwSvTS4,Pala CHU,,NA,NA,,POINT,"[34.1315,-0.0309]",,NA,NA,NA,NA
West Migwena Community Health Unit,e0Fghm8rbYs,600027,PJpy4XMrHPm,West Migwena CHU,,NA,NA,,POINT,"[34.24136,-0.13472]",,NA,NA,NA,NA
Barchando Community Health Unit,hjBehjJlAQb,600003,APRSsUJAVrP,Barchando CHU,,NA,NA,,NONE,,,NA,NA,NA,NA
Jina Community Health Unit,ZRzz4WA6P6y,600059,Jm2yFzjQT78,Jina CHU,,NA,NA,,POINT,"[34.27609,-0.25252]",,NA,NA,NA,NA
Got Abiero Community Health Unit,sY8LhkWZXW6,600007,xHrYMm0ZsQu,Got Abiero CHU,,NA,NA,,POINT,"[34.24527,-0.18844]",,NA,NA,NA,NA
Mahanga Community Unit,AoLmXuTI0cP,,gpUX2gUBsc9,Mahanga Community Unit,,NA,NA,,NONE,,,NA,NA,NA,NA
Mitundu Community Health Unit,lggYnA0L9zE,600013,gpUX2gUBsc9,Mitundu CHU,,NA,NA,,NONE,"[34.0103,-0.1325]",,NA,NA,NA,NA
Nyaguda Community Health Unit,CChGEi1dtmc,600015,NETZipsOma4,Nyaguda CHU,,NA,NA,,POINT,"[34.21883,-0.21243]",,NA,NA,NA,NA
Nyawara Community Health Unit,mSzflRNFUYW,600063,Oy12OVa3NVS,Nyawara CHU,,NA,NA,,POINT,"[34.4888,0.09451]",,NA,NA,NA,NA
West Songhor Community Unit,ZLgeIgrNbQI,,LYauDwfdLGf,West Songhor Community Unit,,NA,NA,,NONE,,,NA,NA,NA,NA
West Othany Community Health Unit,GaXQaF8Kwsi,600138,gYaEWAxDwbL,West Othany CHU,,NA,NA,,POINT,"[34.51242,-0.16328]",,NA,NA,NA,NA
West Reru Community Health Unit,UL8RD6DSNDv,600139,kOFBpSMhe9h,West Reru CHU,,NA,NA,,POINT,"[34.44948,-0.09448]",,NA,NA,NA,NA
Malanga Community Health Unit,dMeJkA0dBIF,600043,LG4e3brI9u7,Malanga CHU,,NA,NA,,POINT,"[34.44843,0.11703]",,NA,NA,NA,NA
Mulaha Community Health Unit,KdXDq83ssR8,600438,swdibQaVyEC,Mulaha CHU,,NA,NA,,NONE,"[34.15618,0.02967]",,NA,NA,NA,NA
Kadenge Ratuoro Community Health Unit,qeRnN6UbDab,602366,iAuQRWVoRpK,Kadenge Ratuoro CHU,,NA,NA,,NONE,"[34.17477,0.02373]",,NA,NA,NA,NA
West Katieno Community Health Unit,TkrkC4bb0bD,600136,x6bSboDXpcN,West Katieno CHU,,NA,NA,,POINT,"[34.49191,-0.04739]",,NA,NA,NA,NA
West Kolunje Community Health Unit,VDHIQYcAzOY,602741,ibwx3O2yztO,West Kolunje CHU,,NA,NA,,POINT,"[34.57942,-0.07642]",,NA,NA,NA,NA
West Ngere Community Health Unit,ocuGys86haS,600137,y1WqAJwDmmi,West Ngere CHU,,NA,NA,,POINT,"[34.44948,-0.09448]",,NA,NA,NA,NA
Uranga Community Health Unit,LoNxjj9MgpT,602398,p6QLmTAlmyU,Uranga CHU,,NA,NA,,POINT,"[34.49949,0.02241]",,NA,NA,NA,NA
Maliera Community Health Unit,j9iPXpLKIkr,600060,LG4e3brI9u7,Maliera CHU,,NA,NA,,POINT,"[34.44843,0.11703]",,NA,NA,NA,NA
Kapiyo Community Health Unit,Aql2TRq3HWf,600010,nw9YVA9Tx6R,Kapiyo CHU,,NA,NA,,POINT,"[34.17491,-0.08601]",,NA,NA,NA,NA
Moro Community Health Unit,Z9ybClrWP2C,600263,ffLvCT7DuPc,Moro CHU,,NA,NA,,POINT,"[34.93741,-0.31293]",,NA,NA,NA,NA
Wasare Community Health Unit,bFgUuCHyNNi,600267,iI1UYjIuEa1,Wasare CHU,,NA,NA,,POINT,"[34.93741,-0.31293]",,NA,NA,NA,NA
Manyatta A community Unit,oIxOPXrNBMe,,UZlFjPJGpjz,Manyatta A community unit,,NA,NA,,NONE,,,NA,NA,NA,NA
Manyattta Acommunity Unit,BS9T1T9Yh1y,,zZdbrp6Tyiv,Manyattta ACommunity Unit,,NA,NA,,NONE,,,NA,NA,NA,NA
Marera Community Health Unit,WOqT2K9Axnb,600123,aRWvqnCMOEN,Marera CHU,,NA,NA,,POINT,"[34.63821,-0.03785]",,NA,NA,NA,NA
Ramula Community Unit,QTCs9Yacacz,,UpuCF40GAfx,Ramula Community Unit,,NA,NA,,NONE,,,NA,NA,NA,NA
Ugwe Community Health Unit,CX3SXaDKHIy,600108,gdjJjF3h8HT,Ugwe CHU,,NA,NA,,POINT,"[34.84557,-0.20814]",,NA,NA,NA,NA
Tom Mboya Community Unit,o5vRT9nVkMr,,UZlFjPJGpjz,Tom Mboya Community Unit,,NA,NA,,NONE,,,NA,NA,NA,NA
Upper A,i0KKFbvbfAD,,zZdbrp6Tyiv,Upper A,,NA,NA,,NONE,,,NA,NA,NA,NA
Achego Community Health Unit,EiylrSqE0bO,600287,aSPafr5E6SG,Achego CHU,,NA,NA,Fully functional,POINT,"[35.02019,-0.24871]",,NA,NA,NA,NA
Agoro East Community Health Unit,aRa92Ec3pyc,600244,i687P6dSq5L,Agoro East CHU,,NA,NA,,POINT,"[35.01362,-0.29259]",,NA,NA,NA,NA
Airport Kogony Community Health Unit,eJJfum7uaTR,600090,oEWhqoUHkvt,Airport Kogony CHU,,NA,NA,,POINT,"[34.73359,-0.07331]",,NA,NA,NA,NA
Alwala Community Health Unit,I2BvQvIHZkz,602746,Btt2n49zIB0,Alwala CHU,,NA,NA,,POINT,"[34.48159,-0.14491]",,NA,NA,NA,NA
anding'o Opanga Community Health Unit,yXsKs4l6y66,600243,lfs5qignpT4,anding'o Opanga CHU,,NA,NA,,POINT,"[34.8405,-0.3624]",,NA,NA,NA,NA
Ang'oga Community Health Unit,aTePXBTUjt3,602745,Btt2n49zIB0,Ang'oga CHU,,NA,NA,,POINT,"[34.46953,-0.14141]",,NA,NA,NA,NA
Apondo Kasaye Community Health Unit,FQ9265ub2kH,,KPgXAJQ4rkD,Apondo Kasaye Community Health Unit,,NA,NA,,NONE,,,NA,NA,NA,NA
Area A Comminuty Unit,BzJeHVItWr0,,zZdbrp6Tyiv,Area A Comminuty Unit,,NA,NA,,NONE,,,NA,NA,NA,NA
Area B Comminity Unit,gPIurJT3AWn,,zZdbrp6Tyiv,Area B Comminity Unit,,NA,NA,,NONE,,,NA,NA,NA,NA
Area C Comminty Unit,NU1BeKd6izu,,zZdbrp6Tyiv,Area C Comminty Unit,,NA,NA,,NONE,,,NA,NA,NA,NA
Awach Community Health Unit,QAdTq88PxWh,600246,tWQw1jmjWO4,Awach CHU,,NA,NA,,POINT,"[35.01362,-0.29259]",,NA,NA,NA,NA
Ayucha Community Health Unit,lsAviUAjWGL,600288,ISsRMwepdm7,Ayucha CHU,,NA,NA,fully functional,POINT,"[35.07395,-0.16043]",,NA,NA,NA,NA
Gari Community Health Unit,up6ryzgs6dz,600247,FG0txxsfiCw,Gari CHU,,NA,NA,,POINT,"[34.93101,-0.38434]",,NA,NA,NA,NA
Ayweyo Community Health Unit,LxTbqSzmKHl,600289,J3865NY4ur6,Ayweyo CHU,,NA,NA,Fully operational,POINT,"[35.01355,-0.20083]",,NA,NA,NA,NA
Border 1 Community Health Unit,G8KGtZF6fad,602579,IgabCFGuay6,Border 1 CHU,,NA,NA,,POINT,"[35.07167,-0.18689]",,NA,NA,NA,NA
Border 2 Community Health Unit,iOUHAq2sGol,600291,wgZ2mHu3aX9,Border 2 CHU,,NA,NA,fully functional,POINT,"[35.10123,-0.16982]",,NA,NA,NA,NA
Buoye Community Health Unit,MkruFoNdCMF,,bSJkg11sPh7,Buoye Community Health Unit,,NA,NA,,NONE,,,NA,NA,NA,NA
Chemelil Community Health Unit,LDhgDXRCakv,601060,PeEVPAKDbaC,Chemelil CHU,,NA,NA,,POINT,,,NA,NA,NA,NA
Chiga Health Community Unit,dQhAIBlgtw2,,qNO02IGD3yn,Chiga Health Community Unit,,NA,NA,,NONE,,,NA,NA,NA,NA
East Kanyadwera Community Health Unit,dMLM3uhIXex,600112,tHIuPy0T8F8,East Kanyadwera CHU,,NA,NA,,POINT,"[34.47192,-0.09446]",,NA,NA,NA,NA
East Katieno Community Health Unit,gNdktA0nhJK,602742,lq9mb305HDu,East Katieno CHU,,NA,NA,,POINT,"[34.51293,-0.06878]",,NA,NA,NA,NA
East Kogota Community Unit,D0UAxuhccOt,,eH1iSu1tL6t,East Kogota CU,,NA,NA,,NONE,,,NA,NA,NA,NA
East Kolunje Community Health Unit,eo5iyTzSK6a,600111,ibwx3O2yztO,East Kolunje CHU,,NA,NA,,POINT,"[34.57942,-0.07642]",,NA,NA,NA,NA
East Ngere Community Health Unit,I2iW97kvitK,600114,kOFBpSMhe9h,East Ngere CHU,,NA,NA,,POINT,"[34.44948,-0.09448]",,NA,NA,NA,NA
East Othany Community Health Unit,GoUe3YWJC6u,600115,gYaEWAxDwbL,East Othany CHU,,NA,NA,,POINT,"[34.51242,-0.16328]",,NA,NA,NA,NA
Bar A Community Health Unit,abeKLv2GPU4,600080,jO55LWzNxCv,Bar A CHU,,NA,NA,,POINT,"[34.71281,-0.03495]",,NA,NA,NA,NA
Kochieng B Community Health Unit,NxMGI4T5UO9,600431,EwpG2Q4y05m,Kochieng B CHU,,NA,NA,,NONE,"[34.24462,0.11233]",,NA,NA,NA,NA
East Reru Community Health Unit,H8nLMXHR4Oa,600116,kOFBpSMhe9h,East Reru CHU,,NA,NA,,POINT,"[34.44948,-0.09448]",,NA,NA,NA,NA
East Songhor Community Unit,GqPoEqOIEbf,,PENvTx4fphA,East Songhor Community Unit,,NA,NA,,NONE,,,NA,NA,NA,NA
Gem Nam Community Health Unit,gPP8opeo0sZ,600248,AqD7UCCUGCh,Gem Nam CHU,,NA,NA,,POINT,"[34.95691,-0.2382]",,NA,NA,NA,NA
Gem Rae Community Health Unit,aqk1XUxyIGN,600249,AqD7UCCUGCh,Gem Rae CHU,,NA,NA,,POINT,"[34.95691,-0.2382]",,NA,NA,NA,NA
God Abuoro Community Health Unit,qsQQD4cxNEQ,600192,PjStrCd2jns,God Abuoro CHU,,NA,NA,,POINT,"[35.18239,-0.15153]",,NA,NA,NA,NA
Got Nyabondo Community Unit,W5Goavj0MzV,,FxwJAofV4uL,Got Nyabondo Community Unit,,NA,NA,,NONE,,,NA,NA,NA,NA
Irrigation Community Unit,DiZ7ZkCgsE7,,ZSjZcx0lxrz,Irrigation Community Unit,,NA,NA,,NONE,,,NA,NA,NA,NA
Jimo East Community Health Unit,uVIWftbCGXu,600250,OlwzlLibvzd,Jimo East CHU,,NA,NA,,POINT,"[35.01362,-0.29259]",,NA,NA,NA,NA
Kabar West Community Unit,MpvIvK9Zdar,,D1sNaKhXlyS,Kabar West Community Unit,,NA,NA,,NONE,,,NA,NA,NA,NA
Kabodho North Community Health Unit,mbTMGswcs4d,600252,jzLxTVPy6wv,Kabodho North CHU,,NA,NA,,POINT,"[34.88627,-0.31432]",,NA,NA,NA,NA
Kadero Community Health Unit,aBZlafEh73x,600117,VNthlMGjt7T,Kadero CHU,,NA,NA,,POINT,"[34.46748,-0.06836]",,NA,NA,NA,NA
Irrigation Community Health Unit,YZKjX2zLZbX,600083,gdjJjF3h8HT,Irrigation CHU,,NA,NA,,POINT,"[34.84557,-0.20814]",,NA,NA,NA,NA
Kadero Community Health Unit,cfnHHQlolfb,600084,ngqqwzhuvjL,Kadero CHU,,NA,NA,,POINT,"[34.79048,-0.02782]",,NA,NA,NA,NA
Kadiang'a East Community Health Unit,zergNW54PTQ,,T4fYNeKF5gb,Kadiang'a East Community Health Unit,,NA,NA,,NONE,,,NA,NA,NA,NA
Kajulu Koker Community Health Unit,j4SvRirlEjT,600119,xOk8BwV5Uta,Kajulu Koker CHU,,NA,NA,,POINT,"[34.57262,-0.1188]",,NA,NA,NA,NA
Kaloleni Shauri MoyoCommunity unit,fbEeWtS7lUA,,qa07L6R8UeS,Kaloleni Shauri MoyoCommunity unit,,NA,NA,,NONE,,,NA,NA,NA,NA
Kamayoga Community Health Unit,eap9q5hzLWY,600086,sL4A85fJAXA,Kamayoga CHU,,NA,NA,Community Health Services,POINT,"[34.89364,-0.18603]",,NA,NA,NA,NA
Kamswa North Community Health Unit,DwZHootxRxn,602665,FDrUcAP4Sn4,Kamswa North CHU,,NA,NA,,POINT,"[35.00522,-0.09843]",,NA,NA,NA,NA
Kandaria Community Health Unit,lKHLu178g1F,600256,H2j5rA0udFS,Kandaria CHU,,NA,NA,,POINT,"[34.97995,-0.33737]",,NA,NA,NA,NA
Kandaria West Community Health Unit,PqFSIVYMd1m,,IoqOztEzEQu,Kandaria West Community Health Unit,,NA,NA,,NONE,,,NA,NA,NA,NA
Kang'o Community Unit,M7sNo5V9FtP,,sjhSrlzV4w6,Kang'o Community Unit,,NA,NA,,NONE,,,NA,NA,NA,NA
Kanyakwar Community Unit,PnUxGSCMvkp,,UZlFjPJGpjz,Kanyakwar Community Unit,,NA,NA,,NONE,,,NA,NA,NA,NA
Kajimbo Rachier Community Health Unit,DPOxGnJgaGj,602736,KPgXAJQ4rkD,Kajimbo Rachier CHU,,NA,NA,,POINT,"[34.85203,-0.33545]",,NA,NA,NA,NA
Kanyawegi B Community Unit,XQo88cAwZ9T,700126,JVl5vd8v985,Kanyawegi,,NA,NA,,NONE,,,NA,NA,NA,NA
Kanyawegi Community Health Unit,cQTVW8ib5Rm,600087,JVl5vd8v985,Kanyawegi CHU,,NA,NA,Community Health Services,POINT,"[34.60952,-0.11518]",,NA,NA,NA,NA
Kasule   B Community Health Unit,LayvIjeXGLe,600089,bSJkg11sPh7,Kasule CHU,,NA,NA,,POINT,"[34.80916,-0.11746]",,NA,NA,NA,NA
Kasule C Community Unit,htWbaNGbDqT,,bSJkg11sPh7,Kasule C Community Unit,,NA,NA,,NONE,,,NA,NA,NA,NA
Katito Community Health Unit,TELGB2rr7Iq,600257,jlWXLaZNtbr,Katito CHU,,NA,NA,,POINT,"[34.97284,-0.26973]",,NA,NA,NA,NA
Keyo Community Unit,TovlHgV8gTu,,T4fYNeKF5gb,Keyo Community Unit,,NA,NA,,NONE,,,NA,NA,NA,NA
Kibigori Community Health Unit,TjQfLIw9Q2B,600195,SXegfern6PF,Kibigori CHU,,NA,NA,,POINT,"[35.18199,-0.03911]",,NA,NA,NA,NA
Kit Mikayi Community Unit,ujh6peAoT1X,,QTbpZ8fdTZG,Kit Mikayi CU,,NA,NA,,NONE,,,NA,NA,NA,NA
Kochieng Community Health Unit,K4MaKsCJCWt,601920,xHpOSfsb09z,Kochieng CHU,,NA,NA,,POINT,"[34.8299,-0.15333]",,NA,NA,NA,NA
Koguta West Community Health Unit,qZx6LF6pCIG,600259,KPgXAJQ4rkD,Koguta West CHU,,NA,NA,,POINT,"[34.85203,-0.33545]",,NA,NA,NA,NA
Konya Community Unit,oQCf8Iq0dCI,,uirOz9L34AZ,Konya Community Unit,,NA,NA,,NONE,,,NA,NA,NA,NA
Korando B Community Health Unit,S9E9b3hVDbO,600092,Q4XkYFvskeI,Korando B CHU,,NA,NA,,POINT,"[34.70884,-0.06211]",,NA,NA,NA,NA
Kore Community Unit,guWYcHmzKgR,,Q5GF0n7TnBZ,Kore Community Unit,,NA,NA,,NONE,,,NA,NA,NA,NA
Kotieno Community Unit,OhosxEaazLR,,sL4A85fJAXA,Kotieno Community Unit,,NA,NA,,NONE,,,NA,NA,NA,NA
Kuoyo Kaila Community Health Unit,JuY5auMb3cH,,TAPp4w4qSDy,Kuoyo Kaila CU,,NA,NA,,NONE,,,NA,NA,NA,NA
Kodongo Community Unit,torPP7IChoI,,ffLvCT7DuPc,Kodongo Community Unit,,NA,NA,,NONE,,,NA,NA,NA,NA
Lela Community Unit,HOBSOfORNFI,,sL4A85fJAXA,Lela Community Unit,,NA,NA,,NONE,,,NA,NA,NA,NA
Lower Kandianga Community Health Unit,uid3NkohwZQ,600261,taNmXyxY87R,Lower Kandianga CHU,,NA,NA,,POINT,"[34.88895,-0.34422]",,NA,NA,NA,NA
Nyamarimba Community Health Unit,WkZclWiSHZo,600264,jYceYXy2rBf,Nyamarimba CHU,,NA,NA,,POINT,"[34.90891,-0.37155]",,NA,NA,NA,NA
Lower Kombewa Community Health Unit,vUzdfNCq31s,600122,tMymqzXY5dg,Lower Kombewa CHU,,NA,NA,,POINT,"[34.51792,-0.10345]",,NA,NA,NA,NA
Magina Community Health Unit,VzlotS2vNaG,600300,IsPfFl0jTyA,Magina CHU,,NA,NA,,NONE,,,NA,NA,NA,NA
Masogo Community Health Unit,JzljrKULwuN,600095,NS2k3fejJUx,Masogo CHU,,NA,NA,,POINT,"[34.8299,-0.15333]",,NA,NA,NA,NA
Mayenya CommunityUnit,oKS1iT0j4l4,,bSJkg11sPh7,Mayenya CommunityUnit,,NA,NA,,NONE,,,NA,NA,NA,NA
Migosi  Community Unit,GqDNGpw73WR,,zZdbrp6Tyiv,Manyatta B Community Unit,,NA,NA,,NONE,,,NA,NA,NA,NA
Miwani Community Unit,J0fqVa8EK1B,,Z5NeINoTgxS,Miwani Community Unit,,NA,NA,Community Health Services,NONE,,,NA,NA,NA,NA
Miwani West Community Health Unit,Ud99G6FCOHa,600097,CHbzT0LTnWD,Miwani West CHU,,NA,NA,,POINT,"[34.81761,-0.03396]",,NA,NA,NA,NA
North Alungo Community Health Unit,E0uc8F43ngr,602747,gYaEWAxDwbL,North Alungo CHU,Attached to Bodi HC,NA,NA,,POINT,"[34.51242,-0.16328]",,NA,NA,NA,NA
North Kapuonja Community Health Unit,mEWaI7UCChJ,600125,RuEWpmWUmCM,North Kapuonja CHU,,NA,NA,,POINT,"[34.66381,-0.02097]",,NA,NA,NA,NA
North Kowe Community Health Unit,rtoEbFLQptH,602743,j6QLHcTeO6f,North Kowe CHU,,NA,NA,,POINT,"[34.49191,-0.04739]",,NA,NA,NA,NA
North Ratta Community Health Unit,fuTxcBwpTyU,600126,aTQwZSIIxPA,North Ratta CHU,,NA,NA,,POINT,"[34.53948,-0.04529]",,NA,NA,NA,NA
Nduru Community Unit,wZak4suGPU8,,gdjJjF3h8HT,Nduru Community Unit,,NA,NA,,NONE,,,NA,NA,NA,NA
Nyahera Community Health Unit,LvMtPjl4G4j,600099,jO55LWzNxCv,Nyahera CHU,,NA,NA,Community Health Services,POINT,"[34.71281,-0.03495]",,NA,NA,NA,NA
Nyakongo Community Health Unit,b07vh0MPlJD,600301,J3865NY4ur6,Nyakongo CHU,Fully functional,NA,NA,,POINT,"[35.01355,-0.20083]",,NA,NA,NA,NA
Nyalenda A Community Health Unit,o5FUwui6pXP,600100,uMzpY2vfUnF,Nyalenda A CHU,,NA,NA,,POINT,"[34.76895,-0.11414]",,NA,NA,NA,NA
Nyalenda A Community Unit,SwfXuJj8oVg,,DNnvCXUMH4v,Nyalenda A Community Unit,,NA,NA,,NONE,,,NA,NA,NA,NA
Nyalenda B Community Health Unit,nRNLYFghBIj,600101,uMzpY2vfUnF,Nyalenda B CHU,,NA,NA,,POINT,"[34.75211,-0.1226]",,NA,NA,NA,NA
Nyalunya Community Health Unit,tKE1cRqq35U,600103,bSJkg11sPh7,Nyalunya CHU,,NA,NA,Community Health Services,POINT,"[34.80916,-0.11746]",,NA,NA,NA,NA
Nyamware North Community Health Unit,p09zSayUnb2,602392,xHpOSfsb09z,Nyamware North CHU,,NA,NA,,POINT,"[34.8299,-0.15333]",,NA,NA,NA,NA
Nyamware South Community Health Unit,x78Vp0HT49C,602318,xHpOSfsb09z,Nyamware South CHU,,NA,NA,,POINT,"[34.8299,-0.15333]",,NA,NA,NA,NA
Nyongonga Community Health Unit,mXHuhM91pn9,,taNmXyxY87R,Nyongonga Community Health Unit,,NA,NA,,NONE,,,NA,NA,NA,NA
Obumba Community Health Unit,tvebh2mDoNf,600197,sjhSrlzV4w6,Obumba CHU,,NA,NA,,POINT,"[34.90175,-0.09184]",,NA,NA,NA,NA
Olwalo Community Health Unit,R1TYgHZekFD,600265,jzLxTVPy6wv,Olwalo CHU,,NA,NA,,POINT,"[34.93741,-0.31293]",,NA,NA,NA,NA
Osiri Community Health Unit,nndF7WL8wP5,602732,JVl5vd8v985,Osiri CHU,,NA,NA,Community Health Services,POINT,"[34.60952,-0.11518]",,NA,NA,NA,NA
Rarieda Community Health Unit,abZWndnzBxY,600266,jlWXLaZNtbr,Rarieda CHU,,NA,NA,,POINT,"[34.97284,-0.26973]",,NA,NA,NA,NA
Rota Community Unit,Bv8OKfCLuUt,,E5fkFJ09xpE,Rota Community Unit,,NA,NA,Community Health Services,NONE,,,NA,NA,NA,NA
South Alungo Community Health Unit,EKPEZwqhdjv,600127,gYaEWAxDwbL,South Alungo CHU,,NA,NA,,POINT,"[34.51846,-0.18267]",,NA,NA,NA,NA
South Kapuonja Community Health Unit,MZTrTvXRjZS,600128,RuEWpmWUmCM,South Kapuonja CHU,,NA,NA,,POINT,"[34.66381,-0.02097]",,NA,NA,NA,NA
South Kowe Community Health Unit,Whit5xBMpHK,602744,lq9mb305HDu,South Kowe CHU,,NA,NA,,POINT,"[34.52013,-0.03547]",,NA,NA,NA,NA
South Ratta Community Health Unit,SzeC5ixaHHI,600129,bDWpyLyczKC,South Ratta CHU,,NA,NA,,POINT,"[34.53725,-0.07104]",,NA,NA,NA,NA
Upper Kadiang'a Community Health Unit,RhF0lLmYeRD,,LhqVXAyAmeX,Upper Kadiang'a Community Health Unit,,NA,NA,,NONE,,,NA,NA,NA,NA
Sunga Community Health Unit,IPuHPnZePXy,600130,XgCDq1zkmPu,Sunga CHU,,NA,NA,,POINT,"[34.58966,-0.0339]",,NA,NA,NA,NA
Sidho East 1 Community Health Unit,SQoUw4fSn9k,602668,dhvsEE9CCU6,Sidho East 1 CHU,,NA,NA,,POINT,"[35.18199,-0.03911]",,NA,NA,NA,NA
Siany Community Health Unit,PrBi4rkvTHk,602737,szk9vzhrYeY,Siany CHU,,NA,NA,,POINT,,,NA,NA,NA,NA
Upper Tamu Community Health Unit,vgTiSgbmgMZ,600200,PENvTx4fphA,Upper Tamu CHU,,NA,NA,,POINT,"[35.20432,-0.10022]",,NA,NA,NA,NA
Upper Bwanda Community Health Unit,sD3LFbLKu0v,600109,gdjJjF3h8HT,Upper Bwanda CHU,,NA,NA,,POINT,"[34.84557,-0.20814]",,NA,NA,NA,NA
West Karateng' Community Health Unit,UuEFap9vTmg,600135,V0PeLlQNL7w,West Karateng' CHU,,NA,NA,,POINT,"[34.61057,-0.00079]",,NA,NA,NA,NA
Got Regea Community Health Unit,JuT8Z1M57T2,600037,dDUH3HhyOUc,Got Regea CHU,,NA,NA,,NONE,,,NA,NA,NA,NA
Pap Oriang Community Health Unit,ov3lrm3oKOA,602364,XZwiXe6lGnE,Pap Oriang CHU,,NA,NA,,NONE,"[34.3448,0.00716]",,NA,NA,NA,NA
Kogelo Community Health Unit,rVlBlXnddMU,602369,XZwiXe6lGnE,Kogelo CHU,,NA,NA,,NONE,"[34.3448,0.00716]",,NA,NA,NA,NA
Nyadorera A Community Health Unit,DroU9iE0WNx,600439,YjzBFHmaVTv,Nyadorera A CHU,,NA,NA,,NONE,"[34.12491,0.09518]",,NA,NA,NA,NA
Ulafu Community Health Unit,ZfiSBENCoT0,602309,EqMPdPE7rOm,Ulafu CHU,,NA,NA,,NONE,"[34.3424,0.03286]",,NA,NA,NA,NA
Umala Community Unit,Q9vAtNuZahF,,EqMPdPE7rOm,Umala Community Unit,,NA,NA,,NONE,,,NA,NA,NA,NA
Ndere Community Health Unit,aA6TAo5PahM,600047,BTkvpaSEq55,Ndere CHU,,NA,NA,,POINT,"[34.38299,0.13766]",,NA,NA,NA,NA
Masumbi Community Health Unit,vHcIc47vU7y,600437,GBhUzlGBAgx,Masumbi CHU,,NA,NA,,NONE,"[34.3637,0.01564]",,NA,NA,NA,NA
Bar Agulu Community Unit,q78IW2ZbU7N,,gFFdF6hGiFe,Bar Agulu Community Unit,,NA,NA,,NONE,,,NA,NA,NA,NA
Karapul Community Health Unit,jUvqLn0B8hP,600427,b3yukBxVi1J,Karapul CHU,,NA,NA,,NONE,"[34.2839,0.06313]",,NA,NA,NA,NA
Nyamila Community Health Unit,lDKIcU46EHO,600443,SaC88wqvxMt,Nyamila CHU,,NA,NA,,NONE,"[34.33441,0.11195]",,NA,NA,NA,NA
Nyagoko West Community Health Unit,Fb2W54AONnu,602619,UKLTU9SVDp3,Nyagoko West CHU,,NA,NA,,POINT,"[34.29557,-0.17535]",,NA,NA,NA,NA
Upper Kagwa Community Health Unit,dMEOSnfiPMN,600397,T9MIrcv0VeS,Kagwa CHU,,NA,NA,,POINT,"[34.25665,-0.22851]",,NA,NA,NA,NA
Barding Community Health Unit,JPVtp2DGLd2,602294,jetCZf5Uzd1,Barding CHU,,NA,NA,,NONE,"[34.32742,0.01281]",,NA,NA,NA,NA
Nyamsenda Community Health Unit,HMfuZYnAA4r,600497,JM72QVwNQhk,Nyamsenda CHU,,NA,NA,,POINT,"[34.26382,0.2862]",,NA,NA,NA,NA
Kathieno A Community Health Unit,ufCASN0Nmfp,600483,adrt3yquw88,Kathieno A CHU,,NA,NA,,NONE,,,NA,NA,NA,NA
Kanyadet Community Health Unit,Rm0gQdPYBhs,600040,WhFoPqHGsl3,Kanyadet CHU,,NA,NA,,POINT,"[34.42139,0.05961]",,NA,NA,NA,NA
Ulamba Community Health Unit,NH1DFHSRtOJ,600052,igio73d1icL,Ulamba CHU,,NA,NA,,POINT,"[34.41679,0.05102]",,NA,NA,NA,NA
Wagai West Community Health Unit,TqN3IGFovCF,600055,igio73d1icL,Wagai West CHU,,NA,NA,,POINT,"[34.41679,0.05102]",,NA,NA,NA,NA
Malunga East Community Health Unit,ufwOlNrbdFg,600045,igio73d1icL,Malunga East CHU,,NA,NA,,POINT,"[34.41679,0.05102]",,NA,NA,NA,NA
Simur East Community Unit,mfxYhFMgMus,,izw2qiqKFYI,Simur East Community Unit,,NA,NA,,NONE,,,NA,NA,NA,NA
Nyajuok Community Health Unit,ixFNCesvVCy,600441,kuzvgtX2kyS,Nyajuok CHU,,NA,NA,,NONE,"[34.28293,0.02448]",,NA,NA,NA,NA
Kokwiri A Community Health Unit,RBNjfaMfNpx,602835,EZCHSlG09NE,Kokwiri A CHU,,NA,NA,,POINT,"[34.27609,-0.25252]",,NA,NA,NA,NA
Randago Community Health Unit,KrbEQEJ7oPp,602290,tKxiY0VjNrr,Randago CHU,,NA,NA,,NONE,"[34.29287,0.01429]",,NA,NA,NA,NA
Bar Osimbo Community Health Unit,OW06u6HZDFb,600421,tKxiY0VjNrr,Bar Osimbo CHU,,NA,NA,,NONE,"[34.29287,0.01429]",,NA,NA,NA,NA
Masat East Community Health Unit,Rwrq6sbN6X4,600490,UDjLzocKru9,Masat East CHU,,NA,NA,,POINT,"[34.12707,0.15086]",,NA,NA,NA,NA
Lieta  Lower Community Health Unit,juxcB4vsO4h,,ZFly5uT5UHQ,Lieta  Lower Community Health Unit,,NA,NA,,NONE,,,NA,NA,NA,NA
Bar Olengo Community Health Unit,LISGdbEAZ90,600422,sK3DDy5tVCy,Bar Olengo CHU,,NA,NA,,NONE,"[34.21078,0.01515]",,NA,NA,NA,NA
Anyiko Community Health Unit,gailPpM7tib,460072,XedKlZAN2O9,Anyiko Community Health Unit,,NA,NA,,NONE,,,NA,NA,NA,NA
Kagonya Community Health Unit,Ue9XGCDwcT3,,O6gZXAxAKNy,Kagonya Community Health Unit,,NA,NA,,NONE,,,NA,NA,NA,NA
Hekima Community Health Unit,XCOuSJUVman,602753,a9OHUtkxjO8,Hekima CHU,Cu,NA,NA,,NONE,"[39.0764,-4.35192]",,NA,NA,NA,NA
Kagilo Community Health Unit,jf5wTfugfIY,600038,qoxnQwymhNP,Kagilo CHU,,NA,NA,,NONE,,,NA,NA,NA,NA
Nyabeda Community Health Unit,ikTsqMJpATP,600049,BTkvpaSEq55,Nyabeda CHU,,NA,NA,,POINT,"[34.38299,0.13766]",,NA,NA,NA,NA
Jera Community Health Unit,b7tgnmbGULz,600478,JM72QVwNQhk,Jera CHU,,NA,NA,,POINT,"[34.26382,0.2862]",,NA,NA,NA,NA
Doho East Community Health Unit,AMX2EmJ9urJ,600475,izw2qiqKFYI,Doho East CHU,,NA,NA,,POINT,"[34.18806,0.1931]",,NA,NA,NA,NA
Nyalenya Community Health Unit,CFHryRhnHNe,600496,DqwooToZ1N9,Nyalenya CHU,,NA,NA,,POINT,"[34.17204,0.28968]",,NA,NA,NA,NA
Karandolo East Community Health Unit,jl0hw9RwVwU,600481,WggQjuiAZV8,Karandolo East CHU,,NA,NA,,POINT,"[34.13531,0.22488]",,NA,NA,NA,NA
Kisumu Dh 6-Gynaecology,uLrFZoYPmOv,,uBfCuhllvg3,Kisumu DH 6-Gynaecology,,NA,NA,,NONE,,,NA,NA,NA,NA
Muhaka Community Unit,C0x7oTXRl6e,,Rqy8p7UOvvx,Muhaka Community Unit,Cu,NA,NA,,NONE,,,NA,NA,NA,NA
Mahanga Community Unit,PHJHQG11nPm,,QPgGjJSA4pB,Mahanga Community Unit,,NA,NA,,NONE,,,NA,NA,NA,NA
Senende community Unit,fJ2TqOgwnGG,,zwnu6Pa5gLi,Senende community Unit,,NA,NA,"Link Facility
Hamisi SDH",NONE,,,NA,NA,NA,NA
Ivola Community Health Unit,IpnsXa9iuha,,GwLVDDMCfyU,Ivola Community Health Unit,,NA,NA,,NONE,,,NA,NA,NA,NA
Madzuu Community Unit,Y9wxKyYGMMw,,QPgGjJSA4pB,Madzuu Community Unit,,NA,NA,,NONE,,,NA,NA,NA,NA
Emanda A Community Unit,UAkD0KEuLcf,,dhpZNi2matH,Emanda A Community Unit,,NA,NA,,NONE,,,NA,NA,NA,NA
Emutsalwa Community Health Unit,x2ofTXZkeiB,,UgJPzSFxXX4,Emutsalwa Community Health Unit,,NA,NA,,NONE,,,NA,NA,NA,NA
Ebusikhale Community Health Unit,h28FjS3QZ2N,600653,qIGDrvFNv3H,Ebusikhale CHU,,NA,NA,,POINT,"[34.58669,0.02453]",,NA,NA,NA,NA
Emabungo Community Unit,ZPiysefB4NH,,Av2bHzt2Sqw,Emabungo Community Unit,,NA,NA,,NONE,,,NA,NA,NA,NA
Hamuyundi Community Unit,cuTQ9klDIfL,,X2FnCxPnyEH,Hamuyundi CU,Community Unit,NA,NA,,NONE,,,NA,NA,NA,NA
Tserezani Community Health Unit,X1Ns9CEElun,602796,RhP9ywU9c7a,Tserezani CHU,,NA,NA,,POINT,"[39.3663,-4.22579]",,NA,NA,NA,NA
Lower Sidho East 2 Community Unit,T7tbRRic3FG,,NQrGfGGhV0g,Lower Sidho East 2 Community Unit,,NA,NA,,NONE,,,NA,NA,NA,NA
Idereri Community Unit,SNhPEMeyOjo,,TebstKvirIl,Idereri Community Unit,,NA,NA,,NONE,,,NA,NA,NA,NA
Kwakungu Community Health Unit,XxlY9ne6lLp,600093,gdjJjF3h8HT,Kwakungu CHU,,NA,NA,,POINT,"[34.84557,-0.20814]",,NA,NA,NA,NA
Kadhiambo Community Health Unit,iBSHspgXnLI,600085,gdjJjF3h8HT,Kadhiambo CHU,,NA,NA,,POINT,"[34.84557,-0.20814]",,NA,NA,NA,NA
Kapiyo Community Health Unit,P72QJ4FIwgT,600088,BbQdZEIQFV7,Kapiyo CHU,,NA,NA,,POINT,"[34.84557,-0.20814]",,NA,NA,NA,NA
Koru Central Community Unit,cLRXFnu6Olq,,UnUk7uMZeBz,Koru Central Community Unit,,NA,NA,,NONE,,,NA,NA,NA,NA
Obambo Community Health Unit,cowRq7UCXkU,602300,iAuQRWVoRpK,Obambo CHU,,NA,NA,,NONE,"[34.17477,0.02373]",,NA,NA,NA,NA
Olwa Community Health Unit,Syv3zlroRGw,602299,JndRLlEOlBD,Olwa CHU,,NA,NA,,NONE,"[34.36196,0.05181]",,NA,NA,NA,NA
Ochienga Community Health Unit,smnlcbD38Ms,600408,CQFAYq3arhb,Ochienga CHU,,NA,NA,,POINT,"[34.38472,-0.28196]",,NA,NA,NA,NA
Simur Kondiek Community Health Unit,FSvwa2Pg6Pw,600509,izw2qiqKFYI,Simur Kondiek CHU,,NA,NA,,POINT,"[34.18806,0.1931]",,NA,NA,NA,NA
Mkoyo Community Unit,cbcrKLN4QVG,,gEvZgtrunJY,Mkoyo CU,Located in Tiwi Location Mkoyo Sub location. It was established by ICRH,NA,NA,,NONE,,,NA,NA,NA,NA
Omia Diere B Community Health Unit,b8KriHmpIRF,602620,SlmxDUIybki,Omia Diere B CHU,,NA,NA,,POINT,"[34.41064,-0.15902]",,NA,NA,NA,NA
North Ramba C Community Health Unit,MrkDgjgtAxV,602618,QYhKgi9NMUr,North Ramba C CHU,,NA,NA,,POINT,"[34.37752,-0.06975]",,NA,NA,NA,NA
Asango East Community Health Unit,pHTF23fK7pJ,600473,dNgg6md2JdN,Asango East CHU,,NA,NA,,POINT,"[34.3857,0.2588]",,NA,NA,NA,NA
Uyundo Community Health Unit,y50RqtE62Zw,600516,DqwooToZ1N9,Uyundo CHU,,NA,NA,,POINT,"[34.17204,0.28968]",,NA,NA,NA,NA
Karandolo West Community Health Unit,WY2LO2IItPo,600482,WggQjuiAZV8,Karandolo West CHU,,NA,NA,,POINT,"[34.13531,0.22488]",,NA,NA,NA,NA
Vunandi Community Unit,xhyVVuGwZT7,,Fjb8CId2BV7,Vunandi Community Unit,,NA,NA,,NONE,,,NA,NA,NA,NA
Mbuwani Community Health Unit,FM6qM9thH4J,602761,gwB2ZiLFNyy,Mbuwani CHU,Cu,NA,NA,,NONE,"[39.13672,-4.61782]",,NA,NA,NA,NA
Pangani Community Health Unit,WtntYpCQbzY,,qBmMdCCXus8,Pangani CHU,,NA,NA,,NONE,,,NA,NA,NA,NA
Usigu Community Health Unit,hrtwD3BucH4,600024,Iya3kdsvW1A,Usigu CHU,,NA,NA,,POINT,"[34.0994,-0.0568]",,NA,NA,NA,NA
Ramula Community Unit,O3j8mLNQH3P,,I12ueCqFUQG,Ramula unit,,NA,NA,,NONE,,,NA,NA,NA,NA
West Songhor Community Unit,mosfkvWGdR2,,LYauDwfdLGf,West Songhor Community Unit,,NA,NA,,NONE,,,NA,NA,NA,NA
Usoma Community Unit,PTTpzkgbgKy,602735,NwNdyVDgAPq,Usoma CHU,,NA,NA,,POINT,"[34.71978,-0.10381]",,NA,NA,NA,NA
Wanganga Community Health Unit,DsN8Jo6wqFJ,600303,htS3CRkD3WD,Wanganga CHU,,NA,NA,,POINT,"[35.07329,-0.19317]",,NA,NA,NA,NA
Wangaya 2 Community Health Unit,jxFNOyd8QBn,600202,FDrUcAP4Sn4,Wangaya 2 CHU,,NA,NA,,POINT,"[35.00522,-0.09843]",,NA,NA,NA,NA
Magunga Community Health Unit,FGmQ90MhvYY,600453,Q4d8psx1iAH,Magunga CHU,,NA,NA,,POINT,,,NA,NA,NA,NA
Ojuando B Community Unit,wxW0qJL4UOD,,EwpG2Q4y05m,Ojuando B Community Unit,,NA,NA,,NONE,,,NA,NA,NA,NA
Michura Community Health Unit,RLRWLEYmzQ5,,H2j5rA0udFS,Michura Community Health Unit,,NA,NA,,NONE,,,NA,NA,NA,NA
Obunga Community Unit,KOfAhct8piJ,,UZlFjPJGpjz,Obunga Community Unit,,NA,NA,,NONE,,,NA,NA,NA,NA
Ramogi Community Health Unit,a7wMSLETBwy,602738,eH1iSu1tL6t,Ramogi CHU,,NA,NA,,POINT,"[34.97091,-0.34667]",,NA,NA,NA,NA
Nyandiwa Community Health Unit,m8fj0092ew6,600062,w8NTKsoCH8b,Nyandiwa CHU,,NA,NA,,NONE,,,NA,NA,NA,NA
West Katwenga In Community Health Unit,JourRpImvRK,600416,TFTsjlwBeca,West Katwenga In CHU,,NA,NA,,POINT,"[34.32304,-0.28396]",,NA,NA,NA,NA
Esirulo Community Health Unit,xad0mzESXuA,,RILlb5RVEkC,Esirulo CU,,NA,NA,,NONE,,,NA,NA,NA,NA
Koguta East Community Health Unit,f92u7910pkn,600258,eH1iSu1tL6t,Koguta East CHU,,NA,NA,,POINT,"[34.97091,-0.34667]",,NA,NA,NA,NA
Gonja Community Health Unit,XOUa4LY9e8S,601854,mz64odxfFPq,Gonja CHU,Cu,NA,NA,,POINT,"[39.1206,-4.55366]",,NA,NA,NA,NA
Kaya Community Health Unit,ilHW4446ygJ,601855,mz64odxfFPq,Kaya CHU,Cu,NA,NA,,POINT,"[39.1206,-4.55366]",,NA,NA,NA,NA
Sega Community Unit,EJvOYnzXZTM,,mz64odxfFPq,Sega Community Unit,Cu,NA,NA,,NONE,,,NA,NA,NA,NA
Shikamano Community Health Unit,Fyw2XrKMtG5,,mz64odxfFPq,Shikamano CHU,,NA,NA,,NONE,,,NA,NA,NA,NA
Majimoto Commnity Unit,DN2hCg5uQKR,,ksNfsN3CiNc,Majimoto Commnity unit,Cu,NA,NA,,NONE,,,NA,NA,NA,NA
Emanda B Community Unit,hTyK7BjadBI,,dhpZNi2matH,Emanda B Community Unit,,NA,NA,,NONE,,,NA,NA,NA,NA
Taru Community Health Unit,NVRV82btYjO,601804,hVc9GNgGPYF,Taru CHU,,NA,NA,,NONE,"[39.14233,-3.75404]",,NA,NA,NA,NA
Mukungi Community Unit,kRKWbPlCDe8,,gkuMI9M275m,Mukungi Community Unit,,NA,NA,,NONE,,,NA,NA,NA,NA
Galona Community Health Unit,oxaxlhQz8fS,600660,FQYIEOl4hmM,Galona CHU,,NA,NA,"Link facility
Kapchemwani Dispensary",POINT,"[34.76278,0.03782]",,NA,NA,NA,NA
Mwena Community Health Unit,ChxzUQxgBKS,602758,Tuwzk3ENvM5,Mwena CHU,Cu,NA,NA,,POINT,"[39.4708,-4.48007]",,NA,NA,NA,NA
Kisumu Dh 3-Female Medical,UmkZ21I2xwx,,uBfCuhllvg3,Kisumu DH 3 Female Med.,,NA,NA,,NONE,,,NA,NA,NA,NA
Ekamanji Community Health Unit,yNMkwCVlh89,,uco8xXZcBc8,Ekamanji Community Health Unit,,NA,NA,,NONE,,,NA,NA,NA,NA
Sumba Community Health Unit,pgYLe4QyEVa,600448,r7hNHZYd4pj,Sumba CHU,,NA,NA,,NONE,"[34.09344,0.0856]",,NA,NA,NA,NA
Ebukhunza Community Health Unit,FuLDxN8yijY,,RILlb5RVEkC,Ebukhunza CU,,NA,NA,,NONE,,,NA,NA,NA,NA
Vigurungani Community Health Unit,xctpMoBq96u,601805,Yb2CWS6G5vL,Vigurungani CHU,Community unit,NA,NA,,NONE,"[39.16313,-4.04152]",,NA,NA,NA,NA
Got Agulu Community Health Unit,YzEYO67AEMt,600008,DVnHWnAZOjR,Got Agulu CHU,,NA,NA,boarders bunyala in Busia Uganda.,POINT,"[34.0248,-0.0341]",,NA,NA,NA,NA
Railways Community Health Unit,xmWPhybTSFT,601630,uNfRv08L7NJ,Railways CHU,,NA,NA,,POINT,,,NA,NA,NA,NA
Chagenda Community Unit,SE1zv4E1k0Z,,VsGhTdYbBD7,Chagenda Community Unit,,NA,NA,,NONE,,,NA,NA,NA,NA
Kambare Community Health Unit,vt3kTp7YT8z,600039,BEJQPDKe2Mo,Kambare CHU,,NA,NA,,POINT,"[34.4665,-0.03225]",,NA,NA,NA,NA
Gaigedi CU,O7qT3aR9Usi,,LeATvvxVKcP,Gaigedi CU,,NA,NA,,NONE,,,NA,NA,NA,NA
Wamasiolo Community Health Unit,FnJ33JvKPAU,600659,p8nULMcL3p5,Wamasiolo CHU,,NA,NA,,POINT,"[34.65628,0.05669]",,NA,NA,NA,NA
